{"type":"FeatureCollection","features":[{"type":"Feature","geometry":{"type":"LineString","coordinates":[[-69.002198,44.429304],[-69.002428,44.429304]]},"properties":{"source":"fairway_centerline","channelName":"Belfast Harbor"}},{"type":"Feature","geometry":{"type":"LineString","coordinates":[[-69.106141,44.100226],[-69.105888,44.10033]]},"properties":{"source":"fairway_centerline","channelName":"Rockland Harbor Town Channel"}},{"type":"Feature","geometry":{"type":"LineString","coordinates":[[-69.105888,44.10033],[-69.105273,44.100956]]},"properties":{"source":"fairway_centerline","channelName":"Rockland Harbor Town Channel"}},{"type":"Feature","geometry":{"type":"LineString","coordinates":[[-69.105273,44.100956],[-69.102994,44.102337]]},"properties":{"source":"fairway_centerline","channelName":"Rockland Harbor Town Channel"}},{"type":"Feature","geometry":{"type":"LineString","coordinates":[[-69.102994,44.102337],[-69.10068,44.103536]]},"properties":{"source":"fairway_centerline","channelName":"Rockland Harbor Town Channel"}},{"type":"Feature","geometry":{"type":"LineString","coordinates":[[-69.10068,44.103536],[-69.100571,44.103771]]},"properties":{"source":"fairway_centerline","channelName":"Rockland Harbor Town Channel"}},{"type":"Feature","geometry":{"type":"LineString","coordinates":[[-69.103972,44.108147],[-69.104052,44.108185]]},"properties":{"source":"fairway_centerline","channelName":"Lermond Cove Channel"}},{"type":"Feature","geometry":{"type":"LineString","coordinates":[[-69.104025,44.108319],[-69.103999,44.108395]]},"properties":{"source":"fairway_centerline","channelName":"Lermond Cove Channel"}},{"type":"Feature","geometry":{"type":"LineString","coordinates":[[-69.104025,44.108319],[-69.104025,44.1083]]},"properties":{"source":"fairway_centerline","channelName":"Lermond Cove Channel"}},{"type":"Feature","geometry":{"type":"LineString","coordinates":[[-69.103893,44.108739],[-69.103919,44.108643]]},"properties":{"source":"fairway_centerline","channelName":"Lermond Cove Channel"}},{"type":"Feature","geometry":{"type":"LineString","coordinates":[[-69.103999,44.108395],[-69.103972,44.108471]]},"properties":{"source":"fairway_centerline","channelName":"Lermond Cove Channel"}},{"type":"Feature","geometry":{"type":"LineString","coordinates":[[-69.104052,44.108185],[-69.104052,44.108204]]},"properties":{"source":"fairway_centerline","channelName":"Lermond Cove Channel"}},{"type":"Feature","geometry":{"type":"LineString","coordinates":[[-69.104078,44.108242],[-69.104052,44.108204]]},"properties":{"source":"fairway_centerline","channelName":"Lermond Cove Channel"}},{"type":"Feature","geometry":{"type":"LineString","coordinates":[[-69.104025,44.1083],[-69.104052,44.108281]]},"properties":{"source":"fairway_centerline","channelName":"Lermond Cove Channel"}},{"type":"Feature","geometry":{"type":"LineString","coordinates":[[-69.104052,44.108281],[-69.104078,44.108242]]},"properties":{"source":"fairway_centerline","channelName":"Lermond Cove Channel"}},{"type":"Feature","geometry":{"type":"LineString","coordinates":[[-69.103972,44.108471],[-69.103946,44.108567]]},"properties":{"source":"fairway_centerline","channelName":"Lermond Cove Channel"}},{"type":"Feature","geometry":{"type":"LineString","coordinates":[[-69.103919,44.108643],[-69.103946,44.108567]]},"properties":{"source":"fairway_centerline","channelName":"Lermond Cove Channel"}},{"type":"Feature","geometry":{"type":"LineString","coordinates":[[-69.103972,44.1083],[-69.103813,44.108338]]},"properties":{"source":"fairway_centerline","channelName":"Lermond Cove Channel"}},{"type":"Feature","geometry":{"type":"LineString","coordinates":[[-69.103495,44.108395],[-69.103654,44.108376]]},"properties":{"source":"fairway_centerline","channelName":"Lermond Cove Channel"}},{"type":"Feature","geometry":{"type":"LineString","coordinates":[[-69.104052,44.108281],[-69.103972,44.1083]]},"properties":{"source":"fairway_centerline","channelName":"Lermond Cove Channel"}},{"type":"Feature","geometry":{"type":"LineString","coordinates":[[-69.103654,44.108357],[-69.103654,44.108376]]},"properties":{"source":"fairway_centerline","channelName":"Lermond Cove Channel"}},{"type":"Feature","geometry":{"type":"LineString","coordinates":[[-69.103654,44.108357],[-69.103813,44.108338]]},"properties":{"source":"fairway_centerline","channelName":"Lermond Cove Channel"}},{"type":"Feature","geometry":{"type":"LineString","coordinates":[[-69.103972,44.108147],[-69.103919,44.10809]]},"properties":{"source":"fairway_centerline","channelName":"Lermond Cove Channel"}},{"type":"Feature","geometry":{"type":"LineString","coordinates":[[-69.103919,44.10809],[-69.103893,44.10809]]},"properties":{"source":"fairway_centerline","channelName":"Lermond Cove Channel"}},{"type":"Feature","geometry":{"type":"LineString","coordinates":[[-69.10376,44.107975],[-69.10384,44.108032]]},"properties":{"source":"fairway_centerline","channelName":"Lermond Cove Channel"}},{"type":"Feature","geometry":{"type":"LineString","coordinates":[[-69.103893,44.10809],[-69.10384,44.108032]]},"properties":{"source":"fairway_centerline","channelName":"Lermond Cove Channel"}},{"type":"Feature","geometry":{"type":"LineString","coordinates":[[-69.100046,44.107008],[-69.100321,44.106925]]},"properties":{"source":"fairway_centerline","channelName":"Rockland Harbor Bypass Channel"}},{"type":"Feature","geometry":{"type":"LineString","coordinates":[[-69.100321,44.106925],[-69.100985,44.107503]]},"properties":{"source":"fairway_centerline","channelName":"Rockland Harbor Bypass Channel"}},{"type":"Feature","geometry":{"type":"LineString","coordinates":[[-69.100985,44.107503],[-69.101695,44.1078]]},"properties":{"source":"fairway_centerline","channelName":"Rockland Harbor Bypass Channel"}},{"type":"Feature","geometry":{"type":"LineString","coordinates":[[-69.101695,44.1078],[-69.103047,44.108031]]},"properties":{"source":"fairway_centerline","channelName":"Rockland Harbor Bypass Channel"}},{"type":"Feature","geometry":{"type":"LineString","coordinates":[[-69.103047,44.108031],[-69.103506,44.1078]]},"properties":{"source":"fairway_centerline","channelName":"Rockland Harbor Bypass Channel"}},{"type":"Feature","geometry":{"type":"LineString","coordinates":[[-68.175,44.395961],[-68.182,44.4]]},"properties":{"source":"recommended_track","channelName":"RECTRC"}},{"type":"Feature","geometry":{"type":"LineString","coordinates":[[-68.186,44.393722],[-68.185009,44.393822]]},"properties":{"source":"recommended_track","channelName":"RECTRC"}},{"type":"Feature","geometry":{"type":"LineString","coordinates":[[-68.185009,44.393822],[-68.182573,44.394068]]},"properties":{"source":"recommended_track","channelName":"RECTRC"}},{"type":"Feature","geometry":{"type":"LineString","coordinates":[[-68.182573,44.394068],[-68.181866,44.394139]]},"properties":{"source":"recommended_track","channelName":"RECTRC"}},{"type":"Feature","geometry":{"type":"LineString","coordinates":[[-68.181866,44.394139],[-68.175,44.394832]]},"properties":{"source":"recommended_track","channelName":"RECTRC"}},{"type":"Feature","geometry":{"type":"LineString","coordinates":[[-68.175,44.394832],[-68.173334,44.395]]},"properties":{"source":"recommended_track","channelName":"RECTRC"}},{"type":"Feature","geometry":{"type":"LineString","coordinates":[[-68.173334,44.395],[-68.175,44.395961]]},"properties":{"source":"recommended_track","channelName":"RECTRC"}},{"type":"Feature","geometry":{"type":"LineString","coordinates":[[-68.122324,44.325],[-68.123437,44.325469]]},"properties":{"source":"recommended_track","channelName":"RECTRC"}},{"type":"Feature","geometry":{"type":"LineString","coordinates":[[-68.123437,44.325469],[-68.127217,44.327061]]},"properties":{"source":"recommended_track","channelName":"RECTRC"}},{"type":"Feature","geometry":{"type":"LineString","coordinates":[[-68.127217,44.327061],[-68.128294,44.327425]]},"properties":{"source":"recommended_track","channelName":"RECTRC"}},{"type":"Feature","geometry":{"type":"LineString","coordinates":[[-68.128294,44.327425],[-68.130047,44.328017]]},"properties":{"source":"recommended_track","channelName":"RECTRC"}},{"type":"Feature","geometry":{"type":"LineString","coordinates":[[-68.130047,44.328017],[-68.135891,44.329704]]},"properties":{"source":"recommended_track","channelName":"RECTRC"}},{"type":"Feature","geometry":{"type":"LineString","coordinates":[[-68.135891,44.329704],[-68.141265,44.331256]]},"properties":{"source":"recommended_track","channelName":"RECTRC"}},{"type":"Feature","geometry":{"type":"LineString","coordinates":[[-68.141265,44.331256],[-68.144196,44.332102]]},"properties":{"source":"recommended_track","channelName":"RECTRC"}},{"type":"Feature","geometry":{"type":"LineString","coordinates":[[-68.144196,44.332102],[-68.147503,44.333057]]},"properties":{"source":"recommended_track","channelName":"RECTRC"}},{"type":"Feature","geometry":{"type":"LineString","coordinates":[[-68.147503,44.333057],[-68.148336,44.333298]]},"properties":{"source":"recommended_track","channelName":"RECTRC"}},{"type":"Feature","geometry":{"type":"LineString","coordinates":[[-68.148336,44.333298],[-68.152965,44.350628]]},"properties":{"source":"recommended_track","channelName":"RECTRC"}},{"type":"Feature","geometry":{"type":"LineString","coordinates":[[-68.152965,44.350628],[-68.153657,44.353218]]},"properties":{"source":"recommended_track","channelName":"RECTRC"}},{"type":"Feature","geometry":{"type":"LineString","coordinates":[[-68.153657,44.353218],[-68.155502,44.360121]]},"properties":{"source":"recommended_track","channelName":"RECTRC"}},{"type":"Feature","geometry":{"type":"LineString","coordinates":[[-68.155502,44.360121],[-68.157247,44.366653]]},"properties":{"source":"recommended_track","channelName":"RECTRC"}},{"type":"Feature","geometry":{"type":"LineString","coordinates":[[-68.157247,44.366653],[-68.157923,44.369183]]},"properties":{"source":"recommended_track","channelName":"RECTRC"}},{"type":"Feature","geometry":{"type":"LineString","coordinates":[[-68.157923,44.369183],[-68.159115,44.373323]]},"properties":{"source":"recommended_track","channelName":"RECTRC"}},{"type":"Feature","geometry":{"type":"LineString","coordinates":[[-68.159115,44.373323],[-68.159599,44.37621]]},"properties":{"source":"recommended_track","channelName":"RECTRC"}},{"type":"Feature","geometry":{"type":"LineString","coordinates":[[-68.159599,44.37621],[-68.163196,44.381065]]},"properties":{"source":"recommended_track","channelName":"RECTRC"}},{"type":"Feature","geometry":{"type":"LineString","coordinates":[[-68.163196,44.381065],[-68.164731,44.383137]]},"properties":{"source":"recommended_track","channelName":"RECTRC"}},{"type":"Feature","geometry":{"type":"LineString","coordinates":[[-68.164731,44.383137],[-68.173334,44.395]]},"properties":{"source":"recommended_track","channelName":"RECTRC"}},{"type":"Feature","geometry":{"type":"LineString","coordinates":[[-68.128294,44.327425],[-68.128422,44.325]]},"properties":{"source":"recommended_track","channelName":"RECTRC"}},{"type":"Feature","geometry":{"type":"LineString","coordinates":[[-68.954702,44.088209],[-68.94872,44.088035]]},"properties":{"source":"buoy_chain","channelName":"Fox Island Thorofare"}},{"type":"Feature","geometry":{"type":"LineString","coordinates":[[-68.94872,44.088035],[-68.946882,44.096795]]},"properties":{"source":"buoy_chain","channelName":"Fox Island Thorofare"}},{"type":"Feature","geometry":{"type":"LineString","coordinates":[[-68.946882,44.096795],[-68.927684,44.100713]]},"properties":{"source":"buoy_chain","channelName":"Fox Island Thorofare"}},{"type":"Feature","geometry":{"type":"LineString","coordinates":[[-68.927684,44.100713],[-68.929255,44.108637]]},"properties":{"source":"buoy_chain","channelName":"Fox Island Thorofare"}},{"type":"Feature","geometry":{"type":"LineString","coordinates":[[-68.929255,44.108637],[-68.910795,44.113846]]},"properties":{"source":"buoy_chain","channelName":"Fox Island Thorofare"}},{"type":"Feature","geometry":{"type":"LineString","coordinates":[[-68.910795,44.113846],[-68.908091,44.121477]]},"properties":{"source":"buoy_chain","channelName":"Fox Island Thorofare"}},{"type":"Feature","geometry":{"type":"LineString","coordinates":[[-68.908091,44.121477],[-68.899846,44.125238]]},"properties":{"source":"buoy_chain","channelName":"Fox Island Thorofare"}},{"type":"Feature","geometry":{"type":"LineString","coordinates":[[-68.899846,44.125238],[-68.886504,44.126241]]},"properties":{"source":"buoy_chain","channelName":"Fox Island Thorofare"}},{"type":"Feature","geometry":{"type":"LineString","coordinates":[[-68.886504,44.126241],[-68.874283,44.12485]]},"properties":{"source":"buoy_chain","channelName":"Fox Island Thorofare"}},{"type":"Feature","geometry":{"type":"LineString","coordinates":[[-68.874283,44.12485],[-68.869971,44.124631]]},"properties":{"source":"buoy_chain","channelName":"Fox Island Thorofare"}},{"type":"Feature","geometry":{"type":"LineString","coordinates":[[-68.869971,44.124631],[-68.860349,44.124013]]},"properties":{"source":"buoy_chain","channelName":"Fox Island Thorofare"}},{"type":"Feature","geometry":{"type":"LineString","coordinates":[[-68.860349,44.124013],[-68.855453,44.126431]]},"properties":{"source":"buoy_chain","channelName":"Fox Island Thorofare"}},{"type":"Feature","geometry":{"type":"LineString","coordinates":[[-68.855453,44.126431],[-68.85259,44.13113]]},"properties":{"source":"buoy_chain","channelName":"Fox Island Thorofare"}},{"type":"Feature","geometry":{"type":"LineString","coordinates":[[-68.85259,44.13113],[-68.845444,44.134278]]},"properties":{"source":"buoy_chain","channelName":"Fox Island Thorofare"}},{"type":"Feature","geometry":{"type":"LineString","coordinates":[[-68.845444,44.134278],[-68.840748,44.133129]]},"properties":{"source":"buoy_chain","channelName":"Fox Island Thorofare"}},{"type":"Feature","geometry":{"type":"LineString","coordinates":[[-68.840748,44.133129],[-68.824213,44.131367]]},"properties":{"source":"buoy_chain","channelName":"Fox Island Thorofare"}},{"type":"Feature","geometry":{"type":"LineString","coordinates":[[-68.824213,44.131367],[-68.801827,44.130807]]},"properties":{"source":"buoy_chain","channelName":"Fox Island Thorofare"}},{"type":"Feature","geometry":{"type":"LineString","coordinates":[[-68.801827,44.130807],[-68.778085,44.131889]]},"properties":{"source":"buoy_chain","channelName":"Fox Island Thorofare"}},{"type":"Feature","geometry":{"type":"LineString","coordinates":[[-68.710402,44.235637],[-68.807921,44.214965]]},"properties":{"source":"buoy_chain","channelName":"Channel Rock"}},{"type":"Feature","geometry":{"type":"LineString","coordinates":[[-68.80264,44.51369],[-68.801006,44.501974]]},"properties":{"source":"buoy_chain","channelName":"Penobscot River"}},{"type":"Feature","geometry":{"type":"LineString","coordinates":[[-68.801006,44.501974],[-68.792742,44.497233]]},"properties":{"source":"buoy_chain","channelName":"Penobscot River"}},{"type":"Feature","geometry":{"type":"LineString","coordinates":[[-68.792742,44.497233],[-68.801185,44.493406]]},"properties":{"source":"buoy_chain","channelName":"Penobscot River"}},{"type":"Feature","geometry":{"type":"LineString","coordinates":[[-68.801185,44.493406],[-68.806835,44.46871]]},"properties":{"source":"buoy_chain","channelName":"Penobscot River"}},{"type":"Feature","geometry":{"type":"LineString","coordinates":[[-68.815027,44.581165],[-68.815526,44.588265]]},"properties":{"source":"buoy_chain","channelName":"Penobscot River"}},{"type":"Feature","geometry":{"type":"LineString","coordinates":[[-68.815526,44.588265],[-68.824725,44.600958]]},"properties":{"source":"buoy_chain","channelName":"Penobscot River"}},{"type":"Feature","geometry":{"type":"LineString","coordinates":[[-68.824725,44.600958],[-68.835915,44.604026]]},"properties":{"source":"buoy_chain","channelName":"Penobscot River"}},{"type":"Feature","geometry":{"type":"LineString","coordinates":[[-68.835915,44.604026],[-68.844153,44.606413]]},"properties":{"source":"buoy_chain","channelName":"Penobscot River"}},{"type":"Feature","geometry":{"type":"LineString","coordinates":[[-68.844153,44.606413],[-68.850114,44.612714]]},"properties":{"source":"buoy_chain","channelName":"Penobscot River"}},{"type":"Feature","geometry":{"type":"LineString","coordinates":[[-68.850114,44.612714],[-68.850004,44.620033]]},"properties":{"source":"buoy_chain","channelName":"Penobscot River"}},{"type":"Feature","geometry":{"type":"LineString","coordinates":[[-68.815914,44.750766],[-68.813434,44.754267]]},"properties":{"source":"buoy_chain","channelName":"Penobscot River"}},{"type":"Feature","geometry":{"type":"LineString","coordinates":[[-68.479081,44.238716],[-68.484507,44.238549]]},"properties":{"source":"buoy_chain","channelName":"Pond Island Passage"}},{"type":"Feature","geometry":{"type":"LineString","coordinates":[[-68.484507,44.238549],[-68.491768,44.235319]]},"properties":{"source":"buoy_chain","channelName":"Pond Island Passage"}},{"type":"Feature","geometry":{"type":"LineString","coordinates":[[-68.496137,44.242766],[-68.493864,44.248982]]},"properties":{"source":"buoy_chain","channelName":"Flye Island Channel"}},{"type":"Feature","geometry":{"type":"LineString","coordinates":[[-68.493864,44.248982],[-68.496834,44.252147]]},"properties":{"source":"buoy_chain","channelName":"Flye Island Channel"}},{"type":"Feature","geometry":{"type":"LineString","coordinates":[[-68.441881,44.196764],[-68.461446,44.193401]]},"properties":{"source":"buoy_chain","channelName":"Casco Passage"}},{"type":"Feature","geometry":{"type":"LineString","coordinates":[[-68.461446,44.193401],[-68.467571,44.193914]]},"properties":{"source":"buoy_chain","channelName":"Casco Passage"}},{"type":"Feature","geometry":{"type":"LineString","coordinates":[[-68.467571,44.193914],[-68.471119,44.19541]]},"properties":{"source":"buoy_chain","channelName":"Casco Passage"}},{"type":"Feature","geometry":{"type":"LineString","coordinates":[[-68.471119,44.19541],[-68.471983,44.194701]]},"properties":{"source":"buoy_chain","channelName":"Casco Passage"}},{"type":"Feature","geometry":{"type":"LineString","coordinates":[[-68.471983,44.194701],[-68.477397,44.194534]]},"properties":{"source":"buoy_chain","channelName":"Casco Passage"}},{"type":"Feature","geometry":{"type":"LineString","coordinates":[[-68.477397,44.194534],[-68.484302,44.193399]]},"properties":{"source":"buoy_chain","channelName":"Casco Passage"}},{"type":"Feature","geometry":{"type":"LineString","coordinates":[[-68.484302,44.193399],[-68.494106,44.19376]]},"properties":{"source":"buoy_chain","channelName":"Casco Passage"}},{"type":"Feature","geometry":{"type":"LineString","coordinates":[[-69.096417,44.099767],[-69.096417,44.100183]]},"properties":{"source":"buoy_chain","channelName":"Red City Channel"}},{"type":"Feature","geometry":{"type":"LineString","coordinates":[[-69.101,44.099967],[-69.101,44.100317]]},"properties":{"source":"buoy_chain","channelName":"Red City Channel"}},{"type":"Feature","geometry":{"type":"LineString","coordinates":[[-69.101,44.100317],[-69.096417,44.100183]]},"properties":{"source":"buoy_chain","channelName":"Red City Channel"}},{"type":"Feature","geometry":{"type":"LineString","coordinates":[[-69.101,44.100317],[-69.104417,44.10025]]},"properties":{"source":"buoy_chain","channelName":"Red City Channel"}},{"type":"Feature","geometry":{"type":"LineString","coordinates":[[-69.10495,44.10055],[-69.104417,44.10025]]},"properties":{"source":"buoy_chain","channelName":"Red City Channel"}},{"type":"Feature","geometry":{"type":"LineString","coordinates":[[-68.853901,44.042179],[-68.857613,44.042871]]},"properties":{"source":"buoy_chain","channelName":"The Reach"}},{"type":"Feature","geometry":{"type":"LineString","coordinates":[[-68.857613,44.042871],[-68.861132,44.044564]]},"properties":{"source":"buoy_chain","channelName":"The Reach"}},{"type":"Feature","geometry":{"type":"LineString","coordinates":[[-69.1033,44.107802],[-69.101659,44.10757]]},"properties":{"source":"buoy_chain","channelName":"Rockland Harbor Bypass Channel"}},{"type":"Feature","geometry":{"type":"LineString","coordinates":[[-69.1033,44.107802],[-69.103157,44.108305]]},"properties":{"source":"buoy_chain","channelName":"Rockland Harbor Bypass Channel"}},{"type":"Feature","geometry":{"type":"LineString","coordinates":[[-69.099534,44.105778],[-69.100768,44.106933]]},"properties":{"source":"buoy_chain","channelName":"Rockland Harbor Bypass Channel"}},{"type":"Feature","geometry":{"type":"LineString","coordinates":[[-69.100768,44.106933],[-69.101659,44.10757]]},"properties":{"source":"buoy_chain","channelName":"Rockland Harbor Bypass Channel"}},{"type":"Feature","geometry":{"type":"LineString","coordinates":[[-69.103454,44.110324],[-69.103957,44.110428]]},"properties":{"source":"buoy_chain","channelName":"Rockland Harbor Bypass Channel"}},{"type":"Feature","geometry":{"type":"LineString","coordinates":[[-69.103454,44.110324],[-69.103157,44.108305]]},"properties":{"source":"buoy_chain","channelName":"Rockland Harbor Bypass Channel"}},{"type":"Feature","geometry":{"type":"LineString","coordinates":[[-69.103454,44.110324],[-69.102135,44.111444]]},"properties":{"source":"buoy_chain","channelName":"Rockland Harbor Bypass Channel"}},{"type":"Feature","geometry":{"type":"LineString","coordinates":[[-68.632104,44.079666],[-68.63282,44.079527]]},"properties":{"source":"buoy_chain","channelName":"Isle Au Haut Thorofare"}},{"type":"Feature","geometry":{"type":"LineString","coordinates":[[-68.63282,44.079527],[-68.633921,44.078448]]},"properties":{"source":"buoy_chain","channelName":"Isle Au Haut Thorofare"}},{"type":"Feature","geometry":{"type":"LineString","coordinates":[[-68.633921,44.078448],[-68.635928,44.076777]]},"properties":{"source":"buoy_chain","channelName":"Isle Au Haut Thorofare"}},{"type":"Feature","geometry":{"type":"LineString","coordinates":[[-68.635928,44.076777],[-68.635934,44.076515]]},"properties":{"source":"buoy_chain","channelName":"Isle Au Haut Thorofare"}},{"type":"Feature","geometry":{"type":"LineString","coordinates":[[-68.635934,44.076515],[-68.637,44.075548]]},"properties":{"source":"buoy_chain","channelName":"Isle Au Haut Thorofare"}},{"type":"Feature","geometry":{"type":"LineString","coordinates":[[-69.106316,44.107649],[-69.106036,44.108104]]},"properties":{"source":"spatial_buoy_chain","channelName":"spatial-2"}},{"type":"Feature","geometry":{"type":"LineString","coordinates":[[-69.106036,44.108104],[-69.103863,44.108755]]},"properties":{"source":"spatial_buoy_chain","channelName":"spatial-2"}},{"type":"Feature","geometry":{"type":"LineString","coordinates":[[-69.103863,44.108755],[-69.095934,44.109875]]},"properties":{"source":"spatial_buoy_chain","channelName":"spatial-2"}},{"type":"Feature","geometry":{"type":"LineString","coordinates":[[-69.098433,44.0886],[-69.100733,44.093036]]},"properties":{"source":"spatial_buoy_chain","channelName":"spatial-2"}},{"type":"Feature","geometry":{"type":"LineString","coordinates":[[-69.246308,43.914894],[-69.242544,43.917996]]},"properties":{"source":"spatial_buoy_chain","channelName":"spatial-4"}},{"type":"Feature","geometry":{"type":"LineString","coordinates":[[-69.246308,43.914894],[-69.259693,43.91436]]},"properties":{"source":"spatial_buoy_chain","channelName":"spatial-4"}},{"type":"Feature","geometry":{"type":"LineString","coordinates":[[-69.259693,43.91436],[-69.268437,43.914245]]},"properties":{"source":"spatial_buoy_chain","channelName":"spatial-4"}},{"type":"Feature","geometry":{"type":"LineString","coordinates":[[-69.28527,43.917224],[-69.278962,43.910986]]},"properties":{"source":"spatial_buoy_chain","channelName":"spatial-4"}},{"type":"Feature","geometry":{"type":"LineString","coordinates":[[-69.294358,43.897799],[-69.283995,43.904373]]},"properties":{"source":"spatial_buoy_chain","channelName":"spatial-4"}},{"type":"Feature","geometry":{"type":"LineString","coordinates":[[-69.268437,43.914245],[-69.278962,43.910986]]},"properties":{"source":"spatial_buoy_chain","channelName":"spatial-4"}},{"type":"Feature","geometry":{"type":"LineString","coordinates":[[-69.283995,43.904373],[-69.278962,43.910986]]},"properties":{"source":"spatial_buoy_chain","channelName":"spatial-4"}},{"type":"Feature","geometry":{"type":"LineString","coordinates":[[-69.06946,44.035395],[-69.06813,44.031559]]},"properties":{"source":"spatial_buoy_chain","channelName":"spatial-5"}},{"type":"Feature","geometry":{"type":"LineString","coordinates":[[-69.06946,44.035395],[-69.065507,44.039445]]},"properties":{"source":"spatial_buoy_chain","channelName":"spatial-5"}},{"type":"Feature","geometry":{"type":"LineString","coordinates":[[-69.06813,44.031559],[-69.072548,44.030943]]},"properties":{"source":"spatial_buoy_chain","channelName":"spatial-5"}},{"type":"Feature","geometry":{"type":"LineString","coordinates":[[-69.06813,44.031559],[-69.061437,44.033786]]},"properties":{"source":"spatial_buoy_chain","channelName":"spatial-5"}},{"type":"Feature","geometry":{"type":"LineString","coordinates":[[-69.072548,44.030943],[-69.080968,44.025011]]},"properties":{"source":"spatial_buoy_chain","channelName":"spatial-5"}},{"type":"Feature","geometry":{"type":"LineString","coordinates":[[-69.053718,44.046798],[-69.048309,44.047886]]},"properties":{"source":"spatial_buoy_chain","channelName":"spatial-5"}},{"type":"Feature","geometry":{"type":"LineString","coordinates":[[-69.053718,44.046798],[-69.065507,44.039445]]},"properties":{"source":"spatial_buoy_chain","channelName":"spatial-5"}},{"type":"Feature","geometry":{"type":"LineString","coordinates":[[-69.045572,44.054858],[-69.044282,44.047736]]},"properties":{"source":"spatial_buoy_chain","channelName":"spatial-5"}},{"type":"Feature","geometry":{"type":"LineString","coordinates":[[-69.048309,44.047886],[-69.044282,44.047736]]},"properties":{"source":"spatial_buoy_chain","channelName":"spatial-5"}},{"type":"Feature","geometry":{"type":"LineString","coordinates":[[-69.125241,43.971144],[-69.114439,43.980456]]},"properties":{"source":"spatial_buoy_chain","channelName":"spatial-5"}},{"type":"Feature","geometry":{"type":"LineString","coordinates":[[-69.116892,43.989193],[-69.113312,43.987371]]},"properties":{"source":"spatial_buoy_chain","channelName":"spatial-5"}},{"type":"Feature","geometry":{"type":"LineString","coordinates":[[-69.116892,43.989193],[-69.125449,43.993725]]},"properties":{"source":"spatial_buoy_chain","channelName":"spatial-5"}},{"type":"Feature","geometry":{"type":"LineString","coordinates":[[-69.102464,43.994009],[-69.101092,44.004722]]},"properties":{"source":"spatial_buoy_chain","channelName":"spatial-5"}},{"type":"Feature","geometry":{"type":"LineString","coordinates":[[-69.102464,43.994009],[-69.113312,43.987371]]},"properties":{"source":"spatial_buoy_chain","channelName":"spatial-5"}},{"type":"Feature","geometry":{"type":"LineString","coordinates":[[-69.118157,43.984741],[-69.113312,43.987371]]},"properties":{"source":"spatial_buoy_chain","channelName":"spatial-5"}},{"type":"Feature","geometry":{"type":"LineString","coordinates":[[-69.118157,43.984741],[-69.114439,43.980456]]},"properties":{"source":"spatial_buoy_chain","channelName":"spatial-5"}},{"type":"Feature","geometry":{"type":"LineString","coordinates":[[-68.756789,44.314638],[-68.751485,44.311523]]},"properties":{"source":"spatial_buoy_chain","channelName":"spatial-25"}},{"type":"Feature","geometry":{"type":"LineString","coordinates":[[-68.751485,44.311523],[-68.738397,44.313213]]},"properties":{"source":"spatial_buoy_chain","channelName":"spatial-25"}},{"type":"Feature","geometry":{"type":"LineString","coordinates":[[-68.751485,44.311523],[-68.752112,44.308338]]},"properties":{"source":"spatial_buoy_chain","channelName":"spatial-25"}},{"type":"Feature","geometry":{"type":"LineString","coordinates":[[-68.769663,44.306753],[-68.760989,44.307082]]},"properties":{"source":"spatial_buoy_chain","channelName":"spatial-25"}},{"type":"Feature","geometry":{"type":"LineString","coordinates":[[-68.769663,44.306753],[-68.774674,44.299954]]},"properties":{"source":"spatial_buoy_chain","channelName":"spatial-25"}},{"type":"Feature","geometry":{"type":"LineString","coordinates":[[-68.738397,44.313213],[-68.734993,44.314011]]},"properties":{"source":"spatial_buoy_chain","channelName":"spatial-25"}},{"type":"Feature","geometry":{"type":"LineString","coordinates":[[-68.738397,44.313213],[-68.742768,44.32032]]},"properties":{"source":"spatial_buoy_chain","channelName":"spatial-25"}},{"type":"Feature","geometry":{"type":"LineString","coordinates":[[-68.763691,44.301271],[-68.760989,44.307082]]},"properties":{"source":"spatial_buoy_chain","channelName":"spatial-25"}},{"type":"Feature","geometry":{"type":"LineString","coordinates":[[-68.752112,44.308338],[-68.760989,44.307082]]},"properties":{"source":"spatial_buoy_chain","channelName":"spatial-25"}},{"type":"Feature","geometry":{"type":"LineString","coordinates":[[-68.670177,44.149251],[-68.677944,44.146572]]},"properties":{"source":"spatial_buoy_chain","channelName":"spatial-27"}},{"type":"Feature","geometry":{"type":"LineString","coordinates":[[-68.677944,44.146572],[-68.680915,44.145918]]},"properties":{"source":"spatial_buoy_chain","channelName":"spatial-27"}},{"type":"Feature","geometry":{"type":"LineString","coordinates":[[-68.680915,44.145918],[-68.684718,44.14186]]},"properties":{"source":"spatial_buoy_chain","channelName":"spatial-27"}},{"type":"Feature","geometry":{"type":"LineString","coordinates":[[-68.684718,44.14186],[-68.692896,44.140296]]},"properties":{"source":"spatial_buoy_chain","channelName":"spatial-27"}},{"type":"Feature","geometry":{"type":"LineString","coordinates":[[-68.633634,44.156262],[-68.646024,44.15309]]},"properties":{"source":"spatial_buoy_chain","channelName":"spatial-27"}},{"type":"Feature","geometry":{"type":"LineString","coordinates":[[-68.646024,44.15309],[-68.64998,44.152902]]},"properties":{"source":"spatial_buoy_chain","channelName":"spatial-27"}},{"type":"Feature","geometry":{"type":"LineString","coordinates":[[-68.64998,44.152902],[-68.659155,44.152395]]},"properties":{"source":"spatial_buoy_chain","channelName":"spatial-27"}},{"type":"Feature","geometry":{"type":"LineString","coordinates":[[-68.659155,44.152395],[-68.6624,44.14925]]},"properties":{"source":"spatial_buoy_chain","channelName":"spatial-27"}},{"type":"Feature","geometry":{"type":"LineString","coordinates":[[-68.6624,44.14925],[-68.66518,44.144839]]},"properties":{"source":"spatial_buoy_chain","channelName":"spatial-27"}},{"type":"Feature","geometry":{"type":"LineString","coordinates":[[-69.043304,44.207644],[-69.03781,44.211403]]},"properties":{"source":"spatial_buoy_chain","channelName":"spatial-33"}},{"type":"Feature","geometry":{"type":"LineString","coordinates":[[-69.043304,44.207644],[-69.046349,44.207272]]},"properties":{"source":"spatial_buoy_chain","channelName":"spatial-33"}},{"type":"Feature","geometry":{"type":"LineString","coordinates":[[-69.05207,44.20551],[-69.046349,44.207272]]},"properties":{"source":"spatial_buoy_chain","channelName":"spatial-33"}},{"type":"Feature","geometry":{"type":"LineString","coordinates":[[-69.043929,44.203032],[-69.040138,44.200112]]},"properties":{"source":"spatial_buoy_chain","channelName":"spatial-33"}},{"type":"Feature","geometry":{"type":"LineString","coordinates":[[-69.043929,44.203032],[-69.046349,44.207272]]},"properties":{"source":"spatial_buoy_chain","channelName":"spatial-33"}},{"type":"Feature","geometry":{"type":"LineString","coordinates":[[-68.781903,44.393751],[-68.791427,44.388657]]},"properties":{"source":"spatial_buoy_chain","channelName":"spatial-58"}},{"type":"Feature","geometry":{"type":"LineString","coordinates":[[-68.791427,44.388657],[-68.797667,44.381326]]},"properties":{"source":"spatial_buoy_chain","channelName":"spatial-58"}},{"type":"Feature","geometry":{"type":"LineString","coordinates":[[-68.797667,44.381326],[-68.81388,44.37844]]},"properties":{"source":"spatial_buoy_chain","channelName":"spatial-58"}},{"type":"Feature","geometry":{"type":"LineString","coordinates":[[-68.81388,44.37844],[-68.817576,44.375095]]},"properties":{"source":"spatial_buoy_chain","channelName":"spatial-58"}},{"type":"Feature","geometry":{"type":"LineString","coordinates":[[-68.817576,44.375095],[-68.810443,44.372077]]},"properties":{"source":"spatial_buoy_chain","channelName":"spatial-58"}},{"type":"Feature","geometry":{"type":"LineString","coordinates":[[-68.764361,44.053565],[-68.773056,44.044528]]},"properties":{"source":"spatial_buoy_chain","channelName":"spatial-62"}},{"type":"Feature","geometry":{"type":"LineString","coordinates":[[-68.773056,44.044528],[-68.783647,44.037889]]},"properties":{"source":"spatial_buoy_chain","channelName":"spatial-62"}},{"type":"Feature","geometry":{"type":"LineString","coordinates":[[-68.796876,44.031354],[-68.7903,44.027448]]},"properties":{"source":"spatial_buoy_chain","channelName":"spatial-62"}},{"type":"Feature","geometry":{"type":"LineString","coordinates":[[-68.814381,44.02481],[-68.828774,44.027831]]},"properties":{"source":"spatial_buoy_chain","channelName":"spatial-63"}},{"type":"Feature","geometry":{"type":"LineString","coordinates":[[-68.859028,44.017917],[-68.855719,44.0233]]},"properties":{"source":"spatial_buoy_chain","channelName":"spatial-63"}},{"type":"Feature","geometry":{"type":"LineString","coordinates":[[-68.855719,44.0233],[-68.842774,44.017711]]},"properties":{"source":"spatial_buoy_chain","channelName":"spatial-63"}},{"type":"Feature","geometry":{"type":"LineString","coordinates":[[-68.842774,44.017711],[-68.842581,44.017848]]},"properties":{"source":"spatial_buoy_chain","channelName":"spatial-63"}},{"type":"Feature","geometry":{"type":"LineString","coordinates":[[-68.842581,44.017848],[-68.839324,44.01868]]},"properties":{"source":"spatial_buoy_chain","channelName":"spatial-63"}},{"type":"Feature","geometry":{"type":"LineString","coordinates":[[-68.839324,44.01868],[-68.839199,44.018639]]},"properties":{"source":"spatial_buoy_chain","channelName":"spatial-63"}},{"type":"Feature","geometry":{"type":"LineString","coordinates":[[-68.839199,44.018639],[-68.836944,44.012277]]},"properties":{"source":"spatial_buoy_chain","channelName":"spatial-63"}},{"type":"Feature","geometry":{"type":"LineString","coordinates":[[-68.923652,44.069665],[-68.918515,44.072507]]},"properties":{"source":"spatial_buoy_chain","channelName":"spatial-64"}},{"type":"Feature","geometry":{"type":"LineString","coordinates":[[-68.918515,44.072507],[-68.907546,44.06727]]},"properties":{"source":"spatial_buoy_chain","channelName":"spatial-64"}},{"type":"Feature","geometry":{"type":"LineString","coordinates":[[-68.907546,44.06727],[-68.903642,44.068387]]},"properties":{"source":"spatial_buoy_chain","channelName":"spatial-64"}},{"type":"Feature","geometry":{"type":"LineString","coordinates":[[-68.903642,44.068387],[-68.89407,44.066281]]},"properties":{"source":"spatial_buoy_chain","channelName":"spatial-64"}},{"type":"Feature","geometry":{"type":"LineString","coordinates":[[-68.86356,44.046143],[-68.872237,44.049836]]},"properties":{"source":"spatial_buoy_chain","channelName":"spatial-67"}},{"type":"Feature","geometry":{"type":"LineString","coordinates":[[-68.872237,44.049836],[-68.876215,44.049018]]},"properties":{"source":"spatial_buoy_chain","channelName":"spatial-67"}},{"type":"Feature","geometry":{"type":"LineString","coordinates":[[-68.876215,44.049018],[-68.888799,44.047483]]},"properties":{"source":"spatial_buoy_chain","channelName":"spatial-67"}},{"type":"Feature","geometry":{"type":"LineString","coordinates":[[-68.888799,44.047483],[-68.891633,44.044436]]},"properties":{"source":"spatial_buoy_chain","channelName":"spatial-67"}},{"type":"Feature","geometry":{"type":"LineString","coordinates":[[-68.891633,44.044436],[-68.900913,44.041878]]},"properties":{"source":"spatial_buoy_chain","channelName":"spatial-67"}},{"type":"Feature","geometry":{"type":"LineString","coordinates":[[-68.670502,44.097858],[-68.658476,44.101075]]},"properties":{"source":"spatial_buoy_chain","channelName":"spatial-72"}},{"type":"Feature","geometry":{"type":"LineString","coordinates":[[-68.658476,44.101075],[-68.654641,44.094936]]},"properties":{"source":"spatial_buoy_chain","channelName":"spatial-72"}},{"type":"Feature","geometry":{"type":"LineString","coordinates":[[-68.654641,44.094936],[-68.64252,44.088826]]},"properties":{"source":"spatial_buoy_chain","channelName":"spatial-72"}},{"type":"Feature","geometry":{"type":"LineString","coordinates":[[-68.64252,44.088826],[-68.638986,44.084693]]},"properties":{"source":"spatial_buoy_chain","channelName":"spatial-72"}},{"type":"Feature","geometry":{"type":"LineString","coordinates":[[-68.534652,44.192414],[-68.532785,44.181387]]},"properties":{"source":"spatial_buoy_chain","channelName":"spatial-89"}},{"type":"Feature","geometry":{"type":"LineString","coordinates":[[-68.532785,44.181387],[-68.546482,44.177815]]},"properties":{"source":"spatial_buoy_chain","channelName":"spatial-89"}},{"type":"Feature","geometry":{"type":"LineString","coordinates":[[-68.546482,44.177815],[-68.550738,44.176525]]},"properties":{"source":"spatial_buoy_chain","channelName":"spatial-89"}},{"type":"Feature","geometry":{"type":"LineString","coordinates":[[-68.550738,44.176525],[-68.563524,44.176337]]},"properties":{"source":"spatial_buoy_chain","channelName":"spatial-89"}},{"type":"Feature","geometry":{"type":"LineString","coordinates":[[-68.461767,44.190991],[-68.464659,44.190348]]},"properties":{"source":"spatial_buoy_chain","channelName":"spatial-90"}},{"type":"Feature","geometry":{"type":"LineString","coordinates":[[-68.464659,44.190348],[-68.469761,44.187352]]},"properties":{"source":"spatial_buoy_chain","channelName":"spatial-90"}},{"type":"Feature","geometry":{"type":"LineString","coordinates":[[-68.469761,44.187352],[-68.472434,44.18649]]},"properties":{"source":"spatial_buoy_chain","channelName":"spatial-90"}},{"type":"Feature","geometry":{"type":"LineString","coordinates":[[-68.472434,44.18649],[-68.475837,44.187063]]},"properties":{"source":"spatial_buoy_chain","channelName":"spatial-90"}},{"type":"Feature","geometry":{"type":"LineString","coordinates":[[-68.475837,44.187063],[-68.478676,44.186318]]},"properties":{"source":"spatial_buoy_chain","channelName":"spatial-90"}},{"type":"Feature","geometry":{"type":"LineString","coordinates":[[-68.478676,44.186318],[-68.48149,44.186847]]},"properties":{"source":"spatial_buoy_chain","channelName":"spatial-90"}},{"type":"Feature","geometry":{"type":"LineString","coordinates":[[-68.429864,44.192732],[-68.432913,44.186697]]},"properties":{"source":"spatial_buoy_chain","channelName":"spatial-92"}},{"type":"Feature","geometry":{"type":"LineString","coordinates":[[-68.429263,44.179855],[-68.426409,44.180721]]},"properties":{"source":"spatial_buoy_chain","channelName":"spatial-92"}},{"type":"Feature","geometry":{"type":"LineString","coordinates":[[-68.429263,44.179855],[-68.432913,44.186697]]},"properties":{"source":"spatial_buoy_chain","channelName":"spatial-92"}},{"type":"Feature","geometry":{"type":"LineString","coordinates":[[-68.432913,44.186697],[-68.446932,44.179934]]},"properties":{"source":"spatial_buoy_chain","channelName":"spatial-92"}},{"type":"Feature","geometry":{"type":"LineString","coordinates":[[-68.540487,44.21745],[-68.53626,44.214402]]},"properties":{"source":"spatial_buoy_chain","channelName":"spatial-93"}},{"type":"Feature","geometry":{"type":"LineString","coordinates":[[-68.507438,44.21418],[-68.521961,44.210238]]},"properties":{"source":"spatial_buoy_chain","channelName":"spatial-93"}},{"type":"Feature","geometry":{"type":"LineString","coordinates":[[-68.53626,44.214402],[-68.521961,44.210238]]},"properties":{"source":"spatial_buoy_chain","channelName":"spatial-93"}},{"type":"Feature","geometry":{"type":"LineString","coordinates":[[-68.53626,44.214402],[-68.538238,44.212316]]},"properties":{"source":"spatial_buoy_chain","channelName":"spatial-93"}},{"type":"Feature","geometry":{"type":"LineString","coordinates":[[-68.351239,44.241495],[-68.34947,44.23757]]},"properties":{"source":"spatial_buoy_chain","channelName":"spatial-143"}},{"type":"Feature","geometry":{"type":"LineString","coordinates":[[-68.34947,44.23757],[-68.356232,44.227682]]},"properties":{"source":"spatial_buoy_chain","channelName":"spatial-143"}},{"type":"Feature","geometry":{"type":"LineString","coordinates":[[-68.333576,44.220605],[-68.3412,44.21797]]},"properties":{"source":"spatial_buoy_chain","channelName":"spatial-143"}},{"type":"Feature","geometry":{"type":"LineString","coordinates":[[-68.3412,44.21797],[-68.352836,44.225815]]},"properties":{"source":"spatial_buoy_chain","channelName":"spatial-143"}},{"type":"Feature","geometry":{"type":"LineString","coordinates":[[-68.21727,44.275591],[-68.224625,44.283599]]},"properties":{"source":"spatial_buoy_chain","channelName":"spatial-147"}},{"type":"Feature","geometry":{"type":"LineString","coordinates":[[-68.224625,44.283599],[-68.230374,44.286091]]},"properties":{"source":"spatial_buoy_chain","channelName":"spatial-147"}},{"type":"Feature","geometry":{"type":"LineString","coordinates":[[-68.230374,44.286091],[-68.239274,44.28808]]},"properties":{"source":"spatial_buoy_chain","channelName":"spatial-147"}},{"type":"Feature","geometry":{"type":"LineString","coordinates":[[-68.239274,44.28808],[-68.242705,44.284327]]},"properties":{"source":"spatial_buoy_chain","channelName":"spatial-147"}},{"type":"Feature","geometry":{"type":"LineString","coordinates":[[-68.242705,44.284327],[-68.254287,44.282747]]},"properties":{"source":"spatial_buoy_chain","channelName":"spatial-147"}},{"type":"Feature","geometry":{"type":"LineString","coordinates":[[-68.254287,44.282747],[-68.269425,44.281196]]},"properties":{"source":"spatial_buoy_chain","channelName":"spatial-147"}},{"type":"Feature","geometry":{"type":"LineString","coordinates":[[-68.269425,44.281196],[-68.272015,44.284619]]},"properties":{"source":"spatial_buoy_chain","channelName":"spatial-147"}},{"type":"Feature","geometry":{"type":"LineString","coordinates":[[-68.272015,44.284619],[-68.273711,44.285631]]},"properties":{"source":"spatial_buoy_chain","channelName":"spatial-147"}},{"type":"Feature","geometry":{"type":"LineString","coordinates":[[-68.273711,44.285631],[-68.27418,44.287938]]},"properties":{"source":"spatial_buoy_chain","channelName":"spatial-147"}},{"type":"Feature","geometry":{"type":"LineString","coordinates":[[-68.309322,44.278143],[-68.306539,44.274686]]},"properties":{"source":"spatial_buoy_chain","channelName":"spatial-147"}},{"type":"Feature","geometry":{"type":"LineString","coordinates":[[-68.306539,44.274686],[-68.290866,44.274056]]},"properties":{"source":"spatial_buoy_chain","channelName":"spatial-147"}},{"type":"Feature","geometry":{"type":"LineString","coordinates":[[-68.318058,44.276677],[-68.317934,44.275438]]},"properties":{"source":"spatial_buoy_chain","channelName":"spatial-147"}},{"type":"Feature","geometry":{"type":"LineString","coordinates":[[-68.241517,44.260533],[-68.243176,44.261004]]},"properties":{"source":"spatial_buoy_chain","channelName":"spatial-149"}},{"type":"Feature","geometry":{"type":"LineString","coordinates":[[-68.243176,44.261004],[-68.246741,44.262579]]},"properties":{"source":"spatial_buoy_chain","channelName":"spatial-149"}},{"type":"Feature","geometry":{"type":"LineString","coordinates":[[-68.246741,44.262579],[-68.255651,44.265779]]},"properties":{"source":"spatial_buoy_chain","channelName":"spatial-149"}},{"type":"Feature","geometry":{"type":"LineString","coordinates":[[-68.255651,44.265779],[-68.260857,44.261955]]},"properties":{"source":"spatial_buoy_chain","channelName":"spatial-149"}}]}