{"type":"FeatureCollection","features":[{"type":"Feature","geometry":{"type":"LineString","coordinates":[[-68.175,44.395961],[-68.182,44.4]]},"properties":{"objtype":"RECTRC","label":"recommended_track","name":"","name_lower":"","chart":"US5ME2GM"}},{"type":"Feature","geometry":{"type":"LineString","coordinates":[[-68.186,44.393722],[-68.185009,44.393822],[-68.182573,44.394068],[-68.181866,44.394139],[-68.175,44.394832]]},"properties":{"objtype":"RECTRC","label":"recommended_track","name":"","name_lower":"","chart":"US5ME2GM"}},{"type":"Feature","geometry":{"type":"LineString","coordinates":[[-68.175,44.394832],[-68.173334,44.395]]},"properties":{"objtype":"RECTRC","label":"recommended_track","name":"","name_lower":"","chart":"US5ME2GN"}},{"type":"Feature","geometry":{"type":"LineString","coordinates":[[-68.173334,44.395],[-68.175,44.395961]]},"properties":{"objtype":"RECTRC","label":"recommended_track","name":"","name_lower":"","chart":"US5ME2GN"}},{"type":"Feature","geometry":{"type":"LineString","coordinates":[[-68.122324,44.325],[-68.123437,44.325469],[-68.127217,44.327061],[-68.128294,44.327425],[-68.130047,44.328017],[-68.135891,44.329704],[-68.141265,44.331256],[-68.144196,44.332102],[-68.147503,44.333057],[-68.148336,44.333298],[-68.152965,44.350628],[-68.153657,44.353218],[-68.155502,44.360121],[-68.157247,44.366653],[-68.157923,44.369183],[-68.159115,44.373323],[-68.159599,44.37621],[-68.163196,44.381065],[-68.164731,44.383137]]},"properties":{"objtype":"RECTRC","label":"recommended_track","name":"","name_lower":"","chart":"US5ME2GN"}},{"type":"Feature","geometry":{"type":"LineString","coordinates":[[-68.164731,44.383137],[-68.173334,44.395]]},"properties":{"objtype":"RECTRC","label":"recommended_track","name":"","name_lower":"","chart":"US5ME2GN"}},{"type":"Feature","geometry":{"type":"LineString","coordinates":[[-68.128294,44.327425],[-68.128422,44.325]]},"properties":{"objtype":"RECTRC","label":"recommended_track","name":"","name_lower":"","chart":"US5ME2GN"}},{"type":"Feature","geometry":{"type":"LineString","coordinates":[[-68.086669,44.310044],[-68.089092,44.311054],[-68.094715,44.3134],[-68.101983,44.316431],[-68.109389,44.319551],[-68.113415,44.321247],[-68.121929,44.324834],[-68.122324,44.325]]},"properties":{"objtype":"RECTRC","label":"recommended_track","name":"","name_lower":"","chart":"US5ME34M"}},{"type":"Feature","geometry":{"type":"LineString","coordinates":[[-68.128422,44.325],[-68.128875,44.316426],[-68.129938,44.294762]]},"properties":{"objtype":"RECTRC","label":"recommended_track","name":"","name_lower":"","chart":"US5ME34M"}},{"type":"Feature","geometry":{"type":"LineString","coordinates":[[-68.182,44.4],[-68.187186,44.402992],[-68.191796,44.405653],[-68.194806,44.407389]]},"properties":{"objtype":"RECTRC","label":"recommended_track","name":"","name_lower":"","chart":"US5ME2HM"}},{"type":"Feature","geometry":{"type":"LineString","coordinates":[[-68.182,44.4],[-68.187179,44.402989],[-68.189518,44.404338],[-68.190414,44.404855],[-68.191795,44.405652],[-68.194806,44.407389]]},"properties":{"objtype":"RECTRC","label":"recommended_track","name":"","name_lower":"","chart":"US4ME1EJ"}},{"type":"Feature","geometry":{"type":"LineString","coordinates":[[-68.128294,44.327425],[-68.128422,44.325],[-68.128875,44.316426],[-68.129938,44.294762]]},"properties":{"objtype":"RECTRC","label":"recommended_track","name":"","name_lower":"","chart":"US4ME1DJ"}}]}