{"type":"FeatureCollection","features":[{"type":"Feature","geometry":{"type":"LineString","coordinates":[[-70.769265,43.093999],[-70.765376,43.092098]]},"properties":{"source":"fairway_centerline","channelName":"Piscataqua River Channel"}},{"type":"Feature","geometry":{"type":"LineString","coordinates":[[-70.765376,43.092098],[-70.760969,43.086207]]},"properties":{"source":"fairway_centerline","channelName":"Piscataqua River Channel"}},{"type":"Feature","geometry":{"type":"LineString","coordinates":[[-70.760969,43.086207],[-70.758118,43.083926]]},"properties":{"source":"fairway_centerline","channelName":"Piscataqua River Channel"}},{"type":"Feature","geometry":{"type":"LineString","coordinates":[[-70.758118,43.083926],[-70.757859,43.081455]]},"properties":{"source":"fairway_centerline","channelName":"Piscataqua River Channel"}},{"type":"Feature","geometry":{"type":"LineString","coordinates":[[-70.757859,43.081455],[-70.754749,43.079935]]},"properties":{"source":"fairway_centerline","channelName":"Piscataqua River Channel"}},{"type":"Feature","geometry":{"type":"LineString","coordinates":[[-70.743624,42.999026],[-70.743591,42.998929]]},"properties":{"source":"fairway_centerline","channelName":"Rye Harbor Channel"}},{"type":"Feature","geometry":{"type":"LineString","coordinates":[[-70.74649,43.00107],[-70.746765,43.00084]]},"properties":{"source":"fairway_centerline","channelName":"Rye Harbor 6-foot anchorage"}},{"type":"Feature","geometry":{"type":"LineString","coordinates":[[-70.746765,43.00084],[-70.747825,43.0012]]},"properties":{"source":"fairway_centerline","channelName":"Rye Harbor 6-foot anchorage"}},{"type":"Feature","geometry":{"type":"LineString","coordinates":[[-70.747825,43.0012],[-70.748295,43.001373]]},"properties":{"source":"fairway_centerline","channelName":"Rye Harbor 6-foot anchorage"}},{"type":"Feature","geometry":{"type":"LineString","coordinates":[[-70.748295,43.001373],[-70.748276,43.00169]]},"properties":{"source":"fairway_centerline","channelName":"Rye Harbor 6-foot anchorage"}},{"type":"Feature","geometry":{"type":"LineString","coordinates":[[-70.749161,43.00028],[-70.748847,43.000496]]},"properties":{"source":"fairway_centerline","channelName":"Rye Harbor 8-foot anchorage"}},{"type":"Feature","geometry":{"type":"LineString","coordinates":[[-70.748847,43.000496],[-70.748395,43.000352]]},"properties":{"source":"fairway_centerline","channelName":"Rye Harbor 8-foot anchorage"}},{"type":"Feature","geometry":{"type":"LineString","coordinates":[[-70.748395,43.000352],[-70.747316,42.999978]]},"properties":{"source":"fairway_centerline","channelName":"Rye Harbor 8-foot anchorage"}},{"type":"Feature","geometry":{"type":"LineString","coordinates":[[-70.747316,42.999978],[-70.747375,42.99969]]},"properties":{"source":"fairway_centerline","channelName":"Rye Harbor 8-foot anchorage"}},{"type":"Feature","geometry":{"type":"LineString","coordinates":[[-70.728181,43.057496],[-70.728181,43.057424]]},"properties":{"source":"fairway_centerline","channelName":"Portsmouth Harbor Back Channel"}},{"type":"Feature","geometry":{"type":"LineString","coordinates":[[-70.700479,43.041542],[-70.701368,43.046749]]},"properties":{"source":"recommended_track","channelName":"RECTRC"}},{"type":"Feature","geometry":{"type":"LineString","coordinates":[[-70.701368,43.046749],[-70.701594,43.048077]]},"properties":{"source":"recommended_track","channelName":"RECTRC"}},{"type":"Feature","geometry":{"type":"LineString","coordinates":[[-70.701594,43.048077],[-70.70277,43.054962]]},"properties":{"source":"recommended_track","channelName":"RECTRC"}},{"type":"Feature","geometry":{"type":"LineString","coordinates":[[-70.70277,43.054962],[-70.703174,43.057329]]},"properties":{"source":"recommended_track","channelName":"RECTRC"}},{"type":"Feature","geometry":{"type":"LineString","coordinates":[[-70.703174,43.057329],[-70.703227,43.057641]]},"properties":{"source":"recommended_track","channelName":"RECTRC"}},{"type":"Feature","geometry":{"type":"LineString","coordinates":[[-70.703227,43.057641],[-70.703263,43.057852]]},"properties":{"source":"recommended_track","channelName":"RECTRC"}},{"type":"Feature","geometry":{"type":"LineString","coordinates":[[-70.700479,43.041542],[-70.701368,43.046749]]},"properties":{"source":"recommended_track","channelName":"NAVLNE"}},{"type":"Feature","geometry":{"type":"LineString","coordinates":[[-70.701368,43.046749],[-70.701594,43.048077]]},"properties":{"source":"recommended_track","channelName":"NAVLNE"}},{"type":"Feature","geometry":{"type":"LineString","coordinates":[[-70.701594,43.048077],[-70.70277,43.054962]]},"properties":{"source":"recommended_track","channelName":"NAVLNE"}},{"type":"Feature","geometry":{"type":"LineString","coordinates":[[-70.70277,43.054962],[-70.703174,43.057329]]},"properties":{"source":"recommended_track","channelName":"NAVLNE"}},{"type":"Feature","geometry":{"type":"LineString","coordinates":[[-70.703174,43.057329],[-70.703227,43.057641]]},"properties":{"source":"recommended_track","channelName":"NAVLNE"}},{"type":"Feature","geometry":{"type":"LineString","coordinates":[[-70.703227,43.057641],[-70.703263,43.057852]]},"properties":{"source":"recommended_track","channelName":"NAVLNE"}},{"type":"Feature","geometry":{"type":"LineString","coordinates":[[-70.703263,43.057852],[-70.703542,43.059496]]},"properties":{"source":"recommended_track","channelName":"NAVLNE"}},{"type":"Feature","geometry":{"type":"LineString","coordinates":[[-70.703542,43.059496],[-70.703875,43.061464]]},"properties":{"source":"recommended_track","channelName":"NAVLNE"}},{"type":"Feature","geometry":{"type":"LineString","coordinates":[[-70.703875,43.061464],[-70.70388,43.06149]]},"properties":{"source":"recommended_track","channelName":"NAVLNE"}},{"type":"Feature","geometry":{"type":"LineString","coordinates":[[-70.70388,43.06149],[-70.704032,43.062392]]},"properties":{"source":"recommended_track","channelName":"NAVLNE"}},{"type":"Feature","geometry":{"type":"LineString","coordinates":[[-70.704032,43.062392],[-70.704535,43.065359]]},"properties":{"source":"recommended_track","channelName":"NAVLNE"}},{"type":"Feature","geometry":{"type":"LineString","coordinates":[[-70.704535,43.065359],[-70.7052,43.069281]]},"properties":{"source":"recommended_track","channelName":"NAVLNE"}},{"type":"Feature","geometry":{"type":"LineString","coordinates":[[-70.7052,43.069281],[-70.705283,43.069774]]},"properties":{"source":"recommended_track","channelName":"NAVLNE"}},{"type":"Feature","geometry":{"type":"LineString","coordinates":[[-70.705283,43.069774],[-70.706872,43.079146]]},"properties":{"source":"recommended_track","channelName":"NAVLNE"}},{"type":"Feature","geometry":{"type":"LineString","coordinates":[[-70.706872,43.079146],[-70.706948,43.079595]]},"properties":{"source":"recommended_track","channelName":"NAVLNE"}},{"type":"Feature","geometry":{"type":"LineString","coordinates":[[-70.706948,43.079595],[-70.707113,43.080572]]},"properties":{"source":"recommended_track","channelName":"NAVLNE"}},{"type":"Feature","geometry":{"type":"LineString","coordinates":[[-70.707113,43.080572],[-70.707367,43.082067]]},"properties":{"source":"recommended_track","channelName":"NAVLNE"}},{"type":"Feature","geometry":{"type":"LineString","coordinates":[[-70.707367,43.082067],[-70.70767,43.083857]]},"properties":{"source":"recommended_track","channelName":"NAVLNE"}},{"type":"Feature","geometry":{"type":"LineString","coordinates":[[-70.700479,43.041542],[-70.701923,43.05]]},"properties":{"source":"recommended_track","channelName":"RECTRC"}},{"type":"Feature","geometry":{"type":"LineString","coordinates":[[-70.700479,43.041542],[-70.701923,43.05]]},"properties":{"source":"recommended_track","channelName":"NAVLNE"}},{"type":"Feature","geometry":{"type":"LineString","coordinates":[[-70.725,43.074388],[-70.734597,43.073969]]},"properties":{"source":"recommended_track","channelName":"RECTRC"}},{"type":"Feature","geometry":{"type":"LineString","coordinates":[[-70.734597,43.073969],[-70.737781,43.07383]]},"properties":{"source":"recommended_track","channelName":"RECTRC"}},{"type":"Feature","geometry":{"type":"LineString","coordinates":[[-70.737781,43.07383],[-70.738697,43.07379]]},"properties":{"source":"recommended_track","channelName":"RECTRC"}},{"type":"Feature","geometry":{"type":"LineString","coordinates":[[-70.725,43.074388],[-70.734597,43.073969]]},"properties":{"source":"recommended_track","channelName":"NAVLNE"}},{"type":"Feature","geometry":{"type":"LineString","coordinates":[[-70.734597,43.073969],[-70.737781,43.07383]]},"properties":{"source":"recommended_track","channelName":"NAVLNE"}},{"type":"Feature","geometry":{"type":"LineString","coordinates":[[-70.737781,43.07383],[-70.738697,43.07379]]},"properties":{"source":"recommended_track","channelName":"NAVLNE"}},{"type":"Feature","geometry":{"type":"LineString","coordinates":[[-70.738697,43.07379],[-70.739627,43.07375]]},"properties":{"source":"recommended_track","channelName":"NAVLNE"}},{"type":"Feature","geometry":{"type":"LineString","coordinates":[[-70.739627,43.07375],[-70.739829,43.073741]]},"properties":{"source":"recommended_track","channelName":"NAVLNE"}},{"type":"Feature","geometry":{"type":"LineString","coordinates":[[-70.739829,43.073741],[-70.739884,43.073739]]},"properties":{"source":"recommended_track","channelName":"NAVLNE"}},{"type":"Feature","geometry":{"type":"LineString","coordinates":[[-70.739884,43.073739],[-70.739996,43.073734]]},"properties":{"source":"recommended_track","channelName":"NAVLNE"}},{"type":"Feature","geometry":{"type":"LineString","coordinates":[[-70.739996,43.073734],[-70.740146,43.073727]]},"properties":{"source":"recommended_track","channelName":"NAVLNE"}},{"type":"Feature","geometry":{"type":"LineString","coordinates":[[-70.740146,43.073727],[-70.741316,43.073677]]},"properties":{"source":"recommended_track","channelName":"NAVLNE"}},{"type":"Feature","geometry":{"type":"LineString","coordinates":[[-70.706376,43.075201],[-70.723002,43.074475]]},"properties":{"source":"recommended_track","channelName":"RECTRC"}},{"type":"Feature","geometry":{"type":"LineString","coordinates":[[-70.723002,43.074475],[-70.725,43.074388]]},"properties":{"source":"recommended_track","channelName":"RECTRC"}},{"type":"Feature","geometry":{"type":"LineString","coordinates":[[-70.701923,43.05],[-70.703131,43.05708]]},"properties":{"source":"recommended_track","channelName":"RECTRC"}},{"type":"Feature","geometry":{"type":"LineString","coordinates":[[-70.703131,43.05708],[-70.703263,43.057852]]},"properties":{"source":"recommended_track","channelName":"RECTRC"}},{"type":"Feature","geometry":{"type":"LineString","coordinates":[[-70.706376,43.075201],[-70.723002,43.074475]]},"properties":{"source":"recommended_track","channelName":"NAVLNE"}},{"type":"Feature","geometry":{"type":"LineString","coordinates":[[-70.723002,43.074475],[-70.725,43.074388]]},"properties":{"source":"recommended_track","channelName":"NAVLNE"}},{"type":"Feature","geometry":{"type":"LineString","coordinates":[[-70.701923,43.05],[-70.703131,43.05708]]},"properties":{"source":"recommended_track","channelName":"NAVLNE"}},{"type":"Feature","geometry":{"type":"LineString","coordinates":[[-70.703131,43.05708],[-70.703263,43.057852]]},"properties":{"source":"recommended_track","channelName":"NAVLNE"}},{"type":"Feature","geometry":{"type":"LineString","coordinates":[[-70.703263,43.057852],[-70.705283,43.069774]]},"properties":{"source":"recommended_track","channelName":"NAVLNE"}},{"type":"Feature","geometry":{"type":"LineString","coordinates":[[-70.705283,43.069774],[-70.707302,43.081683]]},"properties":{"source":"recommended_track","channelName":"NAVLNE"}},{"type":"Feature","geometry":{"type":"LineString","coordinates":[[-70.707302,43.081683],[-70.70767,43.083857]]},"properties":{"source":"recommended_track","channelName":"NAVLNE"}},{"type":"Feature","geometry":{"type":"LineString","coordinates":[[-70.810591,43.119857],[-70.81285,43.119661]]},"properties":{"source":"buoy_chain","channelName":"Piscataqua River"}},{"type":"Feature","geometry":{"type":"LineString","coordinates":[[-70.738212,43.06782],[-70.738013,43.064116]]},"properties":{"source":"buoy_chain","channelName":"Northward Channel"}},{"type":"Feature","geometry":{"type":"LineString","coordinates":[[-70.738013,43.064116],[-70.736982,43.062063]]},"properties":{"source":"buoy_chain","channelName":"Northward Channel"}},{"type":"Feature","geometry":{"type":"LineString","coordinates":[[-70.736982,43.062063],[-70.735336,43.060167]]},"properties":{"source":"buoy_chain","channelName":"Northward Channel"}},{"type":"Feature","geometry":{"type":"LineString","coordinates":[[-70.721261,43.080608],[-70.722812,43.081835]]},"properties":{"source":"buoy_chain","channelName":"Back Channel"}},{"type":"Feature","geometry":{"type":"LineString","coordinates":[[-70.722812,43.081835],[-70.726335,43.083557]]},"properties":{"source":"buoy_chain","channelName":"Back Channel"}},{"type":"Feature","geometry":{"type":"LineString","coordinates":[[-70.726335,43.083557],[-70.728066,43.084175]]},"properties":{"source":"buoy_chain","channelName":"Back Channel"}}]}