{"type":"FeatureCollection","features":[{"type":"Feature","geometry":{"type":"Polygon","coordinates":[[[-70.8209544,42.9],[-70.8189389,42.9],[-70.8205669,42.9019353],[-70.8218044,42.901297],[-70.8209544,42.9]]]},"properties":{"objtype":"FAIRWY","label":"channel","name":"Hampton Harbor","name_lower":"hampton harbor","chart":"US5NH1AD"}},{"type":"Feature","geometry":{"type":"Polygon","coordinates":[[[-70.7721233,43.0951455],[-70.7687653,43.0943833],[-70.7671241,43.0945083],[-70.7625963,43.090141],[-70.7602177,43.0872699],[-70.7604796,43.0865016],[-70.7575235,43.0855183],[-70.7564698,43.084727],[-70.7561759,43.0838976],[-70.7567192,43.08243],[-70.7564955,43.0817987],[-70.7548435,43.0805276],[-70.75237,43.0798244],[-70.752612,43.0791565],[-70.7527925,43.079195],[-70.7534024,43.0790494],[-70.7551755,43.0794881],[-70.7571928,43.0791532],[-70.7582086,43.0799347],[-70.7591398,43.0813492],[-70.7598583,43.0833763],[-70.7613282,43.084512],[-70.7607518,43.0859233],[-70.7626783,43.0865398],[-70.7633583,43.0873606],[-70.76447,43.0901344],[-70.76652,43.0921117],[-70.7691568,43.0933233],[-70.7725073,43.0940838],[-70.7789758,43.095133],[-70.7814301,43.0962404],[-70.7825625,43.0988643],[-70.7849499,43.1003016],[-70.785574,43.1017425],[-70.8,43.1104242],[-70.8,43.1118446],[-70.7915647,43.1067688],[-70.7857105,43.1037776],[-70.7840268,43.103119],[-70.7818768,43.1018247],[-70.7803123,43.0981994],[-70.7796147,43.0972498],[-70.7791822,43.0968588],[-70.7777228,43.0960537],[-70.7721233,43.0951455]]]},"properties":{"objtype":"FAIRWY","label":"channel","name":"Piscataqua River Channel","name_lower":"piscataqua river channel","chart":"US5PSMCC"}},{"type":"Feature","geometry":{"type":"Polygon","coordinates":[[[-70.744728,42.9992893],[-70.7435765,42.9988962],[-70.7434189,42.999145],[-70.7445374,42.9995268],[-70.7454765,43.0000288],[-70.7512047,43.0019836],[-70.7513623,43.0017348],[-70.7456671,42.9997913],[-70.744728,42.9992893]]]},"properties":{"objtype":"FAIRWY","label":"channel","name":"Rye Harbor Channel","name_lower":"rye harbor channel","chart":"US5PSMBC"}},{"type":"Feature","geometry":{"type":"Polygon","coordinates":[[[-70.7464383,43.0011135],[-70.7454765,43.0000288],[-70.74951,43.0014053],[-70.7482686,43.0017381],[-70.7464383,43.0011135]]]},"properties":{"objtype":"FAIRWY","label":"channel","name":"Rye Harbor 6-foot anchorage","name_lower":"rye harbor 6-foot anchorage","chart":"US5PSMBC"}},{"type":"Feature","geometry":{"type":"Polygon","coordinates":[[[-70.7492142,43.0002454],[-70.7473839,42.9996208],[-70.7456671,42.9997913],[-70.7496676,43.0011565],[-70.7492142,43.0002454]]]},"properties":{"objtype":"FAIRWY","label":"channel","name":"Rye Harbor 8-foot anchorage","name_lower":"rye harbor 8-foot anchorage","chart":"US5PSMBC"}},{"type":"Feature","geometry":{"type":"Polygon","coordinates":[[[-70.7496676,43.0011565],[-70.7493955,43.0006099],[-70.7504203,43.0009595],[-70.751291,43.0007423],[-70.7518158,43.0009214],[-70.7513115,43.0017175],[-70.7496676,43.0011565]]]},"properties":{"objtype":"FAIRWY","label":"channel","name":"Rye Harbor 8-foot state anchorage","name_lower":"rye harbor 8-foot state anchorage","chart":"US5PSMBC"}},{"type":"Feature","geometry":{"type":"Polygon","coordinates":[[[-70.7350957,43.0596096],[-70.7349221,43.0597649],[-70.7356834,43.0601837],[-70.7369497,43.0627337],[-70.7378397,43.063979],[-70.7378947,43.0643404],[-70.7378461,43.0666182],[-70.7380931,43.0666242],[-70.7380803,43.0639337],[-70.7371278,43.0626455],[-70.7358393,43.0600213],[-70.7350957,43.0596096]]]},"properties":{"objtype":"FAIRWY","label":"channel","name":"Northward Channel","name_lower":"northward channel","chart":"US5PSMCC"}},{"type":"Feature","geometry":{"type":"Polygon","coordinates":[[[-70.7404883,43.0563399],[-70.7421513,43.0543629],[-70.742932,43.054033],[-70.744242,43.053995],[-70.747761,43.0551347],[-70.7482904,43.0550412],[-70.7486633,43.0548542],[-70.7488318,43.0549671],[-70.7484251,43.0551682],[-70.7477201,43.0553041],[-70.744159,43.054166],[-70.743079,43.054189],[-70.7425919,43.054365],[-70.7421108,43.0547271],[-70.7417051,43.0552042],[-70.741881,43.0554713],[-70.74133,43.056064],[-70.740066,43.056781],[-70.7385584,43.0571731],[-70.7350903,43.0590866],[-70.734986,43.0589499],[-70.7384741,43.0570319],[-70.740091,43.056587],[-70.7404883,43.0563399]]]},"properties":{"objtype":"FAIRWY","label":"channel","name":"Sagamore Creek Channel","name_lower":"sagamore creek channel","chart":"US5PSMCC"}},{"type":"Feature","geometry":{"type":"Polygon","coordinates":[[[-70.734986,43.0589499],[-70.7341794,43.0593297],[-70.7335184,43.0594375],[-70.7335124,43.0596482],[-70.7349221,43.0597649],[-70.7350957,43.0596096],[-70.7350903,43.0590866],[-70.734986,43.0589499]]]},"properties":{"objtype":"FAIRWY","label":"channel","name":"Portsmouth Harbor, Confluence Area","name_lower":"portsmouth harbor, confluence area","chart":"US5PSMCC"}},{"type":"Feature","geometry":{"type":"Polygon","coordinates":[[[-70.7335124,43.0596482],[-70.7308366,43.0594441],[-70.7303342,43.059279],[-70.7279819,43.0575261],[-70.7281853,43.0573912],[-70.7304685,43.0591265],[-70.7310363,43.0592698],[-70.7335184,43.0594375],[-70.7335124,43.0596482]]]},"properties":{"objtype":"FAIRWY","label":"channel","name":"Portsmouth Harbor Back Channel","name_lower":"portsmouth harbor back channel","chart":"US5PSMCC"}}]}