{"type":"FeatureCollection","features":[{"type":"Feature","geometry":{"type":"Polygon","coordinates":[[[-70.725,43.16815],[-70.75514,43.16815],[-70.75514,43.125],[-70.725,43.125],[-70.725,43.16815]]]},"properties":{}},{"type":"Feature","geometry":{"type":"Polygon","coordinates":[[[-70.83581,42.92142],[-70.83474,42.91628],[-70.83492,42.91555],[-70.835,42.91625],[-70.83566,42.91571],[-70.83503,42.91527],[-70.83526,42.91366],[-70.83765,42.91444],[-70.83721,42.91525],[-70.83814,42.91562],[-70.83735,42.91554],[-70.83653,42.91623],[-70.83801,42.91642],[-70.83767,42.91683],[-70.83814,42.91725],[-70.8376,42.91743],[-70.83767,42.91766],[-70.83829,42.91729],[-70.83822,42.91648],[-70.8373,42.91574],[-70.83989,42.91651],[-70.84249,42.91546],[-70.84383,42.91317],[-70.84545,42.91343],[-70.84501,42.91612],[-70.84117,42.91645],[-70.84161,42.91849],[-70.84404,42.91926],[-70.84333,42.92046],[-70.84178,42.92122],[-70.84146,42.91953],[-70.84027,42.91898],[-70.83968,42.92054],[-70.83837,42.92024],[-70.83581,42.92142]]]},"properties":{}},{"type":"Feature","geometry":{"type":"Polygon","coordinates":[[[-70.8,42.91795],[-70.8,42.975],[-70.875,42.975],[-70.875,42.9],[-70.84256,42.9],[-70.8431,42.90087],[-70.84449,42.90016],[-70.8464,42.90061],[-70.84629,42.90287],[-70.84603,42.90089],[-70.84404,42.90056],[-70.84328,42.90155],[-70.8424,42.90029],[-70.84091,42.9],[-70.84147,42.90108],[-70.84083,42.90169],[-70.8417,42.90219],[-70.84171,42.9027],[-70.84063,42.90188],[-70.83876,42.90245],[-70.83695,42.90108],[-70.83639,42.90159],[-70.83637,42.903],[-70.8372,42.9037],[-70.83687,42.90397],[-70.83609,42.90418],[-70.83696,42.90363],[-70.83632,42.90312],[-70.83599,42.90408],[-70.8355,42.90443],[-70.83689,42.90437],[-70.83717,42.90524],[-70.83672,42.90444],[-70.83538,42.90459],[-70.83571,42.90381],[-70.83488,42.90477],[-70.83426,42.90496],[-70.83506,42.90415],[-70.83363,42.90344],[-70.83478,42.90269],[-70.83346,42.90204],[-70.83305,42.90254],[-70.83279,42.9026],[-70.83336,42.90195],[-70.83537,42.9024],[-70.83552,42.90028],[-70.83593,42.90137],[-70.83684,42.9],[-70.82945,42.90026],[-70.83101,42.90099],[-70.83029,42.90119],[-70.82909,42.90039],[-70.82608,42.90324],[-70.82759,42.9038],[-70.82804,42.90468],[-70.82641,42.90353],[-70.82472,42.90405],[-70.82571,42.90323],[-70.82404,42.90248],[-70.82403,42.90474],[-70.827,42.9073],[-70.82822,42.90744],[-70.8275,42.90708],[-70.82797,42.90621],[-70.82846,42.90741],[-70.82826,42.90775],[-70.82894,42.90768],[-70.82862,42.9068],[-70.82919,42.90731],[-70.82965,42.90665],[-70.83035,42.90661],[-70.83008,42.90619],[-70.83015,42.90582],[-70.83091,42.90691],[-70.83145,42.90684],[-70.83239,42.90716],[-70.8301,42.90682],[-70.82858,42.9081],[-70.83017,42.90871],[-70.83133,42.90772],[-70.83254,42.90861],[-70.83257,42.90802],[-70.83326,42.90787],[-70.83256,42.909],[-70.83284,42.90876],[-70.83494,42.90892],[-70.83583,42.90955],[-70.83623,42.90893],[-70.83649,42.90891],[-70.83571,42.90978],[-70.83494,42.90906],[-70.83297,42.90927],[-70.83116,42.90837],[-70.83003,42.90895],[-70.82876,42.90848],[-70.83247,42.91021],[-70.83419,42.91191],[-70.83696,42.91178],[-70.83607,42.9105],[-70.83907,42.9125],[-70.84007,42.91113],[-70.83964,42.91029],[-70.84028,42.9102],[-70.83963,42.90976],[-70.83995,42.90912],[-70.84165,42.90917],[-70.84249,42.90814],[-70.84452,42.90841],[-70.84249,42.90843],[-70.84132,42.90959],[-70.84009,42.90927],[-70.83993,42.90966],[-70.84124,42.91074],[-70.8412,42.91131],[-70.84267,42.91154],[-70.84126,42.91148],[-70.8405,42.91045],[-70.83963,42.91231],[-70.83992,42.91354],[-70.84069,42.91343],[-70.83997,42.91548],[-70.84289,42.91295],[-70.84708,42.91217],[-70.84684,42.91069],[-70.8488,42.91044],[-70.84884,42.91126],[-70.84784,42.91142],[-70.84903,42.91146],[-70.84954,42.91069],[-70.85091,42.91164],[-70.85193,42.9098],[-70.8524,42.90984],[-70.85105,42.91214],[-70.84993,42.9116],[-70.84665,42.91277],[-70.84761,42.91256],[-70.84818,42.91278],[-70.84691,42.91315],[-70.84608,42.91592],[-70.84444,42.91715],[-70.84624,42.91743],[-70.84776,42.91677],[-70.84741,42.91635],[-70.84819,42.91719],[-70.84821,42.91671],[-70.84895,42.9161],[-70.84871,42.91764],[-70.84754,42.91716],[-70.84595,42.91781],[-70.84717,42.91868],[-70.84708,42.91981],[-70.84706,42.9188],[-70.84583,42.91785],[-70.84184,42.91655],[-70.8421,42.91824],[-70.84445,42.91898],[-70.84379,42.92054],[-70.84162,42.92152],[-70.8403,42.91931],[-70.83983,42.92097],[-70.83837,42.92033],[-70.83617,42.92163],[-70.83756,42.92355],[-70.83958,42.92324],[-70.83819,42.9228],[-70.83854,42.9214],[-70.84071,42.92235],[-70.84025,42.92318],[-70.84028,42.92242],[-70.83855,42.92181],[-70.83864,42.92272],[-70.84018,42.92327],[-70.8417,42.92335],[-70.84581,42.92063],[-70.84649,42.92205],[-70.8439,42.92323],[-70.84515,42.92365],[-70.8451,42.92464],[-70.84711,42.92426],[-70.84779,42.92495],[-70.84826,42.92352],[-70.8504,42.92431],[-70.85123,42.92326],[-70.85356,42.9255],[-70.85645,42.92609],[-70.85701,42.92656],[-70.85709,42.92702],[-70.85517,42.92842],[-70.85697,42.92689],[-70.85658,42.92638],[-70.85224,42.92545],[-70.85143,42.92592],[-70.85116,42.92716],[-70.85186,42.92753],[-70.85261,42.9296],[-70.85124,42.93009],[-70.85122,42.93072],[-70.85025,42.93109],[-70.85086,42.93178],[-70.85007,42.93111],[-70.85106,42.92999],[-70.85237,42.92963],[-70.85197,42.92821],[-70.85099,42.92731],[-70.84924,42.92783],[-70.84971,42.92889],[-70.85089,42.92827],[-70.85044,42.92913],[-70.84937,42.92889],[-70.84903,42.92781],[-70.85086,42.92728],[-70.85107,42.92601],[-70.85262,42.92478],[-70.85119,42.92382],[-70.85043,42.92468],[-70.84834,42.92397],[-70.84831,42.92506],[-70.84674,42.92485],[-70.84545,42.92605],[-70.84697,42.92679],[-70.84538,42.92626],[-70.84483,42.92732],[-70.84562,42.92506],[-70.84316,42.92696],[-70.84376,42.9261],[-70.84327,42.92518],[-70.84231,42.92561],[-70.84392,42.92389],[-70.83967,42.9239],[-70.84009,42.92476],[-70.83889,42.92551],[-70.84022,42.9265],[-70.84012,42.92722],[-70.83924,42.92821],[-70.83863,42.92801],[-70.83874,42.9284],[-70.83815,42.9292],[-70.83734,42.9296],[-70.83859,42.9284],[-70.83802,42.92799],[-70.83804,42.92773],[-70.83989,42.92721],[-70.84007,42.92655],[-70.83931,42.92664],[-70.83854,42.92547],[-70.83985,42.92462],[-70.83711,42.92417],[-70.83602,42.92257],[-70.83507,42.92296],[-70.83394,42.91641],[-70.8307,42.91531],[-70.8304,42.91702],[-70.83219,42.91709],[-70.83265,42.9175],[-70.83216,42.91802],[-70.83275,42.91821],[-70.83292,42.91864],[-70.83191,42.91907],[-70.83279,42.91854],[-70.83206,42.91809],[-70.83199,42.91721],[-70.83013,42.91735],[-70.82997,42.91833],[-70.83048,42.91858],[-70.8305,42.92015],[-70.8303,42.91862],[-70.82951,42.91883],[-70.82984,42.91974],[-70.82834,42.92102],[-70.82965,42.9197],[-70.82893,42.91912],[-70.8298,42.91852],[-70.8289,42.91843],[-70.82899,42.91728],[-70.82917,42.91819],[-70.82985,42.91795],[-70.83034,42.91614],[-70.82886,42.91558],[-70.82596,42.916],[-70.82565,42.91513],[-70.8265,42.91426],[-70.82581,42.9137],[-70.82281,42.91536],[-70.82364,42.9169],[-70.82613,42.91802],[-70.82445,42.91911],[-70.82456,42.92171],[-70.82537,42.9223],[-70.82166,42.92299],[-70.81997,42.92222],[-70.82028,42.92303],[-70.82004,42.92338],[-70.81987,42.92291],[-70.8192,42.92341],[-70.81716,42.92361],[-70.81553,42.92349],[-70.81452,42.92484],[-70.81301,42.92557],[-70.81338,42.92615],[-70.8131,42.92631],[-70.81282,42.92554],[-70.81536,42.92345],[-70.81921,42.92326],[-70.81972,42.92241],[-70.81819,42.92013],[-70.81686,42.92161],[-70.81551,42.92207],[-70.81429,42.92191],[-70.81385,42.92213],[-70.81373,42.92281],[-70.81333,42.92301],[-70.81281,42.92286],[-70.81383,42.92201],[-70.81447,42.92178],[-70.8156,42.92193],[-70.81458,42.92037],[-70.81384,42.92053],[-70.81466,42.92128],[-70.81361,42.92191],[-70.81139,42.92092],[-70.81198,42.92173],[-70.81067,42.92284],[-70.81101,42.92327],[-70.81064,42.92388],[-70.80964,42.9237],[-70.80944,42.92432],[-70.80764,42.92507],[-70.80944,42.92392],[-70.80873,42.92408],[-70.80671,42.92329],[-70.80554,42.92228],[-70.8046,42.92249],[-70.80434,42.92406],[-70.80381,42.92467],[-70.80409,42.92542],[-70.80361,42.92667],[-70.80301,42.92673],[-70.80207,42.92617],[-70.80137,42.92636],[-70.80207,42.92716],[-70.80073,42.92733],[-70.80131,42.92624],[-70.802,42.92604],[-70.80354,42.92656],[-70.80368,42.92464],[-70.80421,42.92393],[-70.80289,42.92346],[-70.80413,42.92364],[-70.80448,42.92237],[-70.80581,42.92217],[-70.80879,42.92392],[-70.80962,42.92351],[-70.81042,42.92372],[-70.8104,42.92277],[-70.81168,42.92176],[-70.81122,42.92079],[-70.81326,42.92164],[-70.81439,42.92108],[-70.8136,42.92038],[-70.81464,42.92016],[-70.81644,42.92141],[-70.81619,42.92069],[-70.81772,42.91937],[-70.8166,42.91979],[-70.81562,42.9194],[-70.81582,42.91868],[-70.81456,42.91911],[-70.81358,42.91871],[-70.81326,42.9184],[-70.81327,42.91826],[-70.81452,42.91905],[-70.81494,42.9186],[-70.81588,42.91862],[-70.81614,42.91906],[-70.8176,42.91838],[-70.8167,42.91847],[-70.81594,42.91787],[-70.81625,42.91691],[-70.81563,42.91723],[-70.81419,42.9165],[-70.80549,42.91838],[-70.80925,42.91701],[-70.81412,42.91637],[-70.81637,42.91682],[-70.8161,42.9178],[-70.81672,42.91836],[-70.81747,42.91819],[-70.81772,42.91847],[-70.81575,42.91936],[-70.81764,42.91915],[-70.81885,42.91999],[-70.8188,42.9209],[-70.82024,42.92074],[-70.82182,42.92249],[-70.82329,42.92183],[-70.82257,42.92098],[-70.82374,42.92148],[-70.82414,42.92095],[-70.82361,42.9189],[-70.82519,42.91787],[-70.82175,42.91802],[-70.82324,42.91756],[-70.82272,42.91664],[-70.82188,42.91685],[-70.82072,42.91643],[-70.82109,42.91573],[-70.81965,42.91533],[-70.81908,42.91482],[-70.81957,42.91407],[-70.8176,42.91462],[-70.81627,42.91467],[-70.81583,42.91444],[-70.81956,42.91388],[-70.82021,42.91427],[-70.81925,42.91469],[-70.81974,42.91518],[-70.82141,42.9143],[-70.82067,42.91511],[-70.82132,42.91565],[-70.82103,42.91621],[-70.8221,42.91653],[-70.82171,42.91553],[-70.82431,42.91324],[-70.82541,42.91321],[-70.82656,42.91069],[-70.82294,42.90976],[-70.82318,42.9106],[-70.82225,42.91063],[-70.82297,42.9105],[-70.82081,42.9087],[-70.82008,42.90927],[-70.82055,42.91022],[-70.81996,42.91042],[-70.81989,42.90937],[-70.81876,42.90953],[-70.81728,42.90852],[-70.81807,42.90976],[-70.81717,42.91144],[-70.81718,42.91039],[-70.81707,42.91062],[-70.81624,42.91081],[-70.81694,42.91049],[-70.81611,42.91005],[-70.81659,42.90916],[-70.81568,42.90983],[-70.81495,42.90918],[-70.81478,42.90984],[-70.81479,42.90911],[-70.81536,42.90897],[-70.81584,42.90967],[-70.81623,42.90872],[-70.81684,42.90918],[-70.81699,42.90967],[-70.81636,42.90997],[-70.81706,42.91017],[-70.81775,42.90938],[-70.81701,42.90887],[-70.81709,42.90808],[-70.81846,42.90914],[-70.82043,42.90844],[-70.81822,42.90583],[-70.81766,42.9065],[-70.81814,42.90669],[-70.81789,42.90769],[-70.81769,42.90701],[-70.81564,42.9066],[-70.81698,42.90672],[-70.81668,42.90563],[-70.81755,42.90615],[-70.81662,42.90362],[-70.81793,42.90398],[-70.8177,42.90207],[-70.81856,42.90202],[-70.81869,42.90101],[-70.81693,42.9],[-70.81067,42.9],[-70.80983,42.90807],[-70.80737,42.91406],[-70.80522,42.91705],[-70.8,42.91795]]]},"properties":{}},{"type":"Feature","geometry":{"type":"Polygon","coordinates":[[[-70.84697,42.91091],[-70.8474,42.91208],[-70.84804,42.91178],[-70.84785,42.91111],[-70.84697,42.91091]]]},"properties":{}},{"type":"Feature","geometry":{"type":"Polygon","coordinates":[[[-70.83777,42.9],[-70.83747,42.90105],[-70.83814,42.90156],[-70.84093,42.90116],[-70.84055,42.9],[-70.83793,42.9],[-70.83791,42.9008],[-70.83777,42.9]]]},"properties":{}},{"type":"Feature","geometry":{"type":"Polygon","coordinates":[[[-70.84313,42.92321],[-70.84517,42.92254],[-70.84585,42.92145],[-70.84442,42.92165],[-70.84313,42.92321]]]},"properties":{}},{"type":"Feature","geometry":{"type":"Polygon","coordinates":[[[-70.82162,42.90793],[-70.82178,42.90855],[-70.82495,42.90991],[-70.82316,42.90863],[-70.82162,42.90793]]]},"properties":{}},{"type":"Feature","geometry":{"type":"Polygon","coordinates":[[[-70.82776,42.9],[-70.8269,42.9],[-70.82786,42.90072],[-70.82776,42.9]]]},"properties":{}},{"type":"Feature","geometry":{"type":"Polygon","coordinates":[[[-70.83375,42.91384],[-70.83016,42.91153],[-70.82744,42.91087],[-70.82599,42.91353],[-70.82668,42.9143],[-70.82601,42.91578],[-70.82972,42.91486],[-70.83377,42.91565],[-70.83375,42.91384]]]},"properties":{}},{"type":"Feature","geometry":{"type":"Polygon","coordinates":[[[-70.83422,42.90403],[-70.83556,42.90368],[-70.83601,42.9031],[-70.83409,42.903],[-70.83422,42.90403]]]},"properties":{}},{"type":"Feature","geometry":{"type":"Polygon","coordinates":[[[-70.83594,42.9019],[-70.83616,42.90269],[-70.8351,42.90265],[-70.83557,42.90244],[-70.83594,42.9019]]]},"properties":{}},{"type":"Feature","geometry":{"type":"Polygon","coordinates":[[[-70.82656,42.9],[-70.82477,42.9],[-70.82417,42.9016],[-70.8266,42.90255],[-70.82738,42.90154],[-70.82658,42.90123],[-70.82768,42.90111],[-70.82656,42.9]]]},"properties":{}},{"type":"Feature","geometry":{"type":"Polygon","coordinates":[[[-70.83797,42.91479],[-70.83644,42.91345],[-70.83533,42.91329],[-70.83796,42.91308],[-70.83846,42.9156],[-70.83733,42.91519],[-70.83797,42.91479]]]},"properties":{}},{"type":"Feature","geometry":{"type":"Polygon","coordinates":[[[-70.81745,42.91982],[-70.81684,42.92104],[-70.81641,42.92093],[-70.81639,42.92078],[-70.81745,42.91982]]]},"properties":{}},{"type":"Feature","geometry":{"type":"Polygon","coordinates":[[[-70.77188,42.96836],[-70.769,42.97137],[-70.76394,42.97372],[-70.76504,42.975],[-70.8,42.975],[-70.8,42.91795],[-70.79463,42.91782],[-70.7981,42.92081],[-70.79871,42.92408],[-70.79764,42.93126],[-70.79452,42.93966],[-70.79082,42.94288],[-70.78719,42.94361],[-70.78586,42.9503],[-70.78046,42.95613],[-70.77599,42.95716],[-70.7746,42.95915],[-70.77213,42.96071],[-70.77133,42.96335],[-70.76972,42.96438],[-70.77216,42.96659],[-70.77188,42.96836]]]},"properties":{}},{"type":"Feature","geometry":{"type":"Polygon","coordinates":[[[-70.62266,42.96822],[-70.62299,42.96716],[-70.62446,42.96722],[-70.62426,42.96797],[-70.62266,42.96822]]]},"properties":{}},{"type":"Feature","geometry":{"type":"Polygon","coordinates":[[[-70.61433,42.975],[-70.61468,42.9737],[-70.61393,42.97302],[-70.61174,42.97457],[-70.61433,42.975]]]},"properties":{}},{"type":"Feature","geometry":{"type":"Polygon","coordinates":[[[-70.95,42.975],[-71.025,42.975],[-71.025,43.05],[-70.95,43.05],[-70.95,42.98868],[-70.95167,42.98675],[-70.95,42.98429],[-70.95,42.975]]]},"properties":{}},{"type":"Feature","geometry":{"type":"Polygon","coordinates":[[[-70.94142,43.00422],[-70.93831,43.0036],[-70.93809,43.00281],[-70.94174,43.00177],[-70.94142,43.00422]]]},"properties":{}},{"type":"Feature","geometry":{"type":"Polygon","coordinates":[[[-70.91969,43.04944],[-70.91559,43.05],[-70.95,43.05],[-70.95,42.98868],[-70.94545,42.9911],[-70.94393,42.99437],[-70.94118,42.99466],[-70.93813,42.99699],[-70.93828,42.99824],[-70.9401,42.99976],[-70.93792,43.00208],[-70.9416,43.00112],[-70.94259,43.00311],[-70.9413,43.00493],[-70.93874,43.00398],[-70.94022,43.01036],[-70.93913,43.01416],[-70.93449,43.01712],[-70.93312,43.01972],[-70.93548,43.02273],[-70.93499,43.0284],[-70.93741,43.03255],[-70.93726,43.03393],[-70.93609,43.03511],[-70.93204,43.0364],[-70.93056,43.03876],[-70.92904,43.03909],[-70.92783,43.04106],[-70.92573,43.04251],[-70.91817,43.04491],[-70.91683,43.04903],[-70.91969,43.04944]]]},"properties":{}},{"type":"Feature","geometry":{"type":"Polygon","coordinates":[[[-70.875,42.975],[-70.95,42.975],[-70.95,42.98429],[-70.9494,42.98264],[-70.94502,42.98158],[-70.94277,42.98],[-70.94304,42.97931],[-70.9424,42.9798],[-70.94649,42.98297],[-70.94766,42.98442],[-70.94739,42.98509],[-70.95,42.98604],[-70.94997,42.98696],[-70.94715,42.98797],[-70.94397,42.9914],[-70.94322,42.99382],[-70.93931,42.99443],[-70.93771,42.99596],[-70.93657,42.99144],[-70.93663,42.99274],[-70.93559,42.99333],[-70.93537,42.99401],[-70.93514,42.99294],[-70.93349,42.9926],[-70.93493,42.99304],[-70.93527,42.99426],[-70.93586,42.99341],[-70.93696,42.99388],[-70.93735,42.99815],[-70.93943,42.99992],[-70.93675,43.00127],[-70.93729,43.0012],[-70.9394,43.01039],[-70.93853,43.01364],[-70.93419,43.01631],[-70.9323,43.01938],[-70.93245,43.02057],[-70.9345,43.02287],[-70.93398,43.02835],[-70.93625,43.03274],[-70.93578,43.03444],[-70.93111,43.03578],[-70.93002,43.03758],[-70.92514,43.04172],[-70.9225,43.04025],[-70.92496,43.04182],[-70.91738,43.04312],[-70.91495,43.04426],[-70.91317,43.04831],[-70.91146,43.05],[-70.875,43.05],[-70.875,42.975]]]},"properties":{}},{"type":"Feature","geometry":{"type":"Polygon","coordinates":[[[-70.88032,43.12333],[-70.875,43.12149],[-70.875,43.0958],[-70.87762,43.09571],[-70.88025,43.09738],[-70.88358,43.0981],[-70.88243,43.09639],[-70.88032,43.09621],[-70.87677,43.09309],[-70.87727,43.09217],[-70.87646,43.09176],[-70.87848,43.09061],[-70.87739,43.08986],[-70.87904,43.08944],[-70.87796,43.08815],[-70.88009,43.08848],[-70.87877,43.08669],[-70.87905,43.08566],[-70.88126,43.08456],[-70.88154,43.08573],[-70.88247,43.08577],[-70.88316,43.08383],[-70.88396,43.08412],[-70.88401,43.08298],[-70.88589,43.08231],[-70.88695,43.08319],[-70.89186,43.08287],[-70.8899,43.08171],[-70.89022,43.08063],[-70.89254,43.08237],[-70.89686,43.08204],[-70.89679,43.08122],[-70.89903,43.08031],[-70.89795,43.07731],[-70.90194,43.07577],[-70.90033,43.07546],[-70.89975,43.07466],[-70.90027,43.07446],[-70.90284,43.07569],[-70.90442,43.07379],[-70.90686,43.07454],[-70.90988,43.07421],[-70.90898,43.07357],[-70.90942,43.07322],[-70.91191,43.0738],[-70.91314,43.07289],[-70.91169,43.07372],[-70.90973,43.07285],[-70.90884,43.07341],[-70.90869,43.07425],[-70.90613,43.07386],[-70.90783,43.07323],[-70.90555,43.06987],[-70.90675,43.06725],[-70.90861,43.06761],[-70.91198,43.06678],[-70.91711,43.06689],[-70.91898,43.06794],[-70.91949,43.06963],[-70.92585,43.07256],[-70.92803,43.07578],[-70.92745,43.07631],[-70.93221,43.07619],[-70.93393,43.07712],[-70.93442,43.07836],[-70.93299,43.08059],[-70.93449,43.08126],[-70.936,43.07767],[-70.93309,43.07521],[-70.93115,43.07479],[-70.92831,43.07556],[-70.92686,43.07226],[-70.92019,43.06792],[-70.91755,43.06413],[-70.91187,43.06453],[-70.91167,43.06169],[-70.91381,43.05879],[-70.91472,43.0589],[-70.91444,43.05735],[-70.91596,43.05639],[-70.91501,43.05251],[-70.91286,43.05253],[-70.91502,43.05226],[-70.91559,43.05],[-70.95,43.05],[-70.95,43.125],[-70.88114,43.125],[-70.88217,43.12328],[-70.88032,43.12333]]]},"properties":{}},{"type":"Feature","geometry":{"type":"Polygon","coordinates":[[[-70.87528,43.05918],[-70.875,43.05],[-70.91146,43.05],[-70.90977,43.05173],[-70.9103,43.05295],[-70.90701,43.05547],[-70.90282,43.05694],[-70.89206,43.05546],[-70.8873,43.05704],[-70.88554,43.06005],[-70.88371,43.0602],[-70.88391,43.05916],[-70.88248,43.05876],[-70.88039,43.0594],[-70.87964,43.06045],[-70.87772,43.05887],[-70.87528,43.05918]]]},"properties":{}},{"type":"Feature","geometry":{"type":"Polygon","coordinates":[[[-70.90489,43.07334],[-70.90358,43.07283],[-70.9031,43.07309],[-70.90372,43.0734],[-70.90489,43.07334]]]},"properties":{}},{"type":"Feature","geometry":{"type":"Polygon","coordinates":[[[-70.8,43.11894],[-70.8,43.125],[-70.81842,43.125],[-70.81409,43.12285],[-70.80546,43.12126],[-70.80471,43.12313],[-70.80501,43.12143],[-70.80396,43.1197],[-70.80252,43.11876],[-70.8,43.11894]]]},"properties":{}},{"type":"Feature","geometry":{"type":"Polygon","coordinates":[[[-70.8311,43.12479],[-70.82707,43.12226],[-70.82776,43.12179],[-70.82667,43.12052],[-70.8275,43.11952],[-70.83095,43.11956],[-70.83401,43.12183],[-70.83474,43.12126],[-70.83483,43.12243],[-70.83865,43.125],[-70.8311,43.12479]]]},"properties":{}},{"type":"Feature","geometry":{"type":"Polygon","coordinates":[[[-70.85546,43.1214],[-70.85525,43.12026],[-70.85412,43.11965],[-70.85039,43.11986],[-70.84788,43.11837],[-70.84691,43.1173],[-70.84774,43.11572],[-70.84734,43.11471],[-70.84397,43.11192],[-70.8428,43.11292],[-70.84096,43.11223],[-70.83606,43.11576],[-70.83338,43.11626],[-70.8319,43.11492],[-70.83032,43.11476],[-70.82992,43.11375],[-70.82885,43.11571],[-70.82518,43.11246],[-70.82412,43.1126],[-70.82352,43.11406],[-70.82445,43.11672],[-70.82209,43.11608],[-70.82186,43.11788],[-70.82023,43.11825],[-70.81929,43.11702],[-70.81614,43.11675],[-70.81432,43.11547],[-70.81327,43.11667],[-70.81166,43.11643],[-70.81061,43.11326],[-70.80595,43.10918],[-70.80364,43.10964],[-70.80243,43.10814],[-70.80204,43.10984],[-70.8,43.10878],[-70.8,43.05],[-70.8433,43.05],[-70.8459,43.05181],[-70.84582,43.05363],[-70.84289,43.05182],[-70.84043,43.05208],[-70.83881,43.05382],[-70.83544,43.05167],[-70.83417,43.05143],[-70.83487,43.0503],[-70.83395,43.05117],[-70.83418,43.05168],[-70.83504,43.05199],[-70.83384,43.05564],[-70.83454,43.05689],[-70.83298,43.06048],[-70.83629,43.06259],[-70.83536,43.0627],[-70.8349,43.06384],[-70.83714,43.06624],[-70.83595,43.06799],[-70.8388,43.0685],[-70.84308,43.06768],[-70.84602,43.06898],[-70.84578,43.06997],[-70.84445,43.06985],[-70.8424,43.07179],[-70.8434,43.07505],[-70.84661,43.07683],[-70.85102,43.07387],[-70.85556,43.0743],[-70.85618,43.07233],[-70.85871,43.07044],[-70.85937,43.07036],[-70.85966,43.0718],[-70.86164,43.07126],[-70.85804,43.07477],[-70.85785,43.07595],[-70.85898,43.07627],[-70.85998,43.07782],[-70.85939,43.07993],[-70.86053,43.08025],[-70.86131,43.08218],[-70.86434,43.08135],[-70.86359,43.08269],[-70.86026,43.08312],[-70.8612,43.08509],[-70.86034,43.08701],[-70.8552,43.08817],[-70.85667,43.08904],[-70.8592,43.08907],[-70.86016,43.09071],[-70.85704,43.09313],[-70.85424,43.09364],[-70.85262,43.0923],[-70.85102,43.09474],[-70.85365,43.09597],[-70.85396,43.09777],[-70.8554,43.09823],[-70.85186,43.10132],[-70.85396,43.10308],[-70.85427,43.10488],[-70.85388,43.10941],[-70.85446,43.11099],[-70.85339,43.11402],[-70.85376,43.11558],[-70.85245,43.11607],[-70.85269,43.11739],[-70.85382,43.11846],[-70.85958,43.12042],[-70.85809,43.12157],[-70.85546,43.1214]]]},"properties":{}},{"type":"Feature","geometry":{"type":"Polygon","coordinates":[[[-70.87013,43.06006],[-70.869,43.05862],[-70.86629,43.05953],[-70.86581,43.05848],[-70.86151,43.05853],[-70.86121,43.05596],[-70.8607,43.05556],[-70.85943,43.05648],[-70.85767,43.05537],[-70.85782,43.05156],[-70.85404,43.05193],[-70.85153,43.05],[-70.875,43.05],[-70.875,43.05926],[-70.87267,43.06064],[-70.87013,43.06006]]]},"properties":{}},{"type":"Feature","geometry":{"type":"Polygon","coordinates":[[[-70.86586,43.11528],[-70.86598,43.11641],[-70.8647,43.11584],[-70.86512,43.11518],[-70.86586,43.11528]]]},"properties":{}},{"type":"Feature","geometry":{"type":"Polygon","coordinates":[[[-70.86593,43.11405],[-70.86631,43.11479],[-70.86692,43.11443],[-70.86593,43.11405]]]},"properties":{}},{"type":"Feature","geometry":{"type":"Polygon","coordinates":[[[-70.87004,43.12103],[-70.86753,43.11787],[-70.87042,43.11641],[-70.8672,43.11507],[-70.86842,43.11301],[-70.86773,43.11171],[-70.86968,43.11188],[-70.8692,43.11071],[-70.87042,43.10998],[-70.86933,43.10938],[-70.87081,43.1091],[-70.87102,43.10812],[-70.8702,43.10753],[-70.87139,43.1066],[-70.87035,43.10639],[-70.87057,43.10496],[-70.86957,43.10381],[-70.87031,43.10346],[-70.86904,43.10307],[-70.86977,43.10167],[-70.86731,43.10054],[-70.86701,43.10001],[-70.86797,43.09934],[-70.86692,43.09854],[-70.86775,43.09882],[-70.86909,43.09765],[-70.87189,43.09829],[-70.86627,43.09405],[-70.8644,43.09401],[-70.86437,43.09204],[-70.86566,43.09146],[-70.86406,43.09089],[-70.86559,43.0898],[-70.87218,43.0918],[-70.8716,43.09355],[-70.86947,43.09409],[-70.87039,43.09557],[-70.87303,43.09628],[-70.875,43.0958],[-70.875,43.12149],[-70.87259,43.12064],[-70.873,43.12198],[-70.87218,43.12234],[-70.87004,43.12103]]]},"properties":{}},{"type":"Feature","geometry":{"type":"Polygon","coordinates":[[[-70.875,43.125],[-70.8742,43.12423],[-70.87147,43.125],[-70.875,43.125]]]},"properties":{}},{"type":"Feature","geometry":{"type":"Polygon","coordinates":[[[-70.87071,43.125],[-70.86913,43.12439],[-70.8681,43.125],[-70.87071,43.125]]]},"properties":{}},{"type":"Feature","geometry":{"type":"Polygon","coordinates":[[[-70.80083,43.11419],[-70.80204,43.11458],[-70.80246,43.11428],[-70.80083,43.11419]]]},"properties":{}},{"type":"Feature","geometry":{"type":"Polygon","coordinates":[[[-70.875,43.125],[-70.875,43.2],[-70.95,43.2],[-70.95,43.125],[-70.88114,43.125],[-70.88095,43.12563],[-70.88291,43.12584],[-70.88236,43.12732],[-70.88506,43.12843],[-70.88571,43.13004],[-70.88507,43.13057],[-70.88676,43.13135],[-70.88801,43.13022],[-70.89097,43.13084],[-70.89053,43.12895],[-70.8911,43.12816],[-70.89639,43.13134],[-70.90027,43.13177],[-70.90311,43.13309],[-70.90503,43.13216],[-70.90602,43.13405],[-70.91084,43.13402],[-70.91304,43.13221],[-70.91359,43.13274],[-70.91459,43.13218],[-70.91479,43.13111],[-70.91576,43.13154],[-70.91834,43.13074],[-70.91845,43.13096],[-70.91309,43.13374],[-70.91295,43.13469],[-70.91384,43.13539],[-70.91199,43.13447],[-70.90756,43.13522],[-70.89717,43.13298],[-70.89892,43.13475],[-70.89986,43.13656],[-70.89984,43.13763],[-70.89657,43.1334],[-70.89332,43.13169],[-70.8905,43.13238],[-70.88962,43.13357],[-70.88612,43.13367],[-70.88279,43.13132],[-70.88303,43.13032],[-70.88193,43.12946],[-70.87966,43.12945],[-70.87707,43.12809],[-70.87633,43.12936],[-70.87669,43.12713],[-70.87748,43.12679],[-70.875,43.125]]]},"properties":{}},{"type":"Feature","geometry":{"type":"Polygon","coordinates":[[[-70.82317,43.19812],[-70.82098,43.19445],[-70.82155,43.19289],[-70.82341,43.19322],[-70.82368,43.19247],[-70.82577,43.19326],[-70.827,43.19183],[-70.82624,43.19094],[-70.82792,43.19124],[-70.82984,43.18934],[-70.83181,43.18915],[-70.83042,43.18844],[-70.83001,43.1845],[-70.82636,43.17981],[-70.82575,43.1777],[-70.8292,43.18035],[-70.83132,43.18363],[-70.83772,43.18551],[-70.83736,43.18806],[-70.83902,43.18744],[-70.84085,43.1881],[-70.84164,43.18902],[-70.84094,43.18953],[-70.84216,43.19045],[-70.84725,43.19104],[-70.85779,43.19585],[-70.86115,43.1956],[-70.86238,43.19758],[-70.86538,43.19715],[-70.86803,43.19813],[-70.86973,43.19734],[-70.87039,43.19507],[-70.86853,43.19759],[-70.86571,43.19636],[-70.86403,43.19687],[-70.86137,43.19469],[-70.85693,43.19497],[-70.85147,43.19115],[-70.84886,43.19165],[-70.84603,43.18839],[-70.84513,43.18924],[-70.84326,43.18898],[-70.84086,43.18701],[-70.83997,43.18466],[-70.83102,43.1815],[-70.82578,43.17356],[-70.82652,43.17293],[-70.82695,43.17332],[-70.82717,43.17338],[-70.82793,43.17236],[-70.82937,43.1726],[-70.82937,43.16985],[-70.83038,43.16879],[-70.82984,43.16459],[-70.83104,43.16259],[-70.83122,43.1594],[-70.83359,43.15596],[-70.83322,43.15419],[-70.83529,43.14889],[-70.83508,43.14516],[-70.8324,43.13606],[-70.83372,43.13494],[-70.83489,43.13182],[-70.83251,43.12862],[-70.83373,43.12694],[-70.83601,43.12654],[-70.83415,43.12529],[-70.83168,43.125],[-70.83865,43.125],[-70.84125,43.12714],[-70.84465,43.12736],[-70.84557,43.12788],[-70.84488,43.12828],[-70.84697,43.12873],[-70.84441,43.12856],[-70.84458,43.12961],[-70.84683,43.13131],[-70.8426,43.13542],[-70.84426,43.13867],[-70.84383,43.14013],[-70.84539,43.14536],[-70.8444,43.14675],[-70.84487,43.14883],[-70.84809,43.15294],[-70.85289,43.1561],[-70.85276,43.15842],[-70.85248,43.15792],[-70.85125,43.15949],[-70.85349,43.16091],[-70.85377,43.16196],[-70.85925,43.16437],[-70.86303,43.17146],[-70.87063,43.17555],[-70.87454,43.17866],[-70.87436,43.17757],[-70.86332,43.17093],[-70.86335,43.16938],[-70.86128,43.16734],[-70.86032,43.16419],[-70.85694,43.16292],[-70.85426,43.16071],[-70.8537,43.15891],[-70.85508,43.15791],[-70.85441,43.15734],[-70.85402,43.15828],[-70.85413,43.15635],[-70.8528,43.15411],[-70.8533,43.15361],[-70.85205,43.15359],[-70.84906,43.15136],[-70.84907,43.14926],[-70.8476,43.14701],[-70.84974,43.14762],[-70.84905,43.1466],[-70.85093,43.14632],[-70.85244,43.14741],[-70.8535,43.14753],[-70.85118,43.14614],[-70.84838,43.1457],[-70.84855,43.14345],[-70.84725,43.14248],[-70.84843,43.14204],[-70.84744,43.14036],[-70.84846,43.13924],[-70.84651,43.13743],[-70.84741,43.13711],[-70.84682,43.1355],[-70.85163,43.13649],[-70.85684,43.13343],[-70.86055,43.13402],[-70.86187,43.13319],[-70.85924,43.13308],[-70.8587,43.13163],[-70.85951,43.13139],[-70.85329,43.1308],[-70.85106,43.12957],[-70.85245,43.12983],[-70.85782,43.12765],[-70.8593,43.12795],[-70.85879,43.12867],[-70.85958,43.12915],[-70.86204,43.12939],[-70.86436,43.128],[-70.86418,43.12706],[-70.86669,43.12669],[-70.8681,43.125],[-70.875,43.125],[-70.875,43.2],[-70.823,43.2],[-70.82317,43.19812]]]},"properties":{}},{"type":"Feature","geometry":{"type":"Polygon","coordinates":[[[-70.8,43.125],[-70.8,43.2],[-70.81823,43.19992],[-70.81893,43.19918],[-70.81642,43.19497],[-70.81813,43.19113],[-70.82431,43.18998],[-70.8268,43.18823],[-70.82189,43.18683],[-70.82472,43.18724],[-70.82466,43.18517],[-70.82343,43.18324],[-70.82091,43.18256],[-70.82351,43.17959],[-70.82258,43.17672],[-70.82135,43.17574],[-70.82182,43.17308],[-70.82535,43.17108],[-70.82718,43.16849],[-70.82666,43.16681],[-70.82625,43.16718],[-70.8244,43.1666],[-70.82602,43.16639],[-70.82494,43.16579],[-70.82593,43.16379],[-70.82437,43.16326],[-70.82536,43.16164],[-70.82486,43.16031],[-70.82579,43.15819],[-70.82767,43.15621],[-70.82461,43.15395],[-70.82391,43.15451],[-70.82178,43.15385],[-70.81829,43.15421],[-70.81702,43.15522],[-70.81743,43.15465],[-70.81677,43.15435],[-70.8219,43.15326],[-70.82349,43.15362],[-70.82543,43.15273],[-70.82738,43.15412],[-70.82863,43.15377],[-70.82957,43.15281],[-70.82926,43.15099],[-70.83153,43.14856],[-70.83198,43.14729],[-70.83141,43.14657],[-70.83236,43.1452],[-70.82879,43.14065],[-70.82898,43.14002],[-70.82765,43.13986],[-70.82791,43.13842],[-70.82591,43.13714],[-70.82675,43.1348],[-70.82502,43.13597],[-70.82376,43.13585],[-70.82275,43.13385],[-70.82331,43.13198],[-70.82141,43.13136],[-70.82131,43.12796],[-70.81842,43.125],[-70.8,43.125]]]},"properties":{}},{"type":"Feature","geometry":{"type":"Polygon","coordinates":[[[-70.85599,43.125],[-70.85348,43.125],[-70.85277,43.12535],[-70.85553,43.12562],[-70.85599,43.125]]]},"properties":{}},{"type":"Feature","geometry":{"type":"Polygon","coordinates":[[[-70.725,43.02798],[-70.725,43.05],[-70.72884,43.05],[-70.72923,43.04892],[-70.72842,43.04878],[-70.72835,43.0495],[-70.72783,43.04869],[-70.72718,43.04938],[-70.72743,43.04795],[-70.73032,43.04843],[-70.73099,43.0477],[-70.73036,43.04718],[-70.73337,43.04759],[-70.73346,43.04839],[-70.73297,43.04784],[-70.73071,43.04881],[-70.73178,43.04966],[-70.73416,43.0488],[-70.73772,43.04912],[-70.73695,43.05],[-70.75043,43.05],[-70.75014,43.04924],[-70.75096,43.04873],[-70.75194,43.05],[-70.76207,43.05],[-70.76265,43.04921],[-70.76131,43.04885],[-70.76127,43.04816],[-70.76171,43.04764],[-70.76398,43.04698],[-70.7617,43.04824],[-70.76386,43.04878],[-70.76516,43.05],[-70.76568,43.04957],[-70.76519,43.04881],[-70.76706,43.05],[-70.8,43.05],[-70.8,42.975],[-70.76504,42.975],[-70.76442,42.98045],[-70.76036,42.98816],[-70.75569,42.99184],[-70.75039,42.99156],[-70.74977,42.99526],[-70.74551,42.99932],[-70.74703,42.99865],[-70.75236,43.00019],[-70.75063,43.00358],[-70.74987,43.00344],[-70.75087,43.00388],[-70.7499,43.0043],[-70.74986,43.00531],[-70.74862,43.0043],[-70.74966,43.00329],[-70.74799,43.00255],[-70.74948,43.00165],[-70.74772,43.00227],[-70.74416,43.00108],[-70.74367,43.00077],[-70.74429,42.9997],[-70.74292,43.00122],[-70.74464,43.00202],[-70.74508,43.00336],[-70.74366,43.00825],[-70.74068,43.0111],[-70.73445,43.01317],[-70.73417,43.015],[-70.73175,43.01669],[-70.73326,43.01666],[-70.73365,43.01693],[-70.73272,43.01707],[-70.73236,43.02074],[-70.73069,43.02458],[-70.72751,43.02795],[-70.725,43.02798]]]},"properties":{}},{"type":"Feature","geometry":{"type":"Polygon","coordinates":[[[-70.71356,43.04604],[-70.71147,43.04264],[-70.71501,43.04188],[-70.7151,43.04046],[-70.714,43.03983],[-70.71524,43.03959],[-70.71578,43.03793],[-70.71513,43.03727],[-70.71734,43.03638],[-70.71844,43.03268],[-70.72195,43.03093],[-70.7223,43.02944],[-70.725,43.02798],[-70.725,43.05],[-70.71753,43.05],[-70.7176,43.04734],[-70.71583,43.04616],[-70.71356,43.04604]]]},"properties":{}},{"type":"Feature","geometry":{"type":"Polygon","coordinates":[[[-70.62683,42.97606],[-70.6274,42.97724],[-70.62672,42.97808],[-70.62558,42.97805],[-70.62615,42.9765],[-70.62435,42.97656],[-70.62559,42.97571],[-70.62683,42.97606]]]},"properties":{}},{"type":"Feature","geometry":{"type":"Polygon","coordinates":[[[-70.61673,42.98809],[-70.61741,42.98806],[-70.61784,42.98765],[-70.61721,42.98771],[-70.61673,42.98809]]]},"properties":{}},{"type":"Feature","geometry":{"type":"Polygon","coordinates":[[[-70.60942,42.98126],[-70.60822,42.97932],[-70.60637,42.97892],[-70.6067,42.9775],[-70.60915,42.97756],[-70.61205,42.975],[-70.61433,42.975],[-70.6153,42.97709],[-70.61691,42.97689],[-70.61414,42.97867],[-70.61448,42.97788],[-70.61173,42.97815],[-70.61217,42.9776],[-70.6109,42.97672],[-70.60913,42.97777],[-70.60958,42.97839],[-70.6083,42.97915],[-70.60931,42.98081],[-70.61164,42.98104],[-70.61104,42.98248],[-70.61306,42.98195],[-70.6127,42.98265],[-70.60453,42.98381],[-70.60206,42.98289],[-70.60164,42.98339],[-70.60124,42.98255],[-70.60174,42.98128],[-70.6062,42.98189],[-70.60942,42.98126]]]},"properties":{}},{"type":"Feature","geometry":{"type":"Polygon","coordinates":[[[-70.61465,42.99278],[-70.61404,42.99171],[-70.61283,42.99247],[-70.61279,42.99177],[-70.61162,42.99154],[-70.61306,42.9892],[-70.61047,42.98908],[-70.60934,42.98779],[-70.61066,42.98599],[-70.6125,42.98511],[-70.61738,42.98458],[-70.61867,42.98535],[-70.61855,42.98637],[-70.61557,42.98883],[-70.61717,42.98908],[-70.61698,42.99054],[-70.61757,42.99065],[-70.61622,42.99226],[-70.61465,42.99278]]]},"properties":{}},{"type":"Feature","geometry":{"type":"Polygon","coordinates":[[[-70.60365,43.00596],[-70.60361,43.00521],[-70.60251,43.00522],[-70.60354,43.00413],[-70.60665,43.00427],[-70.60624,43.00512],[-70.60365,43.00596]]]},"properties":{}},{"type":"Feature","geometry":{"type":"Polygon","coordinates":[[[-70.72829,43.0633],[-70.725,43.06459],[-70.725,43.05822],[-70.72522,43.05801],[-70.72769,43.05906],[-70.72894,43.05857],[-70.72857,43.06005],[-70.73158,43.06033],[-70.73149,43.06108],[-70.73036,43.06102],[-70.72903,43.06221],[-70.72791,43.06191],[-70.72897,43.06093],[-70.72828,43.06051],[-70.72559,43.06102],[-70.72506,43.06186],[-70.72584,43.06231],[-70.72573,43.06385],[-70.72829,43.0633]]]},"properties":{}},{"type":"Feature","geometry":{"type":"Polygon","coordinates":[[[-70.725,43.06937],[-70.725,43.07309],[-70.72862,43.07259],[-70.72971,43.07171],[-70.72787,43.06939],[-70.725,43.06937]]]},"properties":{}},{"type":"Feature","geometry":{"type":"Polygon","coordinates":[[[-70.74811,43.06636],[-70.74335,43.06695],[-70.74368,43.06618],[-70.74602,43.06494],[-70.7493,43.06524],[-70.74811,43.06636]]]},"properties":{}},{"type":"Feature","geometry":{"type":"Polygon","coordinates":[[[-70.79753,43.10593],[-70.7969,43.10647],[-70.79625,43.10608],[-70.79742,43.10589],[-70.79673,43.10541],[-70.79701,43.10433],[-70.79542,43.10336],[-70.79315,43.10274],[-70.79153,43.10347],[-70.79109,43.10331],[-70.79237,43.10183],[-70.78603,43.09879],[-70.78328,43.09842],[-70.78265,43.09616],[-70.78153,43.09529],[-70.7791,43.09421],[-70.7721,43.09381],[-70.76666,43.09174],[-70.76478,43.08975],[-70.76444,43.08762],[-70.76581,43.08661],[-70.76705,43.08675],[-70.76393,43.08467],[-70.76761,43.08661],[-70.76809,43.08468],[-70.76488,43.08418],[-70.76367,43.08313],[-70.76898,43.08401],[-70.77045,43.08307],[-70.76897,43.08368],[-70.76704,43.08275],[-70.76705,43.08339],[-70.76683,43.08351],[-70.76428,43.08296],[-70.76635,43.08061],[-70.7654,43.08081],[-70.7653,43.07958],[-70.7641,43.08075],[-70.76253,43.08025],[-70.76158,43.08085],[-70.76229,43.08162],[-70.76344,43.08141],[-70.76307,43.08333],[-70.76384,43.08447],[-70.76257,43.08502],[-70.76043,43.08349],[-70.76062,43.08093],[-70.75902,43.08092],[-70.75724,43.07879],[-70.75477,43.07913],[-70.75092,43.07748],[-70.75072,43.07599],[-70.74918,43.07417],[-70.74934,43.07312],[-70.75046,43.07287],[-70.74831,43.07199],[-70.74941,43.07066],[-70.74385,43.07093],[-70.7449,43.07035],[-70.74344,43.0699],[-70.74312,43.06843],[-70.7446,43.06783],[-70.7479,43.06924],[-70.75096,43.06839],[-70.75026,43.06766],[-70.7537,43.06574],[-70.75371,43.06496],[-70.75079,43.06456],[-70.75095,43.06365],[-70.75011,43.0635],[-70.75094,43.06304],[-70.74924,43.06298],[-70.74634,43.06447],[-70.74565,43.06384],[-70.74619,43.06259],[-70.74365,43.06377],[-70.7426,43.06292],[-70.73947,43.06329],[-70.73729,43.06175],[-70.73831,43.06014],[-70.73775,43.05949],[-70.73917,43.05899],[-70.73827,43.05891],[-70.73903,43.05772],[-70.74276,43.05492],[-70.74854,43.05579],[-70.75015,43.0551],[-70.74942,43.0546],[-70.75098,43.0534],[-70.75514,43.05242],[-70.75827,43.05242],[-70.76015,43.05324],[-70.76227,43.05154],[-70.76287,43.05312],[-70.76445,43.05401],[-70.76435,43.05269],[-70.7685,43.05138],[-70.76859,43.05034],[-70.77031,43.05089],[-70.77098,43.05093],[-70.77169,43.05056],[-70.77158,43.05124],[-70.77333,43.05163],[-70.77332,43.05257],[-70.7736,43.05254],[-70.77341,43.05162],[-70.77292,43.0512],[-70.77288,43.05061],[-70.77349,43.05076],[-70.77417,43.05054],[-70.77423,43.05035],[-70.77291,43.0505],[-70.77203,43.05129],[-70.77189,43.05057],[-70.77147,43.05043],[-70.77078,43.05081],[-70.77008,43.05],[-70.8,43.05],[-70.8,43.10717],[-70.79753,43.10593]]]},"properties":{}},{"type":"Feature","geometry":{"type":"Polygon","coordinates":[[[-70.73184,43.06583],[-70.72901,43.0633],[-70.7329,43.06256],[-70.73158,43.06208],[-70.73281,43.06055],[-70.73453,43.06219],[-70.73406,43.0611],[-70.73467,43.06075],[-70.73479,43.06265],[-70.73651,43.06308],[-70.73667,43.06417],[-70.73552,43.06526],[-70.73184,43.06583]]]},"properties":{}},{"type":"Feature","geometry":{"type":"Polygon","coordinates":[[[-70.7325,43.05744],[-70.73083,43.05843],[-70.73093,43.05905],[-70.73386,43.05839],[-70.73414,43.05732],[-70.73268,43.05739],[-70.73297,43.05611],[-70.73512,43.05641],[-70.73586,43.05735],[-70.73888,43.05605],[-70.74003,43.05634],[-70.74247,43.05374],[-70.74085,43.05296],[-70.74536,43.0534],[-70.74506,43.0541],[-70.74768,43.05479],[-70.75198,43.05151],[-70.75043,43.05],[-70.73474,43.05017],[-70.72982,43.05238],[-70.72921,43.05345],[-70.73082,43.0534],[-70.73157,43.05491],[-70.73121,43.05658],[-70.72939,43.05816],[-70.7325,43.05744]]]},"properties":{}},{"type":"Feature","geometry":{"type":"Polygon","coordinates":[[[-70.725,43.06685],[-70.72605,43.06679],[-70.72643,43.06774],[-70.72749,43.06763],[-70.72649,43.06817],[-70.725,43.06685]]]},"properties":{}},{"type":"Feature","geometry":{"type":"Polygon","coordinates":[[[-70.74202,43.07115],[-70.73894,43.07102],[-70.74015,43.0687],[-70.74088,43.06864],[-70.74202,43.07115]]]},"properties":{}},{"type":"Feature","geometry":{"type":"Polygon","coordinates":[[[-70.72917,43.06641],[-70.72916,43.06828],[-70.73012,43.06771],[-70.73148,43.06827],[-70.73214,43.06757],[-70.73017,43.06567],[-70.72917,43.06641]]]},"properties":{}},{"type":"Feature","geometry":{"type":"Polygon","coordinates":[[[-70.75563,43.08275],[-70.75314,43.08257],[-70.7491,43.08253],[-70.75104,43.08133],[-70.75585,43.08164],[-70.75563,43.08275]]]},"properties":{}},{"type":"Feature","geometry":{"type":"Polygon","coordinates":[[[-70.73308,43.09822],[-70.725,43.09822],[-70.725,43.125],[-70.8,43.125],[-70.8,43.11894],[-70.79751,43.11712],[-70.79828,43.11487],[-70.79911,43.11462],[-70.79884,43.11263],[-70.7959,43.11058],[-70.78863,43.10779],[-70.78487,43.10479],[-70.78172,43.10386],[-70.77997,43.10149],[-70.78031,43.09894],[-70.77892,43.09836],[-70.77866,43.09668],[-70.77041,43.09621],[-70.7711,43.09548],[-70.77017,43.09514],[-70.76668,43.09676],[-70.76481,43.09613],[-70.76567,43.09423],[-70.76361,43.09221],[-70.76084,43.09231],[-70.76017,43.09115],[-70.75733,43.09191],[-70.75713,43.0929],[-70.75561,43.09226],[-70.76036,43.08985],[-70.75862,43.08804],[-70.75433,43.08837],[-70.75767,43.08748],[-70.75741,43.08667],[-70.75612,43.0865],[-70.75624,43.08577],[-70.75412,43.08578],[-70.75503,43.08539],[-70.75402,43.08447],[-70.74991,43.08362],[-70.74531,43.08428],[-70.7427,43.08547],[-70.74217,43.08496],[-70.74035,43.08751],[-70.73919,43.08573],[-70.735,43.08721],[-70.73543,43.08524],[-70.73303,43.08552],[-70.73191,43.08477],[-70.73115,43.08568],[-70.73076,43.08509],[-70.72636,43.08598],[-70.72661,43.08481],[-70.72516,43.08473],[-70.725,43.08834],[-70.72637,43.0878],[-70.7259,43.08873],[-70.72793,43.08949],[-70.72703,43.09004],[-70.72759,43.09137],[-70.725,43.09049],[-70.725,43.09578],[-70.72605,43.09709],[-70.72769,43.09726],[-70.72725,43.0944],[-70.72961,43.09399],[-70.72827,43.09467],[-70.72797,43.09625],[-70.73059,43.09749],[-70.73254,43.09608],[-70.73318,43.09764],[-70.73308,43.09822]]]},"properties":{}},{"type":"Feature","geometry":{"type":"Polygon","coordinates":[[[-70.79923,43.10818],[-70.8,43.10878],[-70.8,43.1075],[-70.79923,43.10818]]]},"properties":{}},{"type":"Feature","geometry":{"type":"Polygon","coordinates":[[[-70.73628,43.0849],[-70.73298,43.08289],[-70.7267,43.08262],[-70.72817,43.08157],[-70.725,43.08172],[-70.725,43.07975],[-70.72812,43.07826],[-70.72887,43.07569],[-70.72998,43.07511],[-70.7362,43.07469],[-70.73855,43.07687],[-70.73783,43.0798],[-70.73969,43.07919],[-70.74114,43.07962],[-70.74132,43.08044],[-70.74395,43.08045],[-70.74253,43.08086],[-70.74283,43.08148],[-70.74723,43.08092],[-70.74494,43.08222],[-70.74524,43.08272],[-70.74111,43.08449],[-70.73628,43.0849]]]},"properties":{}},{"type":"Feature","geometry":{"type":"Polygon","coordinates":[[[-70.74868,43.07747],[-70.74743,43.07667],[-70.7474,43.07523],[-70.74614,43.0759],[-70.74079,43.07465],[-70.74006,43.07209],[-70.74343,43.07285],[-70.74362,43.07436],[-70.74612,43.07384],[-70.74823,43.07439],[-70.74909,43.07513],[-70.74985,43.07653],[-70.74764,43.07522],[-70.74868,43.07747]]]},"properties":{}},{"type":"Feature","geometry":{"type":"Polygon","coordinates":[[[-70.73398,43.0723],[-70.72967,43.07166],[-70.73758,43.07108],[-70.73398,43.0723]]]},"properties":{}},{"type":"Feature","geometry":{"type":"Polygon","coordinates":[[[-70.72842,43.07731],[-70.725,43.07725],[-70.725,43.07647],[-70.7252,43.07688],[-70.72733,43.07672],[-70.72842,43.07708],[-70.72842,43.07731]]]},"properties":{}},{"type":"Feature","geometry":{"type":"Polygon","coordinates":[[[-70.74723,43.08315],[-70.74687,43.08281],[-70.74819,43.08277],[-70.74723,43.08315]]]},"properties":{}},{"type":"Feature","geometry":{"type":"Polygon","coordinates":[[[-70.76843,43.05],[-70.76706,43.05],[-70.76631,43.05087],[-70.76773,43.05111],[-70.76742,43.05038],[-70.76843,43.05]]]},"properties":{}},{"type":"Feature","geometry":{"type":"Polygon","coordinates":[[[-70.72888,43.05037],[-70.725,43.05],[-70.725,43.0514],[-70.72888,43.05037]]]},"properties":{}},{"type":"Feature","geometry":{"type":"Polygon","coordinates":[[[-70.75401,43.05123],[-70.75194,43.05],[-70.76075,43.05],[-70.75682,43.05163],[-70.75401,43.05123]]]},"properties":{}},{"type":"Feature","geometry":{"type":"Polygon","coordinates":[[[-70.725,43.08172],[-70.7229,43.07989],[-70.725,43.07975],[-70.725,43.08172]]]},"properties":{}},{"type":"Feature","geometry":{"type":"Polygon","coordinates":[[[-70.71569,43.0733],[-70.71346,43.07153],[-70.71102,43.07229],[-70.71239,43.07083],[-70.70933,43.072],[-70.70842,43.07103],[-70.7129,43.0692],[-70.71334,43.06634],[-70.71252,43.06547],[-70.71069,43.06567],[-70.71165,43.06518],[-70.71184,43.0634],[-70.71367,43.06219],[-70.71281,43.0606],[-70.71333,43.059],[-70.71133,43.05829],[-70.71352,43.05482],[-70.71289,43.05618],[-70.71376,43.05657],[-70.71346,43.05768],[-70.7141,43.05818],[-70.71852,43.05929],[-70.72394,43.05724],[-70.725,43.05822],[-70.725,43.06384],[-70.7218,43.06514],[-70.7247,43.06542],[-70.72346,43.06665],[-70.72357,43.06752],[-70.72487,43.06808],[-70.72437,43.06922],[-70.725,43.06937],[-70.725,43.07309],[-70.72207,43.07097],[-70.72058,43.07137],[-70.71949,43.07289],[-70.71793,43.0725],[-70.71569,43.0733]]]},"properties":{}},{"type":"Feature","geometry":{"type":"Polygon","coordinates":[[[-70.725,43.08834],[-70.71971,43.08708],[-70.71959,43.08385],[-70.71894,43.08341],[-70.72,43.08355],[-70.72223,43.08202],[-70.72322,43.08268],[-70.7229,43.08457],[-70.725,43.08483],[-70.725,43.08834]]]},"properties":{}},{"type":"Feature","geometry":{"type":"Polygon","coordinates":[[[-70.702,43.07673],[-70.70205,43.07602],[-70.70259,43.07655],[-70.702,43.07673]]]},"properties":{}},{"type":"Feature","geometry":{"type":"Polygon","coordinates":[[[-70.72344,43.09264],[-70.72355,43.09511],[-70.72283,43.09597],[-70.725,43.09578],[-70.725,43.09049],[-70.72407,43.09158],[-70.72212,43.09189],[-70.72215,43.09268],[-70.72344,43.09264]]]},"properties":{}},{"type":"Feature","geometry":{"type":"Polygon","coordinates":[[[-70.72319,43.07721],[-70.72359,43.07601],[-70.725,43.07647],[-70.725,43.07725],[-70.72319,43.07721]]]},"properties":{}},{"type":"Feature","geometry":{"type":"Polygon","coordinates":[[[-70.65,43.10316],[-70.65,43.125],[-70.725,43.125],[-70.725,43.10766],[-70.72375,43.10777],[-70.725,43.10714],[-70.725,43.10001],[-70.71742,43.09838],[-70.71502,43.09917],[-70.71511,43.09728],[-70.71731,43.09597],[-70.71614,43.09461],[-70.71206,43.09359],[-70.71243,43.09178],[-70.70845,43.09125],[-70.70452,43.09268],[-70.70813,43.09078],[-70.70989,43.09114],[-70.70949,43.09069],[-70.7109,43.08957],[-70.71153,43.09104],[-70.71562,43.08993],[-70.71497,43.08953],[-70.71667,43.08876],[-70.7172,43.08659],[-70.71159,43.08477],[-70.71092,43.08297],[-70.71196,43.0827],[-70.71379,43.08413],[-70.71689,43.08451],[-70.71755,43.08308],[-70.71834,43.08309],[-70.71761,43.08282],[-70.71799,43.08126],[-70.71508,43.08052],[-70.71536,43.07945],[-70.71406,43.07888],[-70.71238,43.07937],[-70.71081,43.08132],[-70.70841,43.08133],[-70.70546,43.08271],[-70.70369,43.08247],[-70.70342,43.08172],[-70.70302,43.08254],[-70.6993,43.08242],[-70.69985,43.08066],[-70.69836,43.08051],[-70.69873,43.08117],[-70.69792,43.08226],[-70.69904,43.08288],[-70.69768,43.0841],[-70.69653,43.08382],[-70.69749,43.08297],[-70.69658,43.08251],[-70.69469,43.08327],[-70.69606,43.0841],[-70.69538,43.08476],[-70.69577,43.0842],[-70.69354,43.08353],[-70.69138,43.0846],[-70.68285,43.08519],[-70.68567,43.08394],[-70.68784,43.08439],[-70.69299,43.08303],[-70.69423,43.08144],[-70.69351,43.08117],[-70.69264,43.08166],[-70.68932,43.08182],[-70.68729,43.08162],[-70.69435,43.07988],[-70.69301,43.0785],[-70.69285,43.07654],[-70.69413,43.07491],[-70.69656,43.07393],[-70.69561,43.07283],[-70.69614,43.07213],[-70.69568,43.07098],[-70.69374,43.06884],[-70.69395,43.06716],[-70.6915,43.06585],[-70.68843,43.06557],[-70.68828,43.06488],[-70.68636,43.06536],[-70.684,43.06772],[-70.68049,43.069],[-70.67906,43.06891],[-70.67892,43.06775],[-70.67644,43.06825],[-70.67218,43.07078],[-70.6726,43.07289],[-70.67166,43.07395],[-70.66908,43.07403],[-70.66601,43.07567],[-70.66532,43.07915],[-70.66559,43.08342],[-70.66294,43.08557],[-70.66145,43.08592],[-70.66027,43.08522],[-70.65957,43.08631],[-70.66132,43.08637],[-70.66231,43.08727],[-70.66244,43.09064],[-70.6571,43.09193],[-70.6559,43.09324],[-70.65659,43.09628],[-70.65492,43.098],[-70.65604,43.09883],[-70.65765,43.09735],[-70.6568,43.09698],[-70.6572,43.09615],[-70.6597,43.09727],[-70.65975,43.09792],[-70.65882,43.09785],[-70.66145,43.09938],[-70.66201,43.09894],[-70.66096,43.09813],[-70.66213,43.0987],[-70.66482,43.09835],[-70.6647,43.09781],[-70.66523,43.0974],[-70.66536,43.09831],[-70.66631,43.09847],[-70.66702,43.09817],[-70.66682,43.09739],[-70.66765,43.09737],[-70.66766,43.09814],[-70.66892,43.09699],[-70.67042,43.09648],[-70.67127,43.09676],[-70.67114,43.09629],[-70.67262,43.09576],[-70.67129,43.09686],[-70.6688,43.09722],[-70.668,43.09805],[-70.66821,43.09923],[-70.66762,43.09837],[-70.66459,43.09872],[-70.66449,43.09976],[-70.66387,43.09858],[-70.66153,43.10025],[-70.66334,43.10122],[-70.66438,43.10095],[-70.66307,43.10238],[-70.66466,43.10138],[-70.66709,43.10169],[-70.66646,43.10274],[-70.66489,43.10162],[-70.66289,43.10265],[-70.66316,43.10361],[-70.66265,43.10306],[-70.6619,43.10371],[-70.66452,43.10479],[-70.66497,43.10588],[-70.667,43.10701],[-70.66811,43.10616],[-70.66809,43.10723],[-70.66918,43.10646],[-70.66974,43.10538],[-70.66928,43.1047],[-70.67328,43.10355],[-70.67053,43.10462],[-70.6696,43.10645],[-70.66762,43.10796],[-70.66914,43.10795],[-70.66844,43.10893],[-70.66935,43.10951],[-70.66972,43.10893],[-70.66975,43.10995],[-70.67035,43.10952],[-70.67149,43.10984],[-70.67001,43.11015],[-70.67025,43.11168],[-70.66931,43.10966],[-70.66664,43.10759],[-70.66475,43.10899],[-70.66486,43.10777],[-70.6654,43.10814],[-70.66615,43.10732],[-70.6638,43.10626],[-70.66395,43.10504],[-70.66325,43.10576],[-70.6636,43.10489],[-70.66008,43.1048],[-70.66027,43.10334],[-70.65765,43.10339],[-70.65661,43.10421],[-70.65504,43.10288],[-70.65463,43.10194],[-70.65676,43.10229],[-70.65791,43.10134],[-70.65688,43.10052],[-70.65487,43.10021],[-70.6541,43.1015],[-70.65134,43.10208],[-70.65,43.10316]]]},"properties":{}},{"type":"Feature","geometry":{"type":"Polygon","coordinates":[[[-70.66068,43.10244],[-70.66046,43.10434],[-70.66048,43.10325],[-70.65853,43.10249],[-70.65973,43.10161],[-70.6589,43.10184],[-70.65841,43.10135],[-70.66214,43.10135],[-70.66196,43.10233],[-70.66114,43.10237],[-70.6612,43.1045],[-70.66053,43.10449],[-70.66068,43.10244]]]},"properties":{}},{"type":"Feature","geometry":{"type":"Polygon","coordinates":[[[-70.72218,43.0907],[-70.7224,43.08944],[-70.72312,43.08933],[-70.72339,43.09036],[-70.72218,43.0907]]]},"properties":{}},{"type":"Feature","geometry":{"type":"Polygon","coordinates":[[[-70.69818,43.06358],[-70.69722,43.06283],[-70.69719,43.06439],[-70.69818,43.06358]]]},"properties":{}},{"type":"Feature","geometry":{"type":"Polygon","coordinates":[[[-70.69855,43.07941],[-70.69905,43.0787],[-70.69773,43.07946],[-70.69855,43.07941]]]},"properties":{}},{"type":"Feature","geometry":{"type":"Polygon","coordinates":[[[-70.71878,43.05327],[-70.71862,43.05161],[-70.71707,43.05034],[-70.71753,43.05],[-70.725,43.05],[-70.725,43.0514],[-70.71878,43.05327]]]},"properties":{}},{"type":"Feature","geometry":{"type":"Polygon","coordinates":[[[-70.63983,43.11923],[-70.63356,43.12115],[-70.63441,43.12154],[-70.63494,43.12367],[-70.63362,43.125],[-70.65,43.125],[-70.65,43.10316],[-70.64879,43.10364],[-70.64731,43.10692],[-70.64347,43.11003],[-70.6423,43.11268],[-70.63801,43.11391],[-70.63729,43.11678],[-70.63992,43.11798],[-70.63983,43.11923]]]},"properties":{}},{"type":"Feature","geometry":{"type":"Polygon","coordinates":[[[-70.8,42.91794],[-70.8,43.11071],[-70.80673,43.11592],[-70.82458,43.12507],[-70.82708,43.12739],[-70.82913,43.13148],[-70.82992,43.13813],[-70.83361,43.14611],[-70.83292,43.15007],[-70.82865,43.15983],[-70.82778,43.17043],[-70.82357,43.17424],[-70.82514,43.18103],[-70.82825,43.18779],[-70.82598,43.19015],[-70.81957,43.1925],[-70.81906,43.19512],[-70.8206,43.2],[-71.1,43.2],[-71.1,42.9],[-70.84256,42.9],[-70.84321,42.90088],[-70.84449,42.90016],[-70.84652,42.90074],[-70.84629,42.90287],[-70.84603,42.90089],[-70.8442,42.90052],[-70.84323,42.90136],[-70.8424,42.90029],[-70.84091,42.9],[-70.84147,42.90108],[-70.84083,42.90169],[-70.8417,42.90219],[-70.84171,42.9027],[-70.83687,42.9011],[-70.83609,42.90352],[-70.83458,42.90425],[-70.83372,42.90312],[-70.83616,42.90269],[-70.8359,42.90145],[-70.83689,42.9],[-70.82998,42.9],[-70.82941,42.90034],[-70.82999,42.90086],[-70.82853,42.90076],[-70.82588,42.90359],[-70.82408,42.90243],[-70.82403,42.90474],[-70.82521,42.90593],[-70.83204,42.91056],[-70.83247,42.91021],[-70.8338,42.91179],[-70.83691,42.9118],[-70.83628,42.91089],[-70.83907,42.9125],[-70.84007,42.91113],[-70.83982,42.90926],[-70.84064,42.90889],[-70.8414,42.90926],[-70.8424,42.90836],[-70.84132,42.90959],[-70.8399,42.90961],[-70.84057,42.91035],[-70.83957,42.91294],[-70.84069,42.91343],[-70.83997,42.91548],[-70.84289,42.91295],[-70.84973,42.91125],[-70.85091,42.91164],[-70.85193,42.9098],[-70.8524,42.90984],[-70.85105,42.91214],[-70.84993,42.9116],[-70.84664,42.91281],[-70.84687,42.91453],[-70.84444,42.91715],[-70.84784,42.91677],[-70.84819,42.91719],[-70.84863,42.91658],[-70.8492,42.91692],[-70.84869,42.91765],[-70.84754,42.91716],[-70.84535,42.91811],[-70.84169,42.91659],[-70.8421,42.91824],[-70.84454,42.91927],[-70.84442,42.91987],[-70.84211,42.92159],[-70.84122,42.92119],[-70.84077,42.91936],[-70.83983,42.92097],[-70.83843,42.92075],[-70.83978,42.92044],[-70.84027,42.91898],[-70.84146,42.91953],[-70.84178,42.92122],[-70.84333,42.92046],[-70.84404,42.91926],[-70.84161,42.91849],[-70.84117,42.91645],[-70.84465,42.91635],[-70.84543,42.91547],[-70.84545,42.91343],[-70.84401,42.91308],[-70.84249,42.91546],[-70.83989,42.91651],[-70.83852,42.91564],[-70.83786,42.91301],[-70.83533,42.91329],[-70.83659,42.91351],[-70.83781,42.91434],[-70.83797,42.91484],[-70.83526,42.91366],[-70.83503,42.91527],[-70.83567,42.91567],[-70.83487,42.91558],[-70.83474,42.91628],[-70.83537,42.92088],[-70.83756,42.92355],[-70.83958,42.92324],[-70.83819,42.9228],[-70.83854,42.9214],[-70.84071,42.92235],[-70.84025,42.92318],[-70.84028,42.92242],[-70.83855,42.92181],[-70.83864,42.92272],[-70.84018,42.92327],[-70.8417,42.92335],[-70.84581,42.92063],[-70.84649,42.92205],[-70.8439,42.92323],[-70.84502,42.92351],[-70.8451,42.92464],[-70.84711,42.92426],[-70.84792,42.92492],[-70.84793,42.9237],[-70.85028,42.92432],[-70.85085,42.92325],[-70.85283,42.9247],[-70.85111,42.92381],[-70.85043,42.92468],[-70.84834,42.92397],[-70.84819,42.92514],[-70.84582,42.92535],[-70.84478,42.9273],[-70.84568,42.9251],[-70.84472,42.92606],[-70.84316,42.9257],[-70.84392,42.92389],[-70.83984,42.92385],[-70.84009,42.92476],[-70.83872,42.92569],[-70.83983,42.92453],[-70.83703,42.92412],[-70.83602,42.92257],[-70.83507,42.92296],[-70.83398,42.91649],[-70.83268,42.9164],[-70.83329,42.91609],[-70.83276,42.91554],[-70.83088,42.91521],[-70.8304,42.91702],[-70.83165,42.91722],[-70.83013,42.91735],[-70.82975,42.91868],[-70.82989,42.91568],[-70.82622,42.91604],[-70.8255,42.9157],[-70.82611,42.9147],[-70.82617,42.91589],[-70.82949,42.91494],[-70.8337,42.91567],[-70.83365,42.91374],[-70.82882,42.91106],[-70.82711,42.91104],[-70.82585,42.91372],[-70.82288,42.91513],[-70.82364,42.9169],[-70.82613,42.91802],[-70.82445,42.91911],[-70.82456,42.92171],[-70.82546,42.92223],[-70.82334,42.92231],[-70.82257,42.92098],[-70.82374,42.92148],[-70.82361,42.9189],[-70.82525,42.91793],[-70.82282,42.91795],[-70.82272,42.91664],[-70.82187,42.91685],[-70.82063,42.91632],[-70.82103,42.91557],[-70.82106,42.91623],[-70.82218,42.91648],[-70.82171,42.91553],[-70.82431,42.91324],[-70.82541,42.91321],[-70.82656,42.91069],[-70.82285,42.91009],[-70.82084,42.90872],[-70.8201,42.90922],[-70.81848,42.90922],[-70.82045,42.90829],[-70.81853,42.90596],[-70.81761,42.90697],[-70.81697,42.90663],[-70.81768,42.90519],[-70.81697,42.9037],[-70.81824,42.90364],[-70.81748,42.90347],[-70.81764,42.90211],[-70.81855,42.9021],[-70.81875,42.90106],[-70.81793,42.9003],[-70.81068,42.9],[-70.81002,42.90733],[-70.80696,42.9148],[-70.80502,42.91719],[-70.8,42.91794]]]},"properties":{}},{"type":"Feature","geometry":{"type":"Polygon","coordinates":[[[-70.84055,42.9],[-70.83751,42.9],[-70.83747,42.90105],[-70.83855,42.90166],[-70.84071,42.90137],[-70.84055,42.9]]]},"properties":{}},{"type":"Feature","geometry":{"type":"Polygon","coordinates":[[[-70.59194,43.19742],[-70.5912,43.19699],[-70.59023,43.19765],[-70.59044,43.19906],[-70.5892,43.19866],[-70.58787,43.2],[-70.8,43.2],[-70.8,43.11071],[-70.78386,43.10096],[-70.77969,43.09625],[-70.76874,43.094],[-70.76589,43.09249],[-70.76356,43.09039],[-70.75795,43.08152],[-70.7557,43.07995],[-70.75261,43.07957],[-70.75205,43.0812],[-70.75026,43.08137],[-70.74927,43.08266],[-70.75136,43.08285],[-70.75111,43.08381],[-70.74733,43.08378],[-70.74179,43.08507],[-70.74047,43.08648],[-70.7381,43.08558],[-70.73486,43.08695],[-70.73557,43.08572],[-70.73212,43.08484],[-70.72646,43.08576],[-70.72641,43.08442],[-70.72326,43.08459],[-70.72327,43.08269],[-70.72245,43.082],[-70.71962,43.0836],[-70.71759,43.08295],[-70.7179,43.0811],[-70.71497,43.08039],[-70.71501,43.07895],[-70.71374,43.07893],[-70.71106,43.07974],[-70.71152,43.08067],[-70.7107,43.08138],[-70.70841,43.0814],[-70.70535,43.08271],[-70.70289,43.08208],[-70.69935,43.08246],[-70.6997,43.08075],[-70.69854,43.08048],[-70.69795,43.08228],[-70.69906,43.08266],[-70.69774,43.08403],[-70.69678,43.08372],[-70.69751,43.08274],[-70.69644,43.0825],[-70.69483,43.08319],[-70.69551,43.08404],[-70.69349,43.08345],[-70.69165,43.08447],[-70.68444,43.08489],[-70.67957,43.08574],[-70.6764,43.08796],[-70.67549,43.08698],[-70.67384,43.0868],[-70.6722,43.08779],[-70.67255,43.08717],[-70.67123,43.08561],[-70.67254,43.08634],[-70.68576,43.0841],[-70.68845,43.08426],[-70.69228,43.0836],[-70.69518,43.08192],[-70.69338,43.08113],[-70.68861,43.08164],[-70.69457,43.07967],[-70.69323,43.07877],[-70.69304,43.07644],[-70.69653,43.07393],[-70.69579,43.07291],[-70.69685,43.07182],[-70.69576,43.07163],[-70.69393,43.069],[-70.69394,43.06706],[-70.69054,43.06499],[-70.68861,43.06487],[-70.68667,43.06521],[-70.6825,43.0683],[-70.67982,43.06898],[-70.67894,43.0677],[-70.67636,43.06816],[-70.67626,43.06882],[-70.67215,43.07072],[-70.67247,43.07292],[-70.6713,43.07395],[-70.6677,43.0741],[-70.66579,43.07577],[-70.66506,43.08011],[-70.66561,43.0833],[-70.66294,43.08557],[-70.66154,43.08593],[-70.66027,43.08522],[-70.65957,43.08622],[-70.66218,43.08709],[-70.6626,43.09022],[-70.66177,43.0912],[-70.6599,43.09092],[-70.6571,43.09193],[-70.65592,43.09321],[-70.65659,43.09628],[-70.65492,43.098],[-70.65578,43.09878],[-70.65816,43.09701],[-70.6597,43.09727],[-70.65879,43.09779],[-70.66148,43.09937],[-70.66495,43.09785],[-70.66762,43.09837],[-70.66387,43.09858],[-70.66153,43.10025],[-70.66331,43.10151],[-70.66189,43.10366],[-70.66481,43.10476],[-70.66516,43.10624],[-70.66645,43.10606],[-70.66614,43.10655],[-70.66725,43.10747],[-70.66372,43.1062],[-70.66395,43.10513],[-70.66163,43.10426],[-70.66108,43.10245],[-70.66198,43.10231],[-70.66214,43.10135],[-70.65841,43.10135],[-70.65774,43.10375],[-70.65666,43.10424],[-70.65497,43.10268],[-70.6579,43.10138],[-70.65472,43.10029],[-70.6541,43.1015],[-70.65222,43.10156],[-70.64886,43.10358],[-70.64736,43.10686],[-70.64347,43.11003],[-70.64329,43.11156],[-70.64195,43.11292],[-70.63801,43.11391],[-70.63729,43.11678],[-70.63992,43.11798],[-70.63983,43.11923],[-70.63377,43.12065],[-70.63504,43.12305],[-70.63358,43.12509],[-70.63399,43.12791],[-70.6425,43.12749],[-70.65213,43.12517],[-70.65096,43.12766],[-70.65022,43.12716],[-70.64804,43.12767],[-70.64768,43.12708],[-70.64538,43.12914],[-70.64671,43.12952],[-70.64741,43.13104],[-70.64479,43.13137],[-70.64437,43.13241],[-70.64805,43.13236],[-70.64751,43.1358],[-70.64322,43.13299],[-70.64087,43.13263],[-70.64379,43.12921],[-70.63758,43.13081],[-70.63883,43.13123],[-70.63894,43.13198],[-70.63716,43.13333],[-70.63213,43.13333],[-70.6304,43.13414],[-70.62343,43.13375],[-70.62253,43.13882],[-70.6216,43.13986],[-70.62422,43.1408],[-70.62344,43.14278],[-70.62604,43.14308],[-70.62688,43.14461],[-70.62558,43.14644],[-70.62589,43.14871],[-70.62089,43.1587],[-70.62096,43.15996],[-70.61721,43.16487],[-70.61286,43.168],[-70.61041,43.16844],[-70.60509,43.16741],[-70.59745,43.16428],[-70.59064,43.16499],[-70.59076,43.16687],[-70.59357,43.16618],[-70.59391,43.17033],[-70.59682,43.17213],[-70.59746,43.17333],[-70.60217,43.1741],[-70.60602,43.17342],[-70.60889,43.17587],[-70.60481,43.18034],[-70.60262,43.18117],[-70.60242,43.18352],[-70.60458,43.18323],[-70.60554,43.18454],[-70.60531,43.18586],[-70.60315,43.18805],[-70.60572,43.1884],[-70.60498,43.18956],[-70.60187,43.19019],[-70.60086,43.18943],[-70.60125,43.18852],[-70.60043,43.18763],[-70.59858,43.18688],[-70.59844,43.18579],[-70.59678,43.18606],[-70.59385,43.18972],[-70.59541,43.19017],[-70.59527,43.19119],[-70.59305,43.19174],[-70.5892,43.19456],[-70.5896,43.19674],[-70.59118,43.19663],[-70.59194,43.19742]]]},"properties":{}},{"type":"Feature","geometry":{"type":"Polygon","coordinates":[[[-70.74761,43.07522],[-70.74609,43.0759],[-70.74126,43.0749],[-70.73989,43.0727],[-70.74055,43.0721],[-70.74327,43.07275],[-70.74363,43.07431],[-70.74698,43.07387],[-70.74939,43.07569],[-70.74761,43.07522]]]},"properties":{}},{"type":"Feature","geometry":{"type":"Polygon","coordinates":[[[-70.71531,43.07347],[-70.71435,43.07202],[-70.7119,43.07119],[-70.70845,43.07188],[-70.70868,43.07101],[-70.71231,43.06966],[-70.71152,43.06856],[-70.71331,43.06784],[-70.71346,43.06677],[-70.71145,43.06527],[-70.71188,43.06334],[-70.71332,43.06224],[-70.71317,43.05928],[-70.71129,43.05823],[-70.71227,43.05624],[-70.71389,43.05648],[-70.71425,43.05792],[-70.71764,43.05912],[-70.72154,43.05861],[-70.72405,43.05708],[-70.72515,43.05808],[-70.72896,43.05859],[-70.7286,43.05977],[-70.73139,43.0602],[-70.7316,43.061],[-70.7303,43.06115],[-70.72937,43.0623],[-70.72818,43.0617],[-70.72888,43.06096],[-70.72801,43.06053],[-70.72533,43.06151],[-70.72582,43.06377],[-70.72844,43.06336],[-70.72731,43.0641],[-70.72739,43.06509],[-70.72526,43.06484],[-70.72518,43.06398],[-70.72363,43.06467],[-70.72473,43.06528],[-70.72384,43.0665],[-70.72449,43.06757],[-70.72588,43.06663],[-70.72747,43.06758],[-70.72636,43.0681],[-70.72493,43.06751],[-70.72463,43.06909],[-70.72819,43.06947],[-70.73003,43.07161],[-70.72922,43.07244],[-70.72477,43.07315],[-70.72184,43.07099],[-70.72024,43.07263],[-70.71531,43.07347]]]},"properties":{}},{"type":"Feature","geometry":{"type":"Polygon","coordinates":[[[-70.73743,43.0711],[-70.73564,43.07095],[-70.73298,43.07186],[-70.73466,43.07243],[-70.73743,43.0711]]]},"properties":{}},{"type":"Feature","geometry":{"type":"Polygon","coordinates":[[[-70.74615,43.06441],[-70.74965,43.06307],[-70.75102,43.06464],[-70.75371,43.06529],[-70.74828,43.06895],[-70.74462,43.06782],[-70.74293,43.06872],[-70.7437,43.07005],[-70.74472,43.07021],[-70.74441,43.07108],[-70.74554,43.07145],[-70.7474,43.07029],[-70.74859,43.07043],[-70.74838,43.0715],[-70.75083,43.07693],[-70.75298,43.07849],[-70.75261,43.07957],[-70.75705,43.08053],[-70.76456,43.09146],[-70.76874,43.094],[-70.77969,43.09625],[-70.78386,43.10096],[-70.8,43.11071],[-70.8,42.91794],[-70.79467,42.91774],[-70.7968,42.92041],[-70.79815,42.92084],[-70.79873,42.92379],[-70.79765,42.93123],[-70.7939,42.94048],[-70.79101,42.9428],[-70.78727,42.9436],[-70.78576,42.9505],[-70.78064,42.95601],[-70.77931,42.95688],[-70.77623,42.95704],[-70.77223,42.96062],[-70.77168,42.96284],[-70.7697,42.96446],[-70.772,42.96637],[-70.77184,42.96848],[-70.7689,42.97134],[-70.76436,42.97355],[-70.76517,42.97581],[-70.76438,42.98076],[-70.76014,42.9885],[-70.75593,42.99182],[-70.75039,42.99161],[-70.7495,42.99569],[-70.74703,42.99786],[-70.74767,42.99911],[-70.75176,43.0004],[-70.75375,42.9987],[-70.75265,42.99818],[-70.75159,42.99693],[-70.75324,42.99818],[-70.75454,42.9976],[-70.75394,42.99927],[-70.75238,43.00032],[-70.7506,43.0036],[-70.74599,43.0014],[-70.74303,43.00104],[-70.74469,43.00211],[-70.7451,43.00413],[-70.74336,43.00869],[-70.74026,43.01131],[-70.73455,43.01304],[-70.73405,43.01505],[-70.73177,43.01666],[-70.73266,43.01768],[-70.73205,43.02165],[-70.72929,43.0269],[-70.72765,43.02794],[-70.725,43.02782],[-70.72033,43.03192],[-70.71897,43.03147],[-70.71718,43.03655],[-70.71481,43.03716],[-70.71553,43.03846],[-70.71378,43.04009],[-70.7151,43.04056],[-70.71516,43.04171],[-70.71146,43.04249],[-70.71379,43.04612],[-70.71575,43.04612],[-70.71775,43.04751],[-70.71791,43.04974],[-70.71723,43.0502],[-70.71855,43.05149],[-70.71891,43.05346],[-70.72238,43.05177],[-70.72903,43.05038],[-70.72946,43.04916],[-70.72785,43.04862],[-70.72785,43.04778],[-70.73032,43.04847],[-70.73132,43.04739],[-70.7331,43.04746],[-70.73153,43.0489],[-70.73168,43.0498],[-70.73368,43.04891],[-70.73798,43.0494],[-70.72978,43.05244],[-70.72929,43.05355],[-70.73107,43.05347],[-70.73158,43.05611],[-70.72937,43.05761],[-70.73029,43.0583],[-70.73223,43.05754],[-70.7307,43.05868],[-70.73125,43.05915],[-70.73364,43.05872],[-70.73427,43.05751],[-70.73308,43.05722],[-70.7331,43.05618],[-70.73592,43.05742],[-70.74019,43.05623],[-70.74268,43.05329],[-70.74874,43.05445],[-70.74941,43.05513],[-70.74889,43.0555],[-70.74294,43.05478],[-70.73893,43.05774],[-70.73799,43.05945],[-70.73677,43.05944],[-70.73816,43.06047],[-70.73755,43.06184],[-70.74016,43.06433],[-70.74254,43.06307],[-70.74353,43.06403],[-70.74552,43.06325],[-70.74615,43.06441]]]},"properties":{}},{"type":"Feature","geometry":{"type":"Polygon","coordinates":[[[-70.60322,43.00363],[-70.60219,43.00309],[-70.60121,43.0042],[-70.60251,43.00431],[-70.60322,43.00363]]]},"properties":{}},{"type":"Feature","geometry":{"type":"Polygon","coordinates":[[[-70.60938,42.98131],[-70.60584,42.98192],[-70.6018,42.98134],[-70.60118,42.98256],[-70.60157,42.98345],[-70.60444,42.98384],[-70.61281,42.98266],[-70.61284,42.98202],[-70.61123,42.98245],[-70.61157,42.98114],[-70.60954,42.981],[-70.6083,42.97915],[-70.60942,42.97859],[-70.60978,42.97716],[-70.60711,42.97735],[-70.60629,42.97899],[-70.60818,42.97942],[-70.60938,42.98131]]]},"properties":{}},{"type":"Feature","geometry":{"type":"Polygon","coordinates":[[[-70.60135,43.00265],[-70.59942,43.00363],[-70.59892,43.00449],[-70.60135,43.00265]]]},"properties":{}},{"type":"Feature","geometry":{"type":"Polygon","coordinates":[[[-70.73491,43.06942],[-70.73559,43.06948],[-70.73608,43.07013],[-70.73544,43.07038],[-70.73491,43.06942]]]},"properties":{}},{"type":"Feature","geometry":{"type":"Polygon","coordinates":[[[-70.61501,42.97858],[-70.61184,42.97825],[-70.61209,42.97764],[-70.61079,42.97685],[-70.60978,42.97716],[-70.61196,42.975],[-70.61437,42.975],[-70.61506,42.97689],[-70.61691,42.97709],[-70.61501,42.97858]]]},"properties":{}}]}