{"type":"FeatureCollection","features":[{"type":"Feature","geometry":{"type":"Point","coordinates":[-70.83114908894784,42.911978127457026]},"properties":{"objtype":"SEAARE","label":"sea area","name":"Hampton Harbor","name_lower":"hampton harbor","chart":"US4NH1BC"}},{"type":"Feature","geometry":{"type":"Point","coordinates":[-70.80458767330454,42.90795329050049]},"properties":{"objtype":"SEAARE","label":"sea area","name":"Bigelow Bight","name_lower":"bigelow bight","chart":"US4NH1BC"}},{"type":"Feature","geometry":{"type":"Point","coordinates":[-70.80458767330454,42.90795329050049]},"properties":{"objtype":"SEAARE","label":"sea area","name":"Gulf of Maine","name_lower":"gulf of maine","chart":"US4NH1BC"}},{"type":"Feature","geometry":{"type":"Point","coordinates":[-70.81248046158171,42.907093938993235]},"properties":{"objtype":"LNDRGN","label":"coastal feature","name":"Hampton Beach","name_lower":"hampton beach","chart":"US4NH1BC"}},{"type":"Feature","geometry":{"type":"Point","coordinates":[-70.80029265110102,42.929749450207325]},"properties":{"objtype":"LNDRGN","label":"coastal feature","name":"North Beach","name_lower":"north beach","chart":"US4NH1BC"}},{"type":"Feature","geometry":{"type":"Point","coordinates":[-71.0133713,43.0941471]},"properties":{"objtype":"LNDRGN","label":"coastal feature","name":"New Hampshire","name_lower":"new hampshire","chart":"US4NH1BC"}},{"type":"Feature","geometry":{"type":"Point","coordinates":[-70.8136197024995,43.157508951899466]},"properties":{"objtype":"LNDARE","label":"island","name":"Maine","name_lower":"maine","chart":"US4NH1BC"}},{"type":"Feature","geometry":{"type":"Point","coordinates":[-70.95223351700041,42.9827042852067]},"properties":{"objtype":"BUAARE","label":"town","name":"Exeter","name_lower":"exeter","chart":"US4NH1BC"}},{"type":"Feature","geometry":{"type":"Point","coordinates":[-70.87576174106337,43.191775885737684]},"properties":{"objtype":"BUAARE","label":"town","name":"Dover","name_lower":"dover","chart":"US4NH1BC"}},{"type":"Feature","geometry":{"type":"Point","coordinates":[-70.9373146,43.0802212]},"properties":{"objtype":"BUAARE","label":"town","name":"Newmarket","name_lower":"newmarket","chart":"US4NH1BC"}},{"type":"Feature","geometry":{"type":"Point","coordinates":[-70.8148021,42.9346307]},"properties":{"objtype":"BUAARE","label":"town","name":"Hampton","name_lower":"hampton","chart":"US4NH1BC"}},{"type":"Feature","geometry":{"type":"Point","coordinates":[-70.61522733750728,43.075525371905265]},"properties":{"objtype":"SEAARE","label":"sea area","name":"Triangles","name_lower":"triangles","chart":"US4NH1BD"}},{"type":"Feature","geometry":{"type":"Point","coordinates":[-70.50576378900519,42.914428467249195]},"properties":{"objtype":"SEAARE","label":"sea area","name":"Scantum Basin","name_lower":"scantum basin","chart":"US4NH1BD"}},{"type":"Feature","geometry":{"type":"Point","coordinates":[-70.6729134502596,43.06154464578691]},"properties":{"objtype":"SEAARE","label":"sea area","name":"West Sister","name_lower":"west sister","chart":"US4NH1BD"}},{"type":"Feature","geometry":{"type":"Point","coordinates":[-70.60346520587765,42.962534195251]},"properties":{"objtype":"SEAARE","label":"sea area","name":"Anderson Ledge","name_lower":"anderson ledge","chart":"US4NH1BD"}},{"type":"Feature","geometry":{"type":"Point","coordinates":[-70.68642381862304,43.08439160948925]},"properties":{"objtype":"SEAARE","label":"sea area","name":"Chauncey Creek","name_lower":"chauncey creek","chart":"US4NH1BD"}},{"type":"Feature","geometry":{"type":"Point","coordinates":[-70.7790059268785,42.95211434739595]},"properties":{"objtype":"SEAARE","label":"sea area","name":"Godfreys Ledge","name_lower":"godfreys ledge","chart":"US4NH1BD"}},{"type":"Feature","geometry":{"type":"Point","coordinates":[-70.74186397646936,43.055826104933445]},"properties":{"objtype":"SEAARE","label":"sea area","name":"Sagamore Creek","name_lower":"sagamore creek","chart":"US4NH1BD"}},{"type":"Feature","geometry":{"type":"Point","coordinates":[-70.60225319000166,43.18611118881812]},"properties":{"objtype":"SEAARE","label":"sea area","name":"Cape Neddick Harbor","name_lower":"cape neddick harbor","chart":"US4NH1BD"}},{"type":"Feature","geometry":{"type":"Point","coordinates":[-70.72735069703286,43.010790870362385]},"properties":{"objtype":"SEAARE","label":"sea area","name":"Foss Ledges","name_lower":"foss ledges","chart":"US4NH1BD"}},{"type":"Feature","geometry":{"type":"Point","coordinates":[-70.60506311185127,43.00419371427369]},"properties":{"objtype":"SEAARE","label":"sea area","name":"South West Ledge","name_lower":"south west ledge","chart":"US4NH1BD"}},{"type":"Feature","geometry":{"type":"Point","coordinates":[-70.63085467709045,43.1304834366608]},"properties":{"objtype":"SEAARE","label":"sea area","name":"York Harbor Entrance","name_lower":"york harbor entrance","chart":"US4NH1BD"}},{"type":"Feature","geometry":{"type":"Point","coordinates":[-70.63701457991303,43.11789647599353]},"properties":{"objtype":"SEAARE","label":"sea area","name":"Godfreys Cove","name_lower":"godfreys cove","chart":"US4NH1BD"}},{"type":"Feature","geometry":{"type":"Point","coordinates":[-70.74871956961177,43.00070083526638]},"properties":{"objtype":"SEAARE","label":"sea area","name":"Rye Harbor","name_lower":"rye harbor","chart":"US4NH1BD"}},{"type":"Feature","geometry":{"type":"Point","coordinates":[-70.66561430394555,43.06993033136754]},"properties":{"objtype":"SEAARE","label":"sea area","name":"East Sister","name_lower":"east sister","chart":"US4NH1BD"}},{"type":"Feature","geometry":{"type":"Point","coordinates":[-70.70274780110715,43.022240657888155]},"properties":{"objtype":"SEAARE","label":"sea area","name":"Gunboat Shoal","name_lower":"gunboat shoal","chart":"US4NH1BD"}},{"type":"Feature","geometry":{"type":"Point","coordinates":[-70.59559166615489,42.99721789269532]},"properties":{"objtype":"SEAARE","label":"sea area","name":"Old Henry","name_lower":"old henry","chart":"US4NH1BD"}},{"type":"Feature","geometry":{"type":"Point","coordinates":[-70.72345667504764,43.05550473890105]},"properties":{"objtype":"SEAARE","label":"sea area","name":"Little Harbor","name_lower":"little harbor","chart":"US4NH1BD"}},{"type":"Feature","geometry":{"type":"Point","coordinates":[-70.61946657736343,42.98198569388592]},"properties":{"objtype":"SEAARE","label":"sea area","name":"Gosport Harbor","name_lower":"gosport harbor","chart":"US4NH1BD"}},{"type":"Feature","geometry":{"type":"Point","coordinates":[-70.76010253530578,42.971495502950695]},"properties":{"objtype":"SEAARE","label":"sea area","name":"Rye Ledge","name_lower":"rye ledge","chart":"US4NH1BD"}},{"type":"Feature","geometry":{"type":"Point","coordinates":[-70.59125636081124,43.09413322600663]},"properties":{"objtype":"SEAARE","label":"sea area","name":"York Ledge","name_lower":"york ledge","chart":"US4NH1BD"}},{"type":"Feature","geometry":{"type":"Point","coordinates":[-70.61267125985127,43.020349990712326]},"properties":{"objtype":"SEAARE","label":"sea area","name":"North Atlantic Ocean","name_lower":"north atlantic ocean","chart":"US4NH1BD"}},{"type":"Feature","geometry":{"type":"Point","coordinates":[-70.6055104,43.1886496]},"properties":{"objtype":"SEAARE","label":"sea area","name":"Cape Neddick River","name_lower":"cape neddick river","chart":"US4NH1BD"}},{"type":"Feature","geometry":{"type":"Point","coordinates":[-70.50314597915727,42.93007418092777]},"properties":{"objtype":"SEAARE","label":"sea area","name":"Jeffreys Basin","name_lower":"jeffreys basin","chart":"US4NH1BD"}},{"type":"Feature","geometry":{"type":"Point","coordinates":[-70.65991497757413,43.10109641418181]},"properties":{"objtype":"SEAARE","label":"sea area","name":"Brave Boat Harbor","name_lower":"brave boat harbor","chart":"US4NH1BD"}},{"type":"Feature","geometry":{"type":"Point","coordinates":[-70.60345416354494,43.1699318786098]},"properties":{"objtype":"LNDRGN","label":"coastal feature","name":"Cape Neddick","name_lower":"cape neddick","chart":"US4NH1BD"}},{"type":"Feature","geometry":{"type":"Point","coordinates":[-70.77712440042502,42.9582031646682]},"properties":{"objtype":"LNDRGN","label":"coastal feature","name":"Little Boars Head","name_lower":"little boars head","chart":"US4NH1BD"}},{"type":"Feature","geometry":{"type":"Point","coordinates":[-70.63545413117647,43.12089926137959]},"properties":{"objtype":"LNDRGN","label":"coastal feature","name":"Seal Head Point","name_lower":"seal head point","chart":"US4NH1BD"}},{"type":"Feature","geometry":{"type":"Point","coordinates":[-70.60782361935283,42.9783680989321]},"properties":{"objtype":"LNDRGN","label":"coastal feature","name":"Cedar Island","name_lower":"cedar island","chart":"US4NH1BD"}},{"type":"Feature","geometry":{"type":"Point","coordinates":[-70.61339716661742,42.9742519676429]},"properties":{"objtype":"LNDRGN","label":"coastal feature","name":"Star Island","name_lower":"star island","chart":"US4NH1BD"}},{"type":"Feature","geometry":{"type":"Point","coordinates":[-70.71275180688485,43.05748455764347]},"properties":{"objtype":"LNDRGN","label":"coastal feature","name":"Jaffrey Point","name_lower":"jaffrey point","chart":"US4NH1BD"}},{"type":"Feature","geometry":{"type":"Point","coordinates":[-70.6624170757987,43.09415568979026]},"properties":{"objtype":"LNDRGN","label":"coastal feature","name":"Cutts Island","name_lower":"cutts island","chart":"US4NH1BD"}},{"type":"Feature","geometry":{"type":"Point","coordinates":[-70.71242040771351,43.04288331309329]},"properties":{"objtype":"LNDRGN","label":"coastal feature","name":"Odiornes Point","name_lower":"odiornes point","chart":"US4NH1BD"}},{"type":"Feature","geometry":{"type":"Point","coordinates":[-70.68122192414911,43.076433347520336]},"properties":{"objtype":"LNDRGN","label":"coastal feature","name":"Gerrish Island","name_lower":"gerrish island","chart":"US4NH1BD"}},{"type":"Feature","geometry":{"type":"Point","coordinates":[-70.79708857617314,42.918854059497555]},"properties":{"objtype":"LNDRGN","label":"coastal feature","name":"Great Boars Head","name_lower":"great boars head","chart":"US4NH1BD"}},{"type":"Feature","geometry":{"type":"Point","coordinates":[-70.62245771864876,43.13982575229608]},"properties":{"objtype":"LNDRGN","label":"coastal feature","name":"Cow Beach Point","name_lower":"cow beach point","chart":"US4NH1BD"}},{"type":"Feature","geometry":{"type":"Point","coordinates":[-70.60343618990579,43.182021535682246]},"properties":{"objtype":"LNDRGN","label":"coastal feature","name":"Barn Point","name_lower":"barn point","chart":"US4NH1BD"}},{"type":"Feature","geometry":{"type":"Point","coordinates":[-70.75080897404023,42.99574885870381]},"properties":{"objtype":"LNDRGN","label":"coastal feature","name":"Lockes Neck","name_lower":"lockes neck","chart":"US4NH1BD"}},{"type":"Feature","geometry":{"type":"Point","coordinates":[-70.73232878535708,43.016565318774774]},"properties":{"objtype":"LNDRGN","label":"coastal feature","name":"Concord Point","name_lower":"concord point","chart":"US4NH1BD"}},{"type":"Feature","geometry":{"type":"Point","coordinates":[-70.62472211474072,43.14201463993744]},"properties":{"objtype":"LNDRGN","label":"coastal feature","name":"Roaring Rock Point","name_lower":"roaring rock point","chart":"US4NH1BD"}},{"type":"Feature","geometry":{"type":"Point","coordinates":[-70.76143866984597,42.98721755488605]},"properties":{"objtype":"LNDRGN","label":"coastal feature","name":"Jenness Beach","name_lower":"jenness beach","chart":"US4NH1BD"}},{"type":"Feature","geometry":{"type":"Point","coordinates":[-70.62479973851885,43.13553454454187]},"properties":{"objtype":"LNDRGN","label":"coastal feature","name":"East Point","name_lower":"east point","chart":"US4NH1BD"}},{"type":"Feature","geometry":{"type":"Point","coordinates":[-70.62497652867192,43.150977566745816]},"properties":{"objtype":"LNDRGN","label":"coastal feature","name":"Prebbles Point","name_lower":"prebbles point","chart":"US4NH1BD"}},{"type":"Feature","geometry":{"type":"Point","coordinates":[-70.60664656790807,42.98243572626727]},"properties":{"objtype":"LNDRGN","label":"coastal feature","name":"Smuttynose Island","name_lower":"smuttynose island","chart":"US4NH1BD"}},{"type":"Feature","geometry":{"type":"Point","coordinates":[-70.63514643734038,43.124971246078346]},"properties":{"objtype":"LNDRGN","label":"coastal feature","name":"Argo Point","name_lower":"argo point","chart":"US4NH1BD"}},{"type":"Feature","geometry":{"type":"Point","coordinates":[-70.7720745271385,42.96472222928038]},"properties":{"objtype":"LNDRGN","label":"coastal feature","name":"Fox Hill Point","name_lower":"fox hill point","chart":"US4NH1BD"}},{"type":"Feature","geometry":{"type":"Point","coordinates":[-70.71420001073153,43.081880647532]},"properties":{"objtype":"LNDRGN","label":"coastal feature","name":"Kittery Point","name_lower":"kittery point","chart":"US4NH1BD"}},{"type":"Feature","geometry":{"type":"Point","coordinates":[-70.72004816830295,43.0708606864002]},"properties":{"objtype":"LNDRGN","label":"coastal feature","name":"New Castle","name_lower":"new castle","chart":"US4NH1BD"}},{"type":"Feature","geometry":{"type":"Point","coordinates":[-70.63552127635614,43.12701578831619]},"properties":{"objtype":"LNDRGN","label":"coastal feature","name":"Western Point","name_lower":"western point","chart":"US4NH1BD"}},{"type":"Feature","geometry":{"type":"Point","coordinates":[-70.71979448149767,43.052565154508116]},"properties":{"objtype":"LNDRGN","label":"coastal feature","name":"Frost Point","name_lower":"frost point","chart":"US4NH1BD"}},{"type":"Feature","geometry":{"type":"Point","coordinates":[-70.59789129815015,43.18878934568223]},"properties":{"objtype":"LNDRGN","label":"coastal feature","name":"Weare Point","name_lower":"weare point","chart":"US4NH1BD"}},{"type":"Feature","geometry":{"type":"Point","coordinates":[-70.7438429219727,43.00136575058083]},"properties":{"objtype":"LNDRGN","label":"coastal feature","name":"Ragged Neck Point","name_lower":"ragged neck point","chart":"US4NH1BD"}},{"type":"Feature","geometry":{"type":"Point","coordinates":[-70.7451861,43.0214611]},"properties":{"objtype":"LNDRGN","label":"coastal feature","name":"Wallis Sands","name_lower":"wallis sands","chart":"US4NH1BD"}},{"type":"Feature","geometry":{"type":"Point","coordinates":[-70.7338489,43.1164374]},"properties":{"objtype":"LNDRGN","label":"coastal feature","name":"Maine Turnpike","name_lower":"maine turnpike","chart":"US4NH1BD"}},{"type":"Feature","geometry":{"type":"Point","coordinates":[-70.62537628851508,42.968478400947724]},"properties":{"objtype":"LNDARE","label":"island","name":"White Island","name_lower":"white island","chart":"US4NH1BD"}},{"type":"Feature","geometry":{"type":"Point","coordinates":[-70.61425160340482,42.988381718594795]},"properties":{"objtype":"LNDARE","label":"island","name":"Appledore Island","name_lower":"appledore island","chart":"US4NH1BD"}},{"type":"Feature","geometry":{"type":"Point","coordinates":[-70.7197777330878,43.06540826236323]},"properties":{"objtype":"LNDARE","label":"island","name":"New Castle Island","name_lower":"new castle island","chart":"US4NH1BD"}},{"type":"Feature","geometry":{"type":"Point","coordinates":[-70.60042038402754,43.001537398364306]},"properties":{"objtype":"LNDARE","label":"island","name":"Mingo Rock","name_lower":"mingo rock","chart":"US4NH1BD"}},{"type":"Feature","geometry":{"type":"Point","coordinates":[-70.69763381931787,43.06357277686727]},"properties":{"objtype":"LNDARE","label":"island","name":"Wood Island","name_lower":"wood island","chart":"US4NH1BD"}},{"type":"Feature","geometry":{"type":"Point","coordinates":[-70.60449004590431,43.00528805963749]},"properties":{"objtype":"LNDARE","label":"island","name":"Duck Island","name_lower":"duck island","chart":"US4NH1BD"}},{"type":"Feature","geometry":{"type":"Point","coordinates":[-70.62610098300787,42.97693255915986]},"properties":{"objtype":"LNDARE","label":"island","name":"Lunging Island","name_lower":"lunging island","chart":"US4NH1BD"}},{"type":"Feature","geometry":{"type":"Point","coordinates":[-70.76506042421904,43.06768132663469]},"properties":{"objtype":"BUAARE","label":"town","name":"Portsmouth","name_lower":"portsmouth","chart":"US4NH1BD"}},{"type":"Feature","geometry":{"type":"Point","coordinates":[-70.6559147,43.1427377]},"properties":{"objtype":"BUAARE","label":"town","name":"York Village","name_lower":"york village","chart":"US4NH1BD"}},{"type":"Feature","geometry":{"type":"Point","coordinates":[-70.6180701,43.1771374]},"properties":{"objtype":"BUAARE","label":"town","name":"York Beach","name_lower":"york beach","chart":"US4NH1BD"}},{"type":"Feature","geometry":{"type":"Point","coordinates":[-70.7699273,43.1092066]},"properties":{"objtype":"BUAARE","label":"town","name":"South Eliot","name_lower":"south eliot","chart":"US4NH1BD"}},{"type":"Feature","geometry":{"type":"Point","coordinates":[-70.792458,43.0028238]},"properties":{"objtype":"BUAARE","label":"town","name":"West Rye","name_lower":"west rye","chart":"US4NH1BD"}},{"type":"Feature","geometry":{"type":"Point","coordinates":[-70.7368653,43.0941813]},"properties":{"objtype":"BUAARE","label":"town","name":"Admiralty Village","name_lower":"admiralty village","chart":"US4NH1BD"}},{"type":"Feature","geometry":{"type":"Point","coordinates":[-70.7521545,43.0866716]},"properties":{"objtype":"BUAARE","label":"town","name":"Kittery","name_lower":"kittery","chart":"US4NH1BD"}},{"type":"Feature","geometry":{"type":"Point","coordinates":[-70.774294,42.97467]},"properties":{"objtype":"BUAARE","label":"town","name":"Rye Beach","name_lower":"rye beach","chart":"US4NH1BD"}},{"type":"Feature","geometry":{"type":"Point","coordinates":[-70.7491518,43.0899051]},"properties":{"objtype":"BUAARE","label":"town","name":"Kittery Depot","name_lower":"kittery depot","chart":"US4NH1BD"}},{"type":"Feature","geometry":{"type":"Point","coordinates":[-70.729567,43.032936]},"properties":{"objtype":"BUAARE","label":"town","name":"Fairhill Manor","name_lower":"fairhill manor","chart":"US4NH1BD"}},{"type":"Feature","geometry":{"type":"Point","coordinates":[-70.47843249350547,43.10237182702595]},"properties":{"objtype":"SEAARE","label":"sea area","name":"Sanders Ledge","name_lower":"sanders ledge","chart":"US4NH1BE"}},{"type":"Feature","geometry":{"type":"Point","coordinates":[-70.413005337827,43.12717205572949]},"properties":{"objtype":"SEAARE","label":"sea area","name":"Boon Island Ledge","name_lower":"boon island ledge","chart":"US4NH1BE"}},{"type":"Feature","geometry":{"type":"Point","coordinates":[-70.43186667245342,42.9181620394768]},"properties":{"objtype":"SEAARE","label":"sea area","name":"Old Scantum","name_lower":"old scantum","chart":"US4NH1BE"}},{"type":"Feature","geometry":{"type":"Point","coordinates":[-70.4776595884052,43.12154455055463]},"properties":{"objtype":"SEAARE","label":"sea area","name":"Spout Shoal","name_lower":"spout shoal","chart":"US4NH1BE"}},{"type":"Feature","geometry":{"type":"Point","coordinates":[-70.46392737044636,43.11333050398581]},"properties":{"objtype":"SEAARE","label":"sea area","name":"Southeast Shoal","name_lower":"southeast shoal","chart":"US4NH1BE"}},{"type":"Feature","geometry":{"type":"Point","coordinates":[-70.4763224777449,43.12142622200785]},"properties":{"objtype":"LNDARE","label":"island","name":"Boon Island","name_lower":"boon island","chart":"US4NH1BE"}},{"type":"Feature","geometry":{"type":"Point","coordinates":[-70.0588997241916,43.0412084671911]},"properties":{"objtype":"SEAARE","label":"sea area","name":"Jeffreys Ledge","name_lower":"jeffreys ledge","chart":"US4NH1BF"}},{"type":"Feature","geometry":{"type":"Point","coordinates":[-69.94027951645255,43.16591115073056]},"properties":{"objtype":"SEAARE","label":"sea area","name":"Portland Approach Traffic Lane Scheme","name_lower":"portland approach traffic lane scheme","chart":"US4NH1BF"}},{"type":"Feature","geometry":{"type":"Point","coordinates":[-69.64861566203771,43.15163725506046]},"properties":{"objtype":"SEAARE","label":"sea area","name":"Platts Bank","name_lower":"platts bank","chart":"US4NH1BG"}},{"type":"Feature","geometry":{"type":"Point","coordinates":[-70.82994278020907,42.916041069738576]},"properties":{"objtype":"SEAARE","label":"sea area","name":"Blind Creek","name_lower":"blind creek","chart":"US5NH1AD"}},{"type":"Feature","geometry":{"type":"Point","coordinates":[-70.8347566685663,42.91861481079472]},"properties":{"objtype":"SEAARE","label":"sea area","name":"Nudds Canal","name_lower":"nudds canal","chart":"US5NH1AD"}},{"type":"Feature","geometry":{"type":"Point","coordinates":[-70.82538057665343,42.90790130672114]},"properties":{"objtype":"SEAARE","label":"sea area","name":"Hampton River","name_lower":"hampton river","chart":"US5NH1AD"}},{"type":"Feature","geometry":{"type":"Point","coordinates":[-70.82762575761075,42.90191973493302]},"properties":{"objtype":"SEAARE","label":"sea area","name":"Eastman Slough","name_lower":"eastman slough","chart":"US5NH1AD"}},{"type":"Feature","geometry":{"type":"Point","coordinates":[-70.84458368531831,42.90098031552191]},"properties":{"objtype":"SEAARE","label":"sea area","name":"Browns River","name_lower":"browns river","chart":"US5NH1AD"}},{"type":"Feature","geometry":{"type":"Point","coordinates":[-70.84898666131683,42.91141975284074]},"properties":{"objtype":"SEAARE","label":"sea area","name":"Hampton Falls River","name_lower":"hampton falls river","chart":"US5NH1AD"}},{"type":"Feature","geometry":{"type":"Point","coordinates":[-70.82385884858884,42.91630142028898]},"properties":{"objtype":"SEAARE","label":"sea area","name":"Tide Mill Creek","name_lower":"tide mill creek","chart":"US5NH1AD"}},{"type":"Feature","geometry":{"type":"Point","coordinates":[-70.8489318661418,42.92435011312675]},"properties":{"objtype":"SEAARE","label":"sea area","name":"Taylor River","name_lower":"taylor river","chart":"US5NH1AD"}},{"type":"Feature","geometry":{"type":"Point","coordinates":[-70.8217988,42.9109863]},"properties":{"objtype":"BUAARE","label":"town","name":"The Willows","name_lower":"the willows","chart":"US5NH1AD"}},{"type":"Feature","geometry":{"type":"Point","coordinates":[-70.59853041630753,42.97452351430017]},"properties":{"objtype":"SEAARE","label":"sea area","name":"Cedar Island Ledge","name_lower":"cedar island ledge","chart":"US5NH1AG"}},{"type":"Feature","geometry":{"type":"Point","coordinates":[-70.62712888723769,42.96520357406117]},"properties":{"objtype":"SEAARE","label":"sea area","name":"White Island Ledge","name_lower":"white island ledge","chart":"US5NH1AG"}},{"type":"Feature","geometry":{"type":"Point","coordinates":[-70.9506601027686,42.986489559764365]},"properties":{"objtype":"SEAARE","label":"sea area","name":"Squamscott River","name_lower":"squamscott river","chart":"US5NH1BB"}},{"type":"Feature","geometry":{"type":"Point","coordinates":[-70.93619266513562,42.993755569126435]},"properties":{"objtype":"SEAARE","label":"sea area","name":"Wheelwright Creek","name_lower":"wheelwright creek","chart":"US5NH1BC"}},{"type":"Feature","geometry":{"type":"Point","coordinates":[-70.93793017843926,43.00331178345733]},"properties":{"objtype":"SEAARE","label":"sea area","name":"Oxbow Cut","name_lower":"oxbow cut","chart":"US5NH1BC"}},{"type":"Feature","geometry":{"type":"Point","coordinates":[-70.94810698642037,42.98651223235398]},"properties":{"objtype":"LNDRGN","label":"coastal feature","name":"Powderhouse Point","name_lower":"powderhouse point","chart":"US5NH1BC"}},{"type":"Feature","geometry":{"type":"Point","coordinates":[-70.9422900997649,42.99315796304642]},"properties":{"objtype":"LNDRGN","label":"coastal feature","name":"Powells Point","name_lower":"powells point","chart":"US5NH1BC"}},{"type":"Feature","geometry":{"type":"Point","coordinates":[-70.9415127,43.0454079]},"properties":{"objtype":"LNDRGN","label":"coastal feature","name":"Sharp Hill","name_lower":"sharp hill","chart":"US5NH1BC"}},{"type":"Feature","geometry":{"type":"Point","coordinates":[-70.91613809511084,43.02286482056332]},"properties":{"objtype":"BUAARE","label":"town","name":"Stratham","name_lower":"stratham","chart":"US5NH1BC"}},{"type":"Feature","geometry":{"type":"Point","coordinates":[-70.93844320127691,43.03594662159598]},"properties":{"objtype":"BUAARE","label":"town","name":"Newfields","name_lower":"newfields","chart":"US5NH1BC"}},{"type":"Feature","geometry":{"type":"Point","coordinates":[-70.9302584,43.0488805]},"properties":{"objtype":"BUAARE","label":"town","name":"Rockingham","name_lower":"rockingham","chart":"US5NH1BC"}},{"type":"Feature","geometry":{"type":"Point","coordinates":[-70.93412238553331,43.07695229547516]},"properties":{"objtype":"SEAARE","label":"sea area","name":"Upper Narrows","name_lower":"upper narrows","chart":"US5NH1CC"}},{"type":"Feature","geometry":{"type":"Point","coordinates":[-70.92791598090929,43.07504344794657]},"properties":{"objtype":"SEAARE","label":"sea area","name":"Lower Narrows","name_lower":"lower narrows","chart":"US5NH1CC"}},{"type":"Feature","geometry":{"type":"Point","coordinates":[-70.8778461598747,43.123639493574274]},"properties":{"objtype":"SEAARE","label":"sea area","name":"Oyster River","name_lower":"oyster river","chart":"US5NH1CC"}},{"type":"Feature","geometry":{"type":"Point","coordinates":[-70.92247578034888,43.07027244105604]},"properties":{"objtype":"SEAARE","label":"sea area","name":"Lamprey River","name_lower":"lamprey river","chart":"US5NH1CC"}},{"type":"Feature","geometry":{"type":"Point","coordinates":[-70.8912409332739,43.06936899523095]},"properties":{"objtype":"SEAARE","label":"sea area","name":"Great Bay","name_lower":"great bay","chart":"US5NH1CC"}},{"type":"Feature","geometry":{"type":"Point","coordinates":[-70.8780071844895,43.0950521368259]},"properties":{"objtype":"SEAARE","label":"sea area","name":"Crommet Creek","name_lower":"crommet creek","chart":"US5NH1CC"}},{"type":"Feature","geometry":{"type":"Point","coordinates":[-70.90820700519528,43.07392634880231]},"properties":{"objtype":"SEAARE","label":"sea area","name":"Lubberland Creek","name_lower":"lubberland creek","chart":"US5NH1CC"}},{"type":"Feature","geometry":{"type":"Point","coordinates":[-70.90746855295315,43.06811875890107]},"properties":{"objtype":"LNDRGN","label":"coastal feature","name":"Moodys Point","name_lower":"moodys point","chart":"US5NH1CC"}},{"type":"Feature","geometry":{"type":"Point","coordinates":[-70.9346120686049,43.100310892023394]},"properties":{"objtype":"LNDRGN","label":"coastal feature","name":"Moat Island","name_lower":"moat island","chart":"US5NH1CC"}},{"type":"Feature","geometry":{"type":"Point","coordinates":[-70.91479465019988,43.06230267598407]},"properties":{"objtype":"LNDRGN","label":"coastal feature","name":"Shackford Point","name_lower":"shackford point","chart":"US5NH1CC"}},{"type":"Feature","geometry":{"type":"Point","coordinates":[-70.8978722,43.0536389]},"properties":{"objtype":"BUAARE","label":"town","name":"Stratham Station","name_lower":"stratham station","chart":"US5NH1CC"}},{"type":"Feature","geometry":{"type":"Point","coordinates":[-70.80486986411256,43.122050800587196]},"properties":{"objtype":"SEAARE","label":"sea area","name":"Adlington Creek","name_lower":"adlington creek","chart":"US5NH1CD"}},{"type":"Feature","geometry":{"type":"Point","coordinates":[-70.80132475209966,43.117198247113166]},"properties":{"objtype":"SEAARE","label":"sea area","name":"Mast Cove","name_lower":"mast cove","chart":"US5NH1CD"}},{"type":"Feature","geometry":{"type":"Point","coordinates":[-70.80002469804937,43.10734427672416]},"properties":{"objtype":"SEAARE","label":"sea area","name":"Piscataqua River","name_lower":"piscataqua river","chart":"US5NH1CD"}},{"type":"Feature","geometry":{"type":"Point","coordinates":[-70.8427660374382,43.115120803615675]},"properties":{"objtype":"SEAARE","label":"sea area","name":"Broad Cove","name_lower":"broad cove","chart":"US5NH1CD"}},{"type":"Feature","geometry":{"type":"Point","coordinates":[-70.85411043684087,43.09481678406902]},"properties":{"objtype":"SEAARE","label":"sea area","name":"Welsh Cove","name_lower":"welsh cove","chart":"US5NH1CD"}},{"type":"Feature","geometry":{"type":"Point","coordinates":[-70.84857487040584,43.07257049008152]},"properties":{"objtype":"SEAARE","label":"sea area","name":"Herods Cove","name_lower":"herods cove","chart":"US5NH1CD"}},{"type":"Feature","geometry":{"type":"Point","coordinates":[-70.83461808406942,43.05156942969782]},"properties":{"objtype":"SEAARE","label":"sea area","name":"Pickering Brook","name_lower":"pickering brook","chart":"US5NH1CD"}},{"type":"Feature","geometry":{"type":"Point","coordinates":[-70.86147951235856,43.096056039618816]},"properties":{"objtype":"SEAARE","label":"sea area","name":"Furber Strait","name_lower":"furber strait","chart":"US5NH1CD"}},{"type":"Feature","geometry":{"type":"Point","coordinates":[-70.85434451883556,43.11150633782845]},"properties":{"objtype":"SEAARE","label":"sea area","name":"Little Bay","name_lower":"little bay","chart":"US5NH1CD"}},{"type":"Feature","geometry":{"type":"Point","coordinates":[-70.83648362879775,43.124444920153074]},"properties":{"objtype":"LNDRGN","label":"coastal feature","name":"Dover Neck","name_lower":"dover neck","chart":"US5NH1CD"}},{"type":"Feature","geometry":{"type":"Point","coordinates":[-70.83121021469687,43.12226112067976]},"properties":{"objtype":"LNDRGN","label":"coastal feature","name":"Dover Point","name_lower":"dover point","chart":"US5NH1CD"}},{"type":"Feature","geometry":{"type":"Point","coordinates":[-70.85711220675631,43.12053407612683]},"properties":{"objtype":"LNDRGN","label":"coastal feature","name":"Fox Point","name_lower":"fox point","chart":"US5NH1CD"}},{"type":"Feature","geometry":{"type":"Point","coordinates":[-70.8036099444462,43.05208374957984]},"properties":{"objtype":"LNDRGN","label":"coastal feature","name":"Great Bog","name_lower":"great bog","chart":"US5NH1CD"}},{"type":"Feature","geometry":{"type":"Point","coordinates":[-70.85827977901457,43.07273963817659]},"properties":{"objtype":"LNDRGN","label":"coastal feature","name":"Woodman Point","name_lower":"woodman point","chart":"US5NH1CD"}},{"type":"Feature","geometry":{"type":"Point","coordinates":[-70.86583522989402,43.09058076639074]},"properties":{"objtype":"LNDRGN","label":"coastal feature","name":"Adams Point","name_lower":"adams point","chart":"US5NH1CD"}},{"type":"Feature","geometry":{"type":"Point","coordinates":[-70.84469906403707,43.05214722178459]},"properties":{"objtype":"LNDRGN","label":"coastal feature","name":"Pierce Point","name_lower":"pierce point","chart":"US5NH1CD"}},{"type":"Feature","geometry":{"type":"Point","coordinates":[-70.84449161327798,43.069231882711584]},"properties":{"objtype":"LNDRGN","label":"coastal feature","name":"Fabyan Point","name_lower":"fabyan point","chart":"US5NH1CD"}},{"type":"Feature","geometry":{"type":"Point","coordinates":[-70.87183147846986,43.12145752831705]},"properties":{"objtype":"LNDRGN","label":"coastal feature","name":"Durham Point","name_lower":"durham point","chart":"US5NH1CD"}},{"type":"Feature","geometry":{"type":"Point","coordinates":[-70.86288018725506,43.0822387616659]},"properties":{"objtype":"LNDRGN","label":"coastal feature","name":"Thomas Point","name_lower":"thomas point","chart":"US5NH1CD"}},{"type":"Feature","geometry":{"type":"Point","coordinates":[-70.8348314,43.0760182]},"properties":{"objtype":"LNDRGN","label":"coastal feature","name":"Brown Hill","name_lower":"brown hill","chart":"US5NH1CD"}},{"type":"Feature","geometry":{"type":"Point","coordinates":[-70.8394889,43.1076889]},"properties":{"objtype":"LNDRGN","label":"coastal feature","name":"Knight Hill","name_lower":"knight hill","chart":"US5NH1CD"}},{"type":"Feature","geometry":{"type":"Point","coordinates":[-70.856356,43.079655]},"properties":{"objtype":"LNDRGN","label":"coastal feature","name":"Hoyt Hill","name_lower":"hoyt hill","chart":"US5NH1CD"}},{"type":"Feature","geometry":{"type":"Point","coordinates":[-70.80649620133475,43.11595228134044]},"properties":{"objtype":"FAIRWY","label":"channel","name":"Piscataqua River Channel","name_lower":"piscataqua river channel","chart":"US5NH1CD"}},{"type":"Feature","geometry":{"type":"Point","coordinates":[-70.85532854399911,43.124868902462644]},"properties":{"objtype":"LNDARE","label":"island","name":"Goat Island","name_lower":"goat island","chart":"US5NH1CD"}},{"type":"Feature","geometry":{"type":"Point","coordinates":[-70.80172334901063,43.11432139684015]},"properties":{"objtype":"LNDARE","label":"island","name":"Frankfort Island","name_lower":"frankfort island","chart":"US5NH1CD"}},{"type":"Feature","geometry":{"type":"Point","coordinates":[-70.80333522303998,43.063731620168575]},"properties":{"objtype":"BUAARE","label":"town","name":"Pannaway Manor","name_lower":"pannaway manor","chart":"US5NH1CD"}},{"type":"Feature","geometry":{"type":"Point","coordinates":[-70.834775,43.096492]},"properties":{"objtype":"BUAARE","label":"town","name":"Newington","name_lower":"newington","chart":"US5NH1CD"}},{"type":"Feature","geometry":{"type":"Point","coordinates":[-70.822667,43.112107]},"properties":{"objtype":"BUAARE","label":"town","name":"Newington Station","name_lower":"newington station","chart":"US5NH1CD"}},{"type":"Feature","geometry":{"type":"Point","coordinates":[-70.8683695,43.053425]},"properties":{"objtype":"BUAARE","label":"town","name":"Bayside","name_lower":"bayside","chart":"US5NH1CD"}},{"type":"Feature","geometry":{"type":"Point","coordinates":[-70.89801486292856,43.134902869913795]},"properties":{"objtype":"SEAARE","label":"sea area","name":"Johnson Creek","name_lower":"johnson creek","chart":"US5NH1DC"}},{"type":"Feature","geometry":{"type":"Point","coordinates":[-70.9420199,43.1509862]},"properties":{"objtype":"LNDRGN","label":"coastal feature","name":"Reservoir Hill","name_lower":"reservoir hill","chart":"US5NH1DC"}},{"type":"Feature","geometry":{"type":"Point","coordinates":[-70.92703521591245,43.137610032423964]},"properties":{"objtype":"BUAARE","label":"town","name":"Durham","name_lower":"durham","chart":"US5NH1DC"}},{"type":"Feature","geometry":{"type":"Point","coordinates":[-70.921238,43.170057]},"properties":{"objtype":"BUAARE","label":"town","name":"Madbury","name_lower":"madbury","chart":"US5NH1DC"}},{"type":"Feature","geometry":{"type":"Point","coordinates":[-70.887302,43.181999]},"properties":{"objtype":"BUAARE","label":"town","name":"Sawyers","name_lower":"sawyers","chart":"US5NH1DC"}},{"type":"Feature","geometry":{"type":"Point","coordinates":[-70.84430011988358,43.18832877753318]},"properties":{"objtype":"SEAARE","label":"sea area","name":"Cocheco River","name_lower":"cocheco river","chart":"US5NH1DD"}},{"type":"Feature","geometry":{"type":"Point","coordinates":[-70.82347425036924,43.15389153309212]},"properties":{"objtype":"SEAARE","label":"sea area","name":"Sturgeon Creek","name_lower":"sturgeon creek","chart":"US5NH1DD"}},{"type":"Feature","geometry":{"type":"Point","coordinates":[-70.82372619228858,43.189182057334705]},"properties":{"objtype":"SEAARE","label":"sea area","name":"Salmon Falls River","name_lower":"salmon falls river","chart":"US5NH1DD"}},{"type":"Feature","geometry":{"type":"Point","coordinates":[-70.855663175206,43.1328253507494]},"properties":{"objtype":"SEAARE","label":"sea area","name":"Royalls Cove","name_lower":"royalls cove","chart":"US5NH1DD"}},{"type":"Feature","geometry":{"type":"Point","coordinates":[-70.8506232573436,43.14293433605419]},"properties":{"objtype":"SEAARE","label":"sea area","name":"Bellamy River","name_lower":"bellamy river","chart":"US5NH1DD"}},{"type":"Feature","geometry":{"type":"Point","coordinates":[-70.8546821157669,43.12993260860337]},"properties":{"objtype":"LNDRGN","label":"coastal feature","name":"Cedar Point","name_lower":"cedar point","chart":"US5NH1DD"}},{"type":"Feature","geometry":{"type":"Point","coordinates":[-70.84813725756521,43.136845959327566]},"properties":{"objtype":"LNDRGN","label":"coastal feature","name":"Clements Point","name_lower":"clements point","chart":"US5NH1DD"}},{"type":"Feature","geometry":{"type":"Point","coordinates":[-70.805871,43.130485]},"properties":{"objtype":"LNDRGN","label":"coastal feature","name":"Sunset Hill","name_lower":"sunset hill","chart":"US5NH1DD"}},{"type":"Feature","geometry":{"type":"Point","coordinates":[-70.856488,43.167382]},"properties":{"objtype":"BUAARE","label":"town","name":"Cushings","name_lower":"cushings","chart":"US5NH1DD"}},{"type":"Feature","geometry":{"type":"Point","coordinates":[-70.808796,43.144218]},"properties":{"objtype":"BUAARE","label":"town","name":"Marshwood","name_lower":"marshwood","chart":"US5NH1DD"}},{"type":"Feature","geometry":{"type":"Point","coordinates":[-70.813414,43.173881]},"properties":{"objtype":"BUAARE","label":"town","name":"Gould Corner","name_lower":"gould corner","chart":"US5NH1DD"}},{"type":"Feature","geometry":{"type":"Point","coordinates":[-70.73485784848775,43.04951299436447]},"properties":{"objtype":"SEAARE","label":"sea area","name":"Witch Creek","name_lower":"witch creek","chart":"US5PSMBC"}},{"type":"Feature","geometry":{"type":"Point","coordinates":[-70.74467231280043,43.00625470122093]},"properties":{"objtype":"LNDRGN","label":"coastal feature","name":"Foss Beach","name_lower":"foss beach","chart":"US5PSMBC"}},{"type":"Feature","geometry":{"type":"Point","coordinates":[-70.7463107,43.0083658]},"properties":{"objtype":"LNDRGN","label":"coastal feature","name":"Awcomin Marsh","name_lower":"awcomin marsh","chart":"US5PSMBC"}},{"type":"Feature","geometry":{"type":"Point","coordinates":[-70.7473575134044,43.00048126353315]},"properties":{"objtype":"FAIRWY","label":"channel","name":"Rye Harbor Channel","name_lower":"rye harbor channel","chart":"US5PSMBC"}},{"type":"Feature","geometry":{"type":"Point","coordinates":[-70.74743209065342,43.00102704360614]},"properties":{"objtype":"FAIRWY","label":"channel","name":"Rye Harbor 6-foot anchorage","name_lower":"rye harbor 6-foot anchorage","chart":"US5PSMBC"}},{"type":"Feature","geometry":{"type":"Point","coordinates":[-70.74794399295243,43.00023704525789]},"properties":{"objtype":"FAIRWY","label":"channel","name":"Rye Harbor 8-foot anchorage","name_lower":"rye harbor 8-foot anchorage","chart":"US5PSMBC"}},{"type":"Feature","geometry":{"type":"Point","coordinates":[-70.75072517872252,43.00113522329044]},"properties":{"objtype":"FAIRWY","label":"channel","name":"Rye Harbor 8-foot state anchorage","name_lower":"rye harbor 8-foot state anchorage","chart":"US5PSMBC"}},{"type":"Feature","geometry":{"type":"Point","coordinates":[-70.738509,43.013104]},"properties":{"objtype":"BUAARE","label":"town","name":"Rye North Beach","name_lower":"rye north beach","chart":"US5PSMBC"}},{"type":"Feature","geometry":{"type":"Point","coordinates":[-70.749206,43.046684]},"properties":{"objtype":"BUAARE","label":"town","name":"Foyes Corner","name_lower":"foyes corner","chart":"US5PSMBC"}},{"type":"Feature","geometry":{"type":"Point","coordinates":[-70.71627948723923,43.03480427352385]},"properties":{"objtype":"SEAARE","label":"sea area","name":"High Rock","name_lower":"high rock","chart":"US5PSMBD"}},{"type":"Feature","geometry":{"type":"Point","coordinates":[-70.72207681817595,43.02731527094359]},"properties":{"objtype":"SEAARE","label":"sea area","name":"Seal Rocks","name_lower":"seal rocks","chart":"US5PSMBD"}},{"type":"Feature","geometry":{"type":"Point","coordinates":[-70.6118999637163,42.98190826501161]},"properties":{"objtype":"SEAARE","label":"sea area","name":"Haley Cove","name_lower":"haley cove","chart":"US5PSMBE"}},{"type":"Feature","geometry":{"type":"Point","coordinates":[-70.59941870674966,43.006694642245776]},"properties":{"objtype":"SEAARE","label":"sea area","name":"Jimmies Ledge","name_lower":"jimmies ledge","chart":"US5PSMBE"}},{"type":"Feature","geometry":{"type":"Point","coordinates":[-70.61390822245689,43.00334272091885]},"properties":{"objtype":"SEAARE","label":"sea area","name":"Southwest Ledge","name_lower":"southwest ledge","chart":"US5PSMBE"}},{"type":"Feature","geometry":{"type":"Point","coordinates":[-70.6123586771237,42.98236175379386]},"properties":{"objtype":"LNDRGN","label":"coastal feature","name":"Malaga Island","name_lower":"malaga island","chart":"US5PSMBE"}},{"type":"Feature","geometry":{"type":"Point","coordinates":[-70.63090846802457,42.97546776894504]},"properties":{"objtype":"LNDARE","label":"island","name":"Square Rock","name_lower":"square rock","chart":"US5PSMBE"}},{"type":"Feature","geometry":{"type":"Point","coordinates":[-70.60280708255378,43.00358161078317]},"properties":{"objtype":"LNDARE","label":"island","name":"Shag Rock","name_lower":"shag rock","chart":"US5PSMBE"}},{"type":"Feature","geometry":{"type":"Point","coordinates":[-70.6136389,42.9775738]},"properties":{"objtype":"BUAARE","label":"town","name":"Gosport","name_lower":"gosport","chart":"US5PSMBE"}},{"type":"Feature","geometry":{"type":"Point","coordinates":[-70.72918480843005,43.07272320290681]},"properties":{"objtype":"SEAARE","label":"sea area","name":"Portsmouth Harbor, N.H., North of New - Castle Island","name_lower":"portsmouth harbor, n.h., north of new - castle island","chart":"US5PSMCC"}},{"type":"Feature","geometry":{"type":"Point","coordinates":[-70.73545431582777,43.08404555062474]},"properties":{"objtype":"SEAARE","label":"sea area","name":"Back Channel","name_lower":"back channel","chart":"US5PSMCC"}},{"type":"Feature","geometry":{"type":"Point","coordinates":[-70.73847244340445,43.070290106808464]},"properties":{"objtype":"SEAARE","label":"sea area","name":"Portsmouth Harbor","name_lower":"portsmouth harbor","chart":"US5PSMCC"}},{"type":"Feature","geometry":{"type":"Point","coordinates":[-70.73135419967083,43.09753576617185]},"properties":{"objtype":"SEAARE","label":"sea area","name":"Shepherds Hill Cove","name_lower":"shepherds hill cove","chart":"US5PSMCC"}},{"type":"Feature","geometry":{"type":"Point","coordinates":[-70.72709402465865,43.096932800582934]},"properties":{"objtype":"SEAARE","label":"sea area","name":"Spruce Creek","name_lower":"spruce creek","chart":"US5PSMCC"}},{"type":"Feature","geometry":{"type":"Point","coordinates":[-70.74514883174828,43.07729738574078]},"properties":{"objtype":"SEAARE","label":"sea area","name":"South Beacon Shoal","name_lower":"south beacon shoal","chart":"US5PSMCC"}},{"type":"Feature","geometry":{"type":"Point","coordinates":[-70.73442434643171,43.06101610745783]},"properties":{"objtype":"LNDRGN","label":"coastal feature","name":"Clampit Island","name_lower":"clampit island","chart":"US5PSMCC"}},{"type":"Feature","geometry":{"type":"Point","coordinates":[-70.72987862242421,43.053211369054615]},"properties":{"objtype":"LNDRGN","label":"coastal feature","name":"Sheafes Point","name_lower":"sheafes point","chart":"US5PSMCC"}},{"type":"Feature","geometry":{"type":"Point","coordinates":[-70.74376338476435,43.0685200359806]},"properties":{"objtype":"LNDRGN","label":"coastal feature","name":"Frame Point","name_lower":"frame point","chart":"US5PSMCC"}},{"type":"Feature","geometry":{"type":"Point","coordinates":[-70.73269143438075,43.058179599720866]},"properties":{"objtype":"LNDRGN","label":"coastal feature","name":"Blunts Island","name_lower":"blunts island","chart":"US5PSMCC"}},{"type":"Feature","geometry":{"type":"Point","coordinates":[-70.76202821284713,43.082876744725894]},"properties":{"objtype":"LNDRGN","label":"coastal feature","name":"Nobles Island","name_lower":"nobles island","chart":"US5PSMCC"}},{"type":"Feature","geometry":{"type":"Point","coordinates":[-70.76554598413887,43.0876145842391]},"properties":{"objtype":"LNDRGN","label":"coastal feature","name":"Freemans Point","name_lower":"freemans point","chart":"US5PSMCC"}},{"type":"Feature","geometry":{"type":"Point","coordinates":[-70.7251213007382,43.076942755682275]},"properties":{"objtype":"LNDRGN","label":"coastal feature","name":"Clarks Island","name_lower":"clarks island","chart":"US5PSMCC"}},{"type":"Feature","geometry":{"type":"Point","coordinates":[-70.73626371814956,43.07491253085412]},"properties":{"objtype":"LNDRGN","label":"coastal feature","name":"Henderson Point","name_lower":"henderson point","chart":"US5PSMCC"}},{"type":"Feature","geometry":{"type":"Point","coordinates":[-70.72901593635304,43.07593610419788]},"properties":{"objtype":"LNDRGN","label":"coastal feature","name":"Sullivan Point","name_lower":"sullivan point","chart":"US5PSMCC"}},{"type":"Feature","geometry":{"type":"Point","coordinates":[-70.72592304962369,43.08064041524072]},"properties":{"objtype":"LNDRGN","label":"coastal feature","name":"Jamaica Island","name_lower":"jamaica island","chart":"US5PSMCC"}},{"type":"Feature","geometry":{"type":"Point","coordinates":[-70.7587999,43.0564151]},"properties":{"objtype":"LNDRGN","label":"coastal feature","name":"Sagamore Hill","name_lower":"sagamore hill","chart":"US5PSMCC"}},{"type":"Feature","geometry":{"type":"Point","coordinates":[-70.776168,43.119114]},"properties":{"objtype":"LNDRGN","label":"coastal feature","name":"Bolt Hill","name_lower":"bolt hill","chart":"US5PSMCC"}},{"type":"Feature","geometry":{"type":"Point","coordinates":[-70.7994639,43.1212556]},"properties":{"objtype":"LNDRGN","label":"coastal feature","name":"Adlington Hill","name_lower":"adlington hill","chart":"US5PSMCC"}},{"type":"Feature","geometry":{"type":"Point","coordinates":[-70.72918480843005,43.07272320290681]},"properties":{"objtype":"ACHARE","label":"anchorage","name":"Portsmouth Harbor, N.H., North of New - Castle Island Anchorage Area","name_lower":"portsmouth harbor, n.h., north of new - castle island anchorage area","chart":"US5PSMCC"}},{"type":"Feature","geometry":{"type":"Point","coordinates":[-70.73706144617566,43.06297256221672]},"properties":{"objtype":"FAIRWY","label":"channel","name":"Northward Channel","name_lower":"northward channel","chart":"US5PSMCC"}},{"type":"Feature","geometry":{"type":"Point","coordinates":[-70.74174088828308,43.05586093222089]},"properties":{"objtype":"FAIRWY","label":"channel","name":"Sagamore Creek Channel","name_lower":"sagamore creek channel","chart":"US5PSMCC"}},{"type":"Feature","geometry":{"type":"Point","coordinates":[-70.73446731644628,43.059444832796856]},"properties":{"objtype":"FAIRWY","label":"channel","name":"Portsmouth Harbor, Confluence Area","name_lower":"portsmouth harbor, confluence area","chart":"US5PSMCC"}},{"type":"Feature","geometry":{"type":"Point","coordinates":[-70.73056251208425,43.058862316931254]},"properties":{"objtype":"FAIRWY","label":"channel","name":"Portsmouth Harbor Back Channel","name_lower":"portsmouth harbor back channel","chart":"US5PSMCC"}},{"type":"Feature","geometry":{"type":"Point","coordinates":[-70.73705796045552,43.05962920706282]},"properties":{"objtype":"LNDARE","label":"island","name":"Goose Island","name_lower":"goose island","chart":"US5PSMCC"}},{"type":"Feature","geometry":{"type":"Point","coordinates":[-70.7463648207165,43.065954740556556]},"properties":{"objtype":"LNDARE","label":"island","name":"Lady Isle","name_lower":"lady isle","chart":"US5PSMCC"}},{"type":"Feature","geometry":{"type":"Point","coordinates":[-70.73327155332223,43.06352197192382]},"properties":{"objtype":"LNDARE","label":"island","name":"Leachs Island","name_lower":"leachs island","chart":"US5PSMCC"}},{"type":"Feature","geometry":{"type":"Point","coordinates":[-70.74045229215722,43.0703990991724]},"properties":{"objtype":"LNDARE","label":"island","name":"Shapleigh Island","name_lower":"shapleigh island","chart":"US5PSMCC"}},{"type":"Feature","geometry":{"type":"Point","coordinates":[-70.73044619373583,43.06710769985534]},"properties":{"objtype":"LNDARE","label":"island","name":"Pest Island","name_lower":"pest island","chart":"US5PSMCC"}},{"type":"Feature","geometry":{"type":"Point","coordinates":[-70.75257332893572,43.08215826764352]},"properties":{"objtype":"LNDARE","label":"island","name":"Badgers Island","name_lower":"badgers island","chart":"US5PSMCC"}},{"type":"Feature","geometry":{"type":"Point","coordinates":[-70.73492013435992,43.08006646896389]},"properties":{"objtype":"LNDARE","label":"island","name":"Seavey Island","name_lower":"seavey island","chart":"US5PSMCC"}},{"type":"Feature","geometry":{"type":"Point","coordinates":[-70.74422913858011,43.074346690988854]},"properties":{"objtype":"LNDARE","label":"island","name":"Peirce Island","name_lower":"peirce island","chart":"US5PSMCC"}},{"type":"Feature","geometry":{"type":"Point","coordinates":[-70.74721899117195,43.07264261887005]},"properties":{"objtype":"LNDARE","label":"island","name":"Little Island","name_lower":"little island","chart":"US5PSMCC"}},{"type":"Feature","geometry":{"type":"Point","coordinates":[-70.74728097362636,43.08293843003811]},"properties":{"objtype":"LNDARE","label":"island","name":"Wattlebury Island","name_lower":"wattlebury island","chart":"US5PSMCC"}},{"type":"Feature","geometry":{"type":"Point","coordinates":[-70.7718528925438,43.091860239741514]},"properties":{"objtype":"BUAARE","label":"town","name":"Atlantic Heights","name_lower":"atlantic heights","chart":"US5PSMCC"}},{"type":"Feature","geometry":{"type":"Point","coordinates":[-70.78132355430519,43.056323415269645]},"properties":{"objtype":"BUAARE","label":"town","name":"Portsmouth Plains","name_lower":"portsmouth plains","chart":"US5PSMCC"}},{"type":"Feature","geometry":{"type":"Point","coordinates":[-70.7910115,43.0973169]},"properties":{"objtype":"BUAARE","label":"town","name":"Piscataqua","name_lower":"piscataqua","chart":"US5PSMCC"}},{"type":"Feature","geometry":{"type":"Point","coordinates":[-70.790598,43.117834]},"properties":{"objtype":"BUAARE","label":"town","name":"Tobey Corner","name_lower":"tobey corner","chart":"US5PSMCC"}},{"type":"Feature","geometry":{"type":"Point","coordinates":[-70.7136654421537,43.084514763318175]},"properties":{"objtype":"SEAARE","label":"sea area","name":"Barters Creek","name_lower":"barters creek","chart":"US5PSMCD"}},{"type":"Feature","geometry":{"type":"Point","coordinates":[-70.70710499415422,43.091640044271756]},"properties":{"objtype":"SEAARE","label":"sea area","name":"Crocketts Brook","name_lower":"crocketts brook","chart":"US5PSMCD"}},{"type":"Feature","geometry":{"type":"Point","coordinates":[-70.6812763370171,43.067728047538154]},"properties":{"objtype":"SEAARE","label":"sea area","name":"Sewards Cove","name_lower":"sewards cove","chart":"US5PSMCD"}},{"type":"Feature","geometry":{"type":"Point","coordinates":[-70.70412740487149,43.08004045517853]},"properties":{"objtype":"SEAARE","label":"sea area","name":"Pepperrell Cove Anchorage Area","name_lower":"pepperrell cove anchorage area","chart":"US5PSMCD"}},{"type":"Feature","geometry":{"type":"Point","coordinates":[-70.70364300617346,43.080446396265316]},"properties":{"objtype":"SEAARE","label":"sea area","name":"Pepperrell Cove","name_lower":"pepperrell cove","chart":"US5PSMCD"}},{"type":"Feature","geometry":{"type":"Point","coordinates":[-70.65930178174686,43.0922536282951]},"properties":{"objtype":"LNDRGN","label":"coastal feature","name":"Seapoint","name_lower":"seapoint","chart":"US5PSMCD"}},{"type":"Feature","geometry":{"type":"Point","coordinates":[-70.71584489784156,43.07308375664078]},"properties":{"objtype":"LNDRGN","label":"coastal feature","name":"Salamander Point","name_lower":"salamander point","chart":"US5PSMCD"}},{"type":"Feature","geometry":{"type":"Point","coordinates":[-70.71044315364614,43.07097685762676]},"properties":{"objtype":"LNDRGN","label":"coastal feature","name":"Fort Point","name_lower":"fort point","chart":"US5PSMCD"}},{"type":"Feature","geometry":{"type":"Point","coordinates":[-70.6847491913969,43.08615116946239]},"properties":{"objtype":"LNDRGN","label":"coastal feature","name":"Crocketts Neck","name_lower":"crocketts neck","chart":"US5PSMCD"}},{"type":"Feature","geometry":{"type":"Point","coordinates":[-70.66620712183219,43.07655500125123]},"properties":{"objtype":"LNDRGN","label":"coastal feature","name":"Sisters Point","name_lower":"sisters point","chart":"US5PSMCD"}},{"type":"Feature","geometry":{"type":"Point","coordinates":[-70.69886514987374,43.081455846914594]},"properties":{"objtype":"LNDRGN","label":"coastal feature","name":"Phillips Island","name_lower":"phillips island","chart":"US5PSMCD"}},{"type":"Feature","geometry":{"type":"Point","coordinates":[-70.65345269449077,43.102825930237145]},"properties":{"objtype":"LNDRGN","label":"coastal feature","name":"Raynes Neck","name_lower":"raynes neck","chart":"US5PSMCD"}},{"type":"Feature","geometry":{"type":"Point","coordinates":[-70.7228455,43.0655558]},"properties":{"objtype":"LNDRGN","label":"coastal feature","name":"Boatswain Hill","name_lower":"boatswain hill","chart":"US5PSMCD"}},{"type":"Feature","geometry":{"type":"Point","coordinates":[-70.70214377357311,43.076429901916306]},"properties":{"objtype":"LNDARE","label":"island","name":"Fishing Island","name_lower":"fishing island","chart":"US5PSMCD"}},{"type":"Feature","geometry":{"type":"Point","coordinates":[-70.68329509512591,43.06342551720711]},"properties":{"objtype":"LNDARE","label":"island","name":"Horn Island","name_lower":"horn island","chart":"US5PSMCD"}},{"type":"Feature","geometry":{"type":"Point","coordinates":[-70.69831699247604,43.07906302731285]},"properties":{"objtype":"LNDARE","label":"island","name":"Gooseberry Island","name_lower":"gooseberry island","chart":"US5PSMCD"}},{"type":"Feature","geometry":{"type":"Point","coordinates":[-70.6232684,42.967233]},"properties":{"objtype":"LIGHTS","label":"light","name":"Isles of Shoals Light","name_lower":"isles of shoals light"}}]}