{"type":"FeatureCollection","features":[{"type":"Feature","geometry":{"type":"Point","coordinates":[-70.711267,43.053517]},"properties":{"objtype":"BOYLAT","label":"buoy","name":"Little Harbor Entrance Buoy 2","colour":"red","characteristic":null,"height_m":null,"range_nm":null,"chart":"US4NH1BD"}},{"type":"Feature","geometry":{"type":"Point","coordinates":[-70.707235,43.067175]},"properties":{"objtype":"BOYLAT","label":"buoy","name":"Stielman Rocks Buoy 3","colour":"green","characteristic":null,"height_m":null,"range_nm":null,"chart":"US4NH1BD"}},{"type":"Feature","geometry":{"type":"Point","coordinates":[-70.712746,43.051931]},"properties":{"objtype":"BOYLAT","label":"buoy","name":"Little Harbor Entrance Buoy 1","colour":"green","characteristic":null,"height_m":null,"range_nm":null,"chart":"US4NH1BD"}},{"type":"Feature","geometry":{"type":"Point","coordinates":[-70.698639,43.023838]},"properties":{"objtype":"BOYLAT","label":"buoy","name":"Gunboat Shoal Lighted Bell Buoy 1","colour":"green","characteristic":null,"height_m":null,"range_nm":null,"chart":"US4NH1BD"}},{"type":"Feature","geometry":{"type":"Point","coordinates":[-70.72029,43.012196]},"properties":{"objtype":"BOYLAT","label":"buoy","name":"Foss Ledges Buoy 1A","colour":"green","characteristic":null,"height_m":null,"range_nm":null,"chart":"US4NH1BD"}},{"type":"Feature","geometry":{"type":"Point","coordinates":[-70.618474,43.131529]},"properties":{"objtype":"BOYLAT","label":"buoy","name":"York Harbor Entrance Buoy 2","colour":"red","characteristic":null,"height_m":null,"range_nm":null,"chart":"US4NH1BD"}},{"type":"Feature","geometry":{"type":"Point","coordinates":[-70.5875136,43.093115]},"properties":{"objtype":"BOYLAT","label":"buoy","name":"York Ledge Buoy YL","colour":"red/green/red","characteristic":null,"height_m":null,"range_nm":null,"chart":"US4NH1BD"}},{"type":"Feature","geometry":{"type":"Point","coordinates":[-70.669416,43.059982]},"properties":{"objtype":"BOYLAT","label":"buoy","name":"West Sister Buoy 2","colour":"red","characteristic":null,"height_m":null,"range_nm":null,"chart":"US4NH1BD"}},{"type":"Feature","geometry":{"type":"Point","coordinates":[-70.783723,42.901568]},"properties":{"objtype":"BOYLAT","label":"buoy","name":"Outer Sunk Rocks Buoy 2","colour":"red","characteristic":null,"height_m":null,"range_nm":null,"chart":"US4NH1BD"}},{"type":"Feature","geometry":{"type":"Point","coordinates":[-70.701178,43.061056]},"properties":{"objtype":"BOYLAT","label":"buoy","name":"Wood Island Lighted Buoy 2","colour":"red","characteristic":null,"height_m":null,"range_nm":null,"chart":"US4NH1BD"}},{"type":"Feature","geometry":{"type":"Point","coordinates":[-70.632663,43.106917]},"properties":{"objtype":"BOYLAT","label":"buoy","name":"Stones Rock Buoy 2SR","colour":"red","characteristic":null,"height_m":null,"range_nm":null,"chart":"US4NH1BD"}},{"type":"Feature","geometry":{"type":"Point","coordinates":[-70.632207,43.130296]},"properties":{"objtype":"BOYLAT","label":"buoy","name":"York Harbor Buoy 4","colour":"red","characteristic":null,"height_m":null,"range_nm":null,"chart":"US4NH1BD"}},{"type":"Feature","geometry":{"type":"Point","coordinates":[-70.596264,43.182081]},"properties":{"objtype":"BOYLAT","label":"buoy","name":"Weare Point Bell Buoy 2","colour":"red","characteristic":null,"height_m":null,"range_nm":null,"chart":"US4NH1BD"}},{"type":"Feature","geometry":{"type":"Point","coordinates":[-70.69104,43.049346]},"properties":{"objtype":"BOYLAT","label":"buoy","name":"Kitts Rocks Lighted Whistle Buoy 2KR","colour":"red","characteristic":null,"height_m":null,"range_nm":null,"chart":"US4NH1BD"}},{"type":"Feature","geometry":{"type":"Point","coordinates":[-70.620263,42.993155]},"properties":{"objtype":"BOYLAT","label":"buoy","name":"Appledore Ledge Buoy 2","colour":"red","characteristic":null,"height_m":null,"range_nm":null,"chart":"US4NH1BD"}},{"type":"Feature","geometry":{"type":"Point","coordinates":[-70.621685,42.978224]},"properties":{"objtype":"BOYLAT","label":"buoy","name":"Halfway Rock Buoy 4","colour":"red","characteristic":null,"height_m":null,"range_nm":null,"chart":"US4NH1BD"}},{"type":"Feature","geometry":{"type":"Point","coordinates":[-70.6024775,42.96003]},"properties":{"objtype":"BOYLAT","label":"buoy","name":"Anderson Ledge Buoy 2","colour":"red","characteristic":null,"height_m":null,"range_nm":null,"chart":"US4NH1BD"}},{"type":"Feature","geometry":{"type":"Point","coordinates":[-70.7550578,42.95196]},"properties":{"objtype":"BOYLAT","label":"buoy","name":"Little Boars Head Buoy 1C","colour":"green","characteristic":null,"height_m":null,"range_nm":null,"chart":"US4NH1BD"}},{"type":"Feature","geometry":{"type":"Point","coordinates":[-70.599512,43.183219]},"properties":{"objtype":"BOYLAT","label":"buoy","name":"Barn Point Buoy 1","colour":"green","characteristic":null,"height_m":null,"range_nm":null,"chart":"US4NH1BD"}},{"type":"Feature","geometry":{"type":"Point","coordinates":[-70.7437958,42.9990228]},"properties":{"objtype":"BOYLAT","label":"buoy","name":"Rye Harbor Buoy 3","colour":"green","characteristic":null,"height_m":null,"range_nm":null,"chart":"US4NH1BD"}},{"type":"Feature","geometry":{"type":"Point","coordinates":[-70.610484,43.068956]},"properties":{"objtype":"BOYLAT","label":"buoy","name":"Murray Rock Buoy 2MR","colour":"red","characteristic":null,"height_m":null,"range_nm":null,"chart":"US4NH1BD"}},{"type":"Feature","geometry":{"type":"Point","coordinates":[-70.632217,43.128765]},"properties":{"objtype":"BOYLAT","label":"buoy","name":"York Harbor Buoy 3","colour":"green","characteristic":null,"height_m":null,"range_nm":null,"chart":"US4NH1BD"}},{"type":"Feature","geometry":{"type":"Point","coordinates":[-70.6209955,42.9811596]},"properties":{"objtype":"BOYSAW","label":"buoy","name":"Isles of Shoals Bell Buoy IS","colour":"red/white","characteristic":null,"height_m":null,"range_nm":null,"chart":"US4NH1BD"}},{"type":"Feature","geometry":{"type":"Point","coordinates":[-70.617047,43.12932]},"properties":{"objtype":"BOYSAW","label":"buoy","name":"York Harbor Lighted Bell Buoy YH","colour":"red/white","characteristic":null,"height_m":null,"range_nm":null,"chart":"US4NH1BD"}},{"type":"Feature","geometry":{"type":"Point","coordinates":[-70.7292117,42.993756]},"properties":{"objtype":"BOYSAW","label":"buoy","name":"Rye Harbor Entrance Lighted Whistle Buoy RH","colour":"red/white","characteristic":null,"height_m":null,"range_nm":null,"chart":"US4NH1BD"}},{"type":"Feature","geometry":{"type":"Point","coordinates":[-70.7135297,43.0548614]},"properties":{"objtype":"LIGHTS","label":"light","name":null,"colour":"red","characteristic":"Fl(1) R 4s","height_m":6.7,"range_nm":4.0,"chart":"US4NH1BD"}},{"type":"Feature","geometry":{"type":"Point","coordinates":[-70.72409,43.076065]},"properties":{"objtype":"LIGHTS","label":"light","name":null,"colour":"red","characteristic":"Fl(1) R 2s","height_m":6.0,"range_nm":4.0,"chart":"US4NH1BD"}},{"type":"Feature","geometry":{"type":"Point","coordinates":[-70.7443637,42.9997228]},"properties":{"objtype":"LIGHTS","label":"light","name":null,"colour":"red","characteristic":"Fl(1) R 6s","height_m":7.3,"range_nm":5.0,"chart":"US4NH1BD"}},{"type":"Feature","geometry":{"type":"Point","coordinates":[-70.591072,43.165225]},"properties":{"objtype":"LIGHTS","label":"light","name":null,"colour":"white","characteristic":"Iso(1) W 6s","height_m":26.8,"range_nm":13.0,"chart":"US4NH1BD"}},{"type":"Feature","geometry":{"type":"Point","coordinates":[-70.5425146,43.0208]},"properties":{"objtype":"LIGHTS","label":"light","name":null,"colour":"yellow","characteristic":"Fl(1) Y 4s","height_m":null,"range_nm":null,"chart":"US4NH1BD"}},{"type":"Feature","geometry":{"type":"Point","coordinates":[-70.707455,43.0826017]},"properties":{"objtype":"LIGHTS","label":"light","name":null,"colour":"red","characteristic":"Iso(1) R 6s","height_m":17.9,"range_nm":null,"chart":"US4NH1BD"}},{"type":"Feature","geometry":{"type":"Point","coordinates":[-70.6232684,42.967233]},"properties":{"objtype":"LIGHTS","label":"light","name":"Isles of Shoals Light","colour":"white","characteristic":"Fl(1) W 15s","height_m":24.9,"range_nm":14.0,"chart":"US4NH1BD","name_lower":"isles of shoals light"}},{"type":"Feature","geometry":{"type":"Point","coordinates":[-70.708615,43.071059]},"properties":{"objtype":"LIGHTS","label":"light","name":null,"colour":"green","characteristic":"F G","height_m":15.8,"range_nm":12.0,"chart":"US4NH1BD"}},{"type":"Feature","geometry":{"type":"Point","coordinates":[-70.70767,43.0838572]},"properties":{"objtype":"LIGHTS","label":"light","name":null,"colour":"red","characteristic":"F R","height_m":24.0,"range_nm":null,"chart":"US4NH1BD"}},{"type":"Feature","geometry":{"type":"Point","coordinates":[-70.6963059,43.0587595]},"properties":{"objtype":"LIGHTS","label":"light","name":null,"colour":"white","characteristic":"Fl(2) W 10s","height_m":17.9,"range_nm":11.0,"chart":"US4NH1BD"}},{"type":"Feature","geometry":{"type":"Point","coordinates":[-70.4091253,43.1243378]},"properties":{"objtype":"BOYLAT","label":"buoy","name":"Boon Island Ledge Lighted Whistle Buoy 22A","colour":"red","characteristic":null,"height_m":null,"range_nm":null,"chart":"US4NH1BE"}},{"type":"Feature","geometry":{"type":"Point","coordinates":[-70.4764219,43.1214494]},"properties":{"objtype":"LIGHTS","label":"light","name":null,"colour":"white","characteristic":"Fl(1) W 5s","height_m":41.7,"range_nm":14.0,"chart":"US4NH1BE"}},{"type":"Feature","geometry":{"type":"Point","coordinates":[-70.4268333,43.1796667]},"properties":{"objtype":"LIGHTS","label":"light","name":null,"colour":"yellow","characteristic":"Fl(1) Y 4s","height_m":null,"range_nm":null,"chart":"US4NH1BE"}},{"type":"Feature","geometry":{"type":"Point","coordinates":[-70.6950917,42.9293083]},"properties":{"objtype":"LIGHTS","label":"light","name":null,"colour":"yellow","characteristic":"Fl(1) Y 2s","height_m":null,"range_nm":null,"chart":"US5NH1AF"}},{"type":"Feature","geometry":{"type":"Point","coordinates":[-70.7147197,42.9505497]},"properties":{"objtype":"LIGHTS","label":"light","name":null,"colour":"yellow","characteristic":"Fl(1) Y 4s","height_m":null,"range_nm":null,"chart":"US5NH1AF"}},{"type":"Feature","geometry":{"type":"Point","coordinates":[-70.864029,43.120894]},"properties":{"objtype":"BOYLAT","label":"buoy","name":"Fox Point Rock Buoy 3","colour":"green","characteristic":null,"height_m":null,"range_nm":null,"chart":"US5NH1CD"}},{"type":"Feature","geometry":{"type":"Point","coordinates":[-70.823875,43.123172]},"properties":{"objtype":"BOYLAT","label":"buoy","name":"Piscataqua River Buoy 16","colour":"red","characteristic":null,"height_m":null,"range_nm":null,"chart":"US5NH1CD"}},{"type":"Feature","geometry":{"type":"Point","coordinates":[-70.81285,43.119661]},"properties":{"objtype":"BOYLAT","label":"buoy","name":"Piscataqua River Buoy 13","colour":"green","characteristic":null,"height_m":null,"range_nm":null,"chart":"US5NH1CD"}},{"type":"Feature","geometry":{"type":"Point","coordinates":[-70.810591,43.119857]},"properties":{"objtype":"BOYLAT","label":"buoy","name":"Piscataqua River Buoy 12","colour":"red","characteristic":null,"height_m":null,"range_nm":null,"chart":"US5NH1CD"}},{"type":"Feature","geometry":{"type":"Point","coordinates":[-70.8585,43.1101694]},"properties":{"objtype":"BOYLAT","label":"buoy","name":"Little Bay Buoy 4A","colour":"red","characteristic":null,"height_m":null,"range_nm":null,"chart":"US5NH1CD"}},{"type":"Feature","geometry":{"type":"Point","coordinates":[-70.825303,43.122029]},"properties":{"objtype":"BOYLAT","label":"buoy","name":"Piscataqua River Buoy 15","colour":"green","characteristic":null,"height_m":null,"range_nm":null,"chart":"US5NH1CD"}},{"type":"Feature","geometry":{"type":"Point","coordinates":[-70.803272,43.113882]},"properties":{"objtype":"BOYLAT","label":"buoy","name":"Piscataqua River Lighted Buoy 10","colour":"red","characteristic":null,"height_m":null,"range_nm":null,"chart":"US5NH1CD"}},{"type":"Feature","geometry":{"type":"Point","coordinates":[-70.860542,43.116141]},"properties":{"objtype":"BOYLAT","label":"buoy","name":"The Rocks Buoy 4","colour":"red","characteristic":null,"height_m":null,"range_nm":null,"chart":"US5NH1CD"}},{"type":"Feature","geometry":{"type":"Point","coordinates":[-70.867391,43.084542]},"properties":{"objtype":"BOYLAT","label":"buoy","name":"Great Bay Entrance Buoy 6","colour":"red","characteristic":null,"height_m":null,"range_nm":null,"chart":"US5NH1CD"}},{"type":"Feature","geometry":{"type":"Point","coordinates":[-70.871387,43.073901]},"properties":{"objtype":"BOYLAT","label":"buoy","name":"Great Bay Buoy 7","colour":"green","characteristic":null,"height_m":null,"range_nm":null,"chart":"US5NH1CD"}},{"type":"Feature","geometry":{"type":"Point","coordinates":[-70.8074108,43.1149872]},"properties":{"objtype":"BOYLAT","label":"buoy","name":"Piscataqua River Lighted Buoy 11","colour":"green","characteristic":null,"height_m":null,"range_nm":null,"chart":"US5NH1CD"}},{"type":"Feature","geometry":{"type":"Point","coordinates":[-70.855229,43.122453]},"properties":{"objtype":"BOYLAT","label":"buoy","name":"Hen Island Ledge Buoy 1","colour":"green","characteristic":null,"height_m":null,"range_nm":null,"chart":"US5NH1CD"}},{"type":"Feature","geometry":{"type":"Point","coordinates":[-70.8042856,43.1130956]},"properties":{"objtype":"BOYLAT","label":"buoy","name":"Piscataqua River Lighted Buoy 9","colour":"green","characteristic":null,"height_m":null,"range_nm":null,"chart":"US5NH1CD"}},{"type":"Feature","geometry":{"type":"Point","coordinates":[-70.862576,43.122481]},"properties":{"objtype":"BOYLAT","label":"buoy","name":"Eight-Foot Rock Buoy 2","colour":"red","characteristic":null,"height_m":null,"range_nm":null,"chart":"US5NH1CD"}},{"type":"Feature","geometry":{"type":"Point","coordinates":[-70.86035,43.1113]},"properties":{"objtype":"LIGHTS","label":"light","name":null,"colour":"white","characteristic":"Fl(1) W 4s","height_m":null,"range_nm":null,"chart":"US5NH1CD"}},{"type":"Feature","geometry":{"type":"Point","coordinates":[-70.8591833,43.1096]},"properties":{"objtype":"LIGHTS","label":"light","name":null,"colour":"white","characteristic":"Fl(1) W 4s","height_m":null,"range_nm":null,"chart":"US5NH1CD"}},{"type":"Feature","geometry":{"type":"Point","coordinates":[-70.861,43.1114667]},"properties":{"objtype":"LIGHTS","label":"light","name":null,"colour":"white","characteristic":"Fl(1) W 4s","height_m":null,"range_nm":null,"chart":"US5NH1CD"}},{"type":"Feature","geometry":{"type":"Point","coordinates":[-70.8564667,43.1063333]},"properties":{"objtype":"LIGHTS","label":"light","name":null,"colour":"white","characteristic":"Fl(1) W 4s","height_m":null,"range_nm":null,"chart":"US5NH1CD"}},{"type":"Feature","geometry":{"type":"Point","coordinates":[-70.810097,43.115861]},"properties":{"objtype":"LIGHTS","label":"light","name":null,"colour":"green","characteristic":"F G","height_m":1.8,"range_nm":null,"chart":"US5NH1CD"}},{"type":"Feature","geometry":{"type":"Point","coordinates":[-70.86275,43.1133333]},"properties":{"objtype":"LIGHTS","label":"light","name":null,"colour":"white","characteristic":"Fl(1) W 4s","height_m":null,"range_nm":null,"chart":"US5NH1CD"}},{"type":"Feature","geometry":{"type":"Point","coordinates":[-70.8621167,43.1132167]},"properties":{"objtype":"LIGHTS","label":"light","name":null,"colour":"white","characteristic":"Fl(1) W 4s","height_m":null,"range_nm":null,"chart":"US5NH1CD"}},{"type":"Feature","geometry":{"type":"Point","coordinates":[-70.85875,43.1095333]},"properties":{"objtype":"LIGHTS","label":"light","name":null,"colour":"white","characteristic":"Fl(1) W 4s","height_m":null,"range_nm":null,"chart":"US5NH1CD"}},{"type":"Feature","geometry":{"type":"Point","coordinates":[-70.8571167,43.1073]},"properties":{"objtype":"LIGHTS","label":"light","name":null,"colour":"white","characteristic":"Fl(1) W 4s","height_m":null,"range_nm":null,"chart":"US5NH1CD"}},{"type":"Feature","geometry":{"type":"Point","coordinates":[-70.8565833,43.1071167]},"properties":{"objtype":"LIGHTS","label":"light","name":null,"colour":"white","characteristic":"Fl(1) W 2s","height_m":null,"range_nm":null,"chart":"US5NH1CD"}},{"type":"Feature","geometry":{"type":"Point","coordinates":[-70.8558,43.1062]},"properties":{"objtype":"LIGHTS","label":"light","name":null,"colour":"white","characteristic":"Fl(1) W 2s","height_m":null,"range_nm":null,"chart":"US5NH1CD"}},{"type":"Feature","geometry":{"type":"Point","coordinates":[-70.812126,43.11741]},"properties":{"objtype":"LIGHTS","label":"light","name":null,"colour":"green","characteristic":"F G","height_m":2.4,"range_nm":null,"chart":"US5NH1CD"}},{"type":"Feature","geometry":{"type":"Point","coordinates":[-70.8104167,43.1164833]},"properties":{"objtype":"LIGHTS","label":"light","name":null,"colour":"green","characteristic":"F G","height_m":3.4,"range_nm":null,"chart":"US5NH1CD"}},{"type":"Feature","geometry":{"type":"Point","coordinates":[-70.827285,43.126388]},"properties":{"objtype":"BOYLAT","label":"buoy","name":"Piscataqua River Buoy 17","colour":"green","characteristic":null,"height_m":null,"range_nm":null,"chart":"US5NH1DD"}},{"type":"Feature","geometry":{"type":"Point","coordinates":[-70.831026,43.154962]},"properties":{"objtype":"BOYLAT","label":"buoy","name":"Piscataqua River Buoy 20","colour":"red","characteristic":null,"height_m":null,"range_nm":null,"chart":"US5NH1DD"}},{"type":"Feature","geometry":{"type":"Point","coordinates":[-70.827884,43.160773]},"properties":{"objtype":"BOYLAT","label":"buoy","name":"Piscataqua River Buoy 21","colour":"green","characteristic":null,"height_m":null,"range_nm":null,"chart":"US5NH1DD"}},{"type":"Feature","geometry":{"type":"Point","coordinates":[-70.829584,43.133209]},"properties":{"objtype":"BOYLAT","label":"buoy","name":"Piscataqua River Buoy 18","colour":"red","characteristic":null,"height_m":null,"range_nm":null,"chart":"US5NH1DD"}},{"type":"Feature","geometry":{"type":"Point","coordinates":[-70.745023,42.999482]},"properties":{"objtype":"BOYLAT","label":"buoy","name":"Rye Harbor Buoy 5","colour":"green","characteristic":null,"height_m":null,"range_nm":null,"chart":"US5PSMBC"}},{"type":"Feature","geometry":{"type":"Point","coordinates":[-70.749965,43.0780322]},"properties":{"objtype":"BOYLAT","label":"buoy","name":"Pierce Island Buoy 3","colour":"green","characteristic":null,"height_m":null,"range_nm":null,"chart":"US5PSMCC"}},{"type":"Feature","geometry":{"type":"Point","coordinates":[-70.7897228,43.1042294]},"properties":{"objtype":"BOYLAT","label":"buoy","name":"Piscataqua River Lighted Buoy 7","colour":"green","characteristic":null,"height_m":null,"range_nm":null,"chart":"US5PSMCC"}},{"type":"Feature","geometry":{"type":"Point","coordinates":[-70.7908842,43.1064336]},"properties":{"objtype":"BOYLAT","label":"buoy","name":"Piscataqua River Lighted Buoy 8","colour":"red","characteristic":null,"height_m":null,"range_nm":null,"chart":"US5PSMCC"}},{"type":"Feature","geometry":{"type":"Point","coordinates":[-70.7308578,43.0593056]},"properties":{"objtype":"BOYLAT","label":"buoy","name":"Sagamore Creek Buoy 13","colour":"green","characteristic":null,"height_m":null,"range_nm":null,"chart":"US5PSMCC"}},{"type":"Feature","geometry":{"type":"Point","coordinates":[-70.7369817,43.0620625]},"properties":{"objtype":"BOYLAT","label":"buoy","name":"Northward Channel Buoy 3","colour":"green","characteristic":null,"height_m":null,"range_nm":null,"chart":"US5PSMCC"}},{"type":"Feature","geometry":{"type":"Point","coordinates":[-70.738212,43.06782]},"properties":{"objtype":"BOYLAT","label":"buoy","name":"Northward Channel Buoy 5","colour":"green","characteristic":null,"height_m":null,"range_nm":null,"chart":"US5PSMCC"}},{"type":"Feature","geometry":{"type":"Point","coordinates":[-70.74048,43.0562667]},"properties":{"objtype":"BOYLAT","label":"buoy","name":"Sagamore Creek Buoy 17","colour":"green","characteristic":null,"height_m":null,"range_nm":null,"chart":"US5PSMCC"}},{"type":"Feature","geometry":{"type":"Point","coordinates":[-70.7340244,43.0594222]},"properties":{"objtype":"BOYLAT","label":"buoy","name":"Sagamore Creek Buoy 15","colour":"green","characteristic":null,"height_m":null,"range_nm":null,"chart":"US5PSMCC"}},{"type":"Feature","geometry":{"type":"Point","coordinates":[-70.7380967,43.0574778]},"properties":{"objtype":"BOYLAT","label":"buoy","name":"Sagamore Creek Buoy 16","colour":"red","characteristic":null,"height_m":null,"range_nm":null,"chart":"US5PSMCC"}},{"type":"Feature","geometry":{"type":"Point","coordinates":[-70.7499017,43.0770192]},"properties":{"objtype":"BOYLAT","label":"buoy","name":"Pierce Island Buoy 5","colour":"green","characteristic":null,"height_m":null,"range_nm":null,"chart":"US5PSMCC"}},{"type":"Feature","geometry":{"type":"Point","coordinates":[-70.766969,43.093976]},"properties":{"objtype":"BOYLAT","label":"buoy","name":"Piscataqua River Lighted Buoy 2","colour":"red","characteristic":null,"height_m":null,"range_nm":null,"chart":"US5PSMCC"}},{"type":"Feature","geometry":{"type":"Point","coordinates":[-70.733118,43.073174]},"properties":{"objtype":"BOYLAT","label":"buoy","name":"Goat Island Ledge Lighted Buoy 9","colour":"green","characteristic":null,"height_m":null,"range_nm":null,"chart":"US5PSMCC"}},{"type":"Feature","geometry":{"type":"Point","coordinates":[-70.7380133,43.0641161]},"properties":{"objtype":"BOYLAT","label":"buoy","name":"Northward Channel Buoy 4","colour":"red","characteristic":null,"height_m":null,"range_nm":null,"chart":"US5PSMCC"}},{"type":"Feature","geometry":{"type":"Point","coordinates":[-70.741715,43.0551267]},"properties":{"objtype":"BOYLAT","label":"buoy","name":"Sagamore Creek Buoy 18","colour":"red","characteristic":null,"height_m":null,"range_nm":null,"chart":"US5PSMCC"}},{"type":"Feature","geometry":{"type":"Point","coordinates":[-70.725192,43.056287]},"properties":{"objtype":"BOYLAT","label":"buoy","name":"Little Harbor Buoy 10","colour":"red","characteristic":null,"height_m":null,"range_nm":null,"chart":"US5PSMCC"}},{"type":"Feature","geometry":{"type":"Point","coordinates":[-70.728066,43.084175]},"properties":{"objtype":"BOYLAT","label":"buoy","name":"Back Channel Buoy 7","colour":"green","characteristic":null,"height_m":null,"range_nm":null,"chart":"US5PSMCC"}},{"type":"Feature","geometry":{"type":"Point","coordinates":[-70.7350522,43.0593667]},"properties":{"objtype":"BOYLAT","label":"buoy","name":"Sagamore Creek Buoy SL","colour":"green/red/green","characteristic":null,"height_m":null,"range_nm":null,"chart":"US5PSMCC"}},{"type":"Feature","geometry":{"type":"Point","coordinates":[-70.7430317,43.0777992]},"properties":{"objtype":"BOYLAT","label":"buoy","name":"South Beacon Shoal Lighted Buoy 11","colour":"green","characteristic":null,"height_m":null,"range_nm":null,"chart":"US5PSMCC"}},{"type":"Feature","geometry":{"type":"Point","coordinates":[-70.7559772,43.0810975]},"properties":{"objtype":"BOYLAT","label":"buoy","name":"Badgers Island Lighted Buoy 14","colour":"red","characteristic":null,"height_m":null,"range_nm":null,"chart":"US5PSMCC"}},{"type":"Feature","geometry":{"type":"Point","coordinates":[-70.785296,43.103548]},"properties":{"objtype":"BOYLAT","label":"buoy","name":"Piscataqua River Lighted Buoy 6","colour":"red","characteristic":null,"height_m":null,"range_nm":null,"chart":"US5PSMCC"}},{"type":"Feature","geometry":{"type":"Point","coordinates":[-70.727571,43.056928]},"properties":{"objtype":"BOYLAT","label":"buoy","name":"Little Harbor Buoy 11","colour":"green","characteristic":null,"height_m":null,"range_nm":null,"chart":"US5PSMCC"}},{"type":"Feature","geometry":{"type":"Point","coordinates":[-70.7353356,43.0601667]},"properties":{"objtype":"BOYLAT","label":"buoy","name":"Northward Channel Buoy 2","colour":"red","characteristic":null,"height_m":null,"range_nm":null,"chart":"US5PSMCC"}},{"type":"Feature","geometry":{"type":"Point","coordinates":[-70.7426911,43.0543667]},"properties":{"objtype":"BOYLAT","label":"buoy","name":"Sagamore Creek Buoy 20","colour":"red","characteristic":null,"height_m":null,"range_nm":null,"chart":"US5PSMCC"}},{"type":"Feature","geometry":{"type":"Point","coordinates":[-70.726335,43.083557]},"properties":{"objtype":"BOYLAT","label":"buoy","name":"Back Channel Buoy 5","colour":"green","characteristic":null,"height_m":null,"range_nm":null,"chart":"US5PSMCC"}},{"type":"Feature","geometry":{"type":"Point","coordinates":[-70.7467194,43.0783914]},"properties":{"objtype":"BOYLAT","label":"buoy","name":"Gangway Rocks Lighted Buoy 13","colour":"green","characteristic":null,"height_m":null,"range_nm":null,"chart":"US5PSMCC"}},{"type":"Feature","geometry":{"type":"Point","coordinates":[-70.7361636,43.0748108]},"properties":{"objtype":"LIGHTS","label":"light","name":null,"colour":"red","characteristic":"Q(1) R 6s","height_m":12.1,"range_nm":5.0,"chart":"US5PSMCC"}},{"type":"Feature","geometry":{"type":"Point","coordinates":[-70.778604,43.096766]},"properties":{"objtype":"LIGHTS","label":"light","name":null,"colour":"red","characteristic":"Fl(1) R 4s","height_m":5.4,"range_nm":5.0,"chart":"US5PSMCC"}},{"type":"Feature","geometry":{"type":"Point","coordinates":[-70.7411533,43.0794633]},"properties":{"objtype":"BCNLAT","label":"beacon","name":"Seavey Island Daybeacon 12B","colour":"red","characteristic":null,"height_m":null,"range_nm":null,"chart":"US5PSMCC"}},{"type":"Feature","geometry":{"type":"Point","coordinates":[-70.7405517,43.0793534]},"properties":{"objtype":"BCNLAT","label":"beacon","name":"Seavey Island Daybeacon 12A","colour":"red","characteristic":null,"height_m":null,"range_nm":null,"chart":"US5PSMCC"}},{"type":"Feature","geometry":{"type":"Point","coordinates":[-70.7413158,43.0736769]},"properties":{"objtype":"LIGHTS","label":"light","name":null,"colour":"green","characteristic":"Iso(1) G 6s","height_m":19.2,"range_nm":null,"chart":"US5PSMCC"}},{"type":"Feature","geometry":{"type":"Point","coordinates":[-70.7920833,43.1036667]},"properties":{"objtype":"LIGHTS","label":"light","name":null,"colour":"green","characteristic":"F G","height_m":5.4,"range_nm":null,"chart":"US5PSMCC"}},{"type":"Feature","geometry":{"type":"Point","coordinates":[-70.7403283,43.07372]},"properties":{"objtype":"LIGHTS","label":"light","name":null,"colour":"green","characteristic":"Q(1) G 1s","height_m":15.5,"range_nm":null,"chart":"US5PSMCC"}},{"type":"Feature","geometry":{"type":"Point","coordinates":[-70.7050833,43.0777375]},"properties":{"objtype":"BOYLAT","label":"buoy","name":"Fishing Island Ledge Lighted Buoy 4","colour":"red","characteristic":null,"height_m":null,"range_nm":null,"chart":"US5PSMCD"}},{"type":"Feature","geometry":{"type":"Point","coordinates":[-70.7157019,43.0560558]},"properties":{"objtype":"BOYLAT","label":"buoy","name":"Little Harbor Buoy 6","colour":"red","characteristic":null,"height_m":null,"range_nm":null,"chart":"US5PSMCD"}},{"type":"Feature","geometry":{"type":"Point","coordinates":[-70.7212608,43.0806081]},"properties":{"objtype":"BOYLAT","label":"buoy","name":"Back Channel Buoy 3","colour":"green","characteristic":null,"height_m":null,"range_nm":null,"chart":"US5PSMCD"}},{"type":"Feature","geometry":{"type":"Point","coordinates":[-70.722812,43.081835]},"properties":{"objtype":"BOYLAT","label":"buoy","name":"Back Channel Buoy 4","colour":"red","characteristic":null,"height_m":null,"range_nm":null,"chart":"US5PSMCD"}},{"type":"Feature","geometry":{"type":"Point","coordinates":[-70.716715,43.055471]},"properties":{"objtype":"BOYLAT","label":"buoy","name":"Little Harbor Buoy 5","colour":"green","characteristic":null,"height_m":null,"range_nm":null,"chart":"US5PSMCD"}},{"type":"Feature","geometry":{"type":"Point","coordinates":[-70.711249,43.074547]},"properties":{"objtype":"BOYLAT","label":"buoy","name":"Cod Rock Lighted Buoy 5","colour":"green","characteristic":null,"height_m":null,"range_nm":null,"chart":"US5PSMCD"}},{"type":"Feature","geometry":{"type":"Point","coordinates":[-70.719255,43.077834]},"properties":{"objtype":"BOYLAT","label":"buoy","name":"Hick Rocks Buoy 6","colour":"red","characteristic":null,"height_m":null,"range_nm":null,"chart":"US5PSMCD"}},{"type":"Feature","geometry":{"type":"Point","coordinates":[-70.7043611,43.0801944]},"properties":{"objtype":"BOYLAT","label":"buoy","name":"Pepperrell Cove Buoy 3","colour":"green","characteristic":null,"height_m":null,"range_nm":null,"chart":"US5PSMCD"}},{"type":"Feature","geometry":{"type":"Point","coordinates":[-70.7044444,43.0794444]},"properties":{"objtype":"BOYLAT","label":"buoy","name":"Pepperrell Cove Buoy 2","colour":"red","characteristic":null,"height_m":null,"range_nm":null,"chart":"US5PSMCD"}},{"type":"Feature","geometry":{"type":"Point","coordinates":[-70.719784,43.056212]},"properties":{"objtype":"BOYLAT","label":"buoy","name":"Little Harbor Buoy 8","colour":"red","characteristic":null,"height_m":null,"range_nm":null,"chart":"US5PSMCD"}},{"type":"Feature","geometry":{"type":"Point","coordinates":[-70.70425,43.081]},"properties":{"objtype":"BOYLAT","label":"buoy","name":"Pepperrell Cove Buoy 5","colour":"green","characteristic":null,"height_m":null,"range_nm":null,"chart":"US5PSMCD"}}]}