{"type":"FeatureCollection","features":[{"type":"Feature","geometry":{"type":"Polygon","coordinates":[[[-69.1062722,44.1],[-69.1060859,44.0998413],[-69.1058119,44.1],[-69.1062722,44.1]]]},"properties":{"objtype":"FAIRWY","label":"channel","name":"Rockland Harbor Town Channel","name_lower":"rockland harbor town channel","chart":"US5BGRCB"}},{"type":"Feature","geometry":{"type":"Polygon","coordinates":[[[-69.103528,44.1077893],[-69.1034317,44.1084205],[-69.1038841,44.1087716],[-69.106337,44.1081099],[-69.1074792,44.1083385],[-69.1075042,44.1060732],[-69.1067856,44.1060786],[-69.1067831,44.1074436],[-69.1064732,44.1077452],[-69.103528,44.1077893]]]},"properties":{"objtype":"FAIRWY","label":"channel","name":"Lermond Cove Channel","name_lower":"lermond cove channel","chart":"US5BGRDB"}},{"type":"Feature","geometry":{"type":"Polygon","coordinates":[[[-69.1034317,44.1084205],[-69.1035055,44.1104805],[-69.1021197,44.111505],[-69.1012437,44.111604],[-69.1008676,44.1119516],[-69.1011263,44.1125863],[-69.1039478,44.1105066],[-69.1038841,44.1087716],[-69.1034317,44.1084205]]]},"properties":{"objtype":"FAIRWY","label":"channel","name":"Rockland Harbor Bypass Channel","name_lower":"rockland harbor bypass channel","chart":"US5BGRDB"}},{"type":"Feature","geometry":{"type":"Polygon","coordinates":[[[-69.1016848,44.1067926],[-69.1005627,44.105479],[-69.1005652,44.1056383],[-69.0999254,44.1056194],[-69.0998917,44.1046884],[-69.0992519,44.1041428],[-69.0971521,44.1035259],[-69.097345,44.102974],[-69.0993568,44.1035521],[-69.1001866,44.1035719],[-69.1005827,44.1038231],[-69.1005702,44.1047361],[-69.1021672,44.106608],[-69.1016848,44.1067926]]]},"properties":{"objtype":"FAIRWY","label":"channel","name":"Rockland Harbor Main Channel","name_lower":"rockland harbor main channel","chart":"US5BGRDB"}}]}