{"type":"FeatureCollection","features":[{"type":"Feature","geometry":{"type":"LineString","coordinates":[[-69.106141,44.100226],[-69.105888,44.10033]]},"properties":{"source":"fairway_centerline","channelName":"Rockland Harbor Town Channel"}},{"type":"Feature","geometry":{"type":"LineString","coordinates":[[-69.105888,44.10033],[-69.105273,44.100956]]},"properties":{"source":"fairway_centerline","channelName":"Rockland Harbor Town Channel"}},{"type":"Feature","geometry":{"type":"LineString","coordinates":[[-69.105273,44.100956],[-69.102994,44.102337]]},"properties":{"source":"fairway_centerline","channelName":"Rockland Harbor Town Channel"}},{"type":"Feature","geometry":{"type":"LineString","coordinates":[[-69.102994,44.102337],[-69.10068,44.103536]]},"properties":{"source":"fairway_centerline","channelName":"Rockland Harbor Town Channel"}},{"type":"Feature","geometry":{"type":"LineString","coordinates":[[-69.10068,44.103536],[-69.100571,44.103771]]},"properties":{"source":"fairway_centerline","channelName":"Rockland Harbor Town Channel"}},{"type":"Feature","geometry":{"type":"LineString","coordinates":[[-69.103972,44.108147],[-69.104052,44.108185]]},"properties":{"source":"fairway_centerline","channelName":"Lermond Cove Channel"}},{"type":"Feature","geometry":{"type":"LineString","coordinates":[[-69.104025,44.108319],[-69.103999,44.108395]]},"properties":{"source":"fairway_centerline","channelName":"Lermond Cove Channel"}},{"type":"Feature","geometry":{"type":"LineString","coordinates":[[-69.104025,44.108319],[-69.104025,44.1083]]},"properties":{"source":"fairway_centerline","channelName":"Lermond Cove Channel"}},{"type":"Feature","geometry":{"type":"LineString","coordinates":[[-69.103893,44.108739],[-69.103919,44.108643]]},"properties":{"source":"fairway_centerline","channelName":"Lermond Cove Channel"}},{"type":"Feature","geometry":{"type":"LineString","coordinates":[[-69.103999,44.108395],[-69.103972,44.108471]]},"properties":{"source":"fairway_centerline","channelName":"Lermond Cove Channel"}},{"type":"Feature","geometry":{"type":"LineString","coordinates":[[-69.104052,44.108185],[-69.104052,44.108204]]},"properties":{"source":"fairway_centerline","channelName":"Lermond Cove Channel"}},{"type":"Feature","geometry":{"type":"LineString","coordinates":[[-69.104078,44.108242],[-69.104052,44.108204]]},"properties":{"source":"fairway_centerline","channelName":"Lermond Cove Channel"}},{"type":"Feature","geometry":{"type":"LineString","coordinates":[[-69.104025,44.1083],[-69.104052,44.108281]]},"properties":{"source":"fairway_centerline","channelName":"Lermond Cove Channel"}},{"type":"Feature","geometry":{"type":"LineString","coordinates":[[-69.104052,44.108281],[-69.104078,44.108242]]},"properties":{"source":"fairway_centerline","channelName":"Lermond Cove Channel"}},{"type":"Feature","geometry":{"type":"LineString","coordinates":[[-69.103972,44.108471],[-69.103946,44.108567]]},"properties":{"source":"fairway_centerline","channelName":"Lermond Cove Channel"}},{"type":"Feature","geometry":{"type":"LineString","coordinates":[[-69.103919,44.108643],[-69.103946,44.108567]]},"properties":{"source":"fairway_centerline","channelName":"Lermond Cove Channel"}},{"type":"Feature","geometry":{"type":"LineString","coordinates":[[-69.103972,44.1083],[-69.103813,44.108338]]},"properties":{"source":"fairway_centerline","channelName":"Lermond Cove Channel"}},{"type":"Feature","geometry":{"type":"LineString","coordinates":[[-69.103495,44.108395],[-69.103654,44.108376]]},"properties":{"source":"fairway_centerline","channelName":"Lermond Cove Channel"}},{"type":"Feature","geometry":{"type":"LineString","coordinates":[[-69.104052,44.108281],[-69.103972,44.1083]]},"properties":{"source":"fairway_centerline","channelName":"Lermond Cove Channel"}},{"type":"Feature","geometry":{"type":"LineString","coordinates":[[-69.103654,44.108357],[-69.103654,44.108376]]},"properties":{"source":"fairway_centerline","channelName":"Lermond Cove Channel"}},{"type":"Feature","geometry":{"type":"LineString","coordinates":[[-69.103654,44.108357],[-69.103813,44.108338]]},"properties":{"source":"fairway_centerline","channelName":"Lermond Cove Channel"}},{"type":"Feature","geometry":{"type":"LineString","coordinates":[[-69.103972,44.108147],[-69.103919,44.10809]]},"properties":{"source":"fairway_centerline","channelName":"Lermond Cove Channel"}},{"type":"Feature","geometry":{"type":"LineString","coordinates":[[-69.103919,44.10809],[-69.103893,44.10809]]},"properties":{"source":"fairway_centerline","channelName":"Lermond Cove Channel"}},{"type":"Feature","geometry":{"type":"LineString","coordinates":[[-69.10376,44.107975],[-69.10384,44.108032]]},"properties":{"source":"fairway_centerline","channelName":"Lermond Cove Channel"}},{"type":"Feature","geometry":{"type":"LineString","coordinates":[[-69.103893,44.10809],[-69.10384,44.108032]]},"properties":{"source":"fairway_centerline","channelName":"Lermond Cove Channel"}},{"type":"Feature","geometry":{"type":"LineString","coordinates":[[-69.100046,44.107008],[-69.100321,44.106925]]},"properties":{"source":"fairway_centerline","channelName":"Rockland Harbor Bypass Channel"}},{"type":"Feature","geometry":{"type":"LineString","coordinates":[[-69.100321,44.106925],[-69.100985,44.107503]]},"properties":{"source":"fairway_centerline","channelName":"Rockland Harbor Bypass Channel"}},{"type":"Feature","geometry":{"type":"LineString","coordinates":[[-69.100985,44.107503],[-69.101695,44.1078]]},"properties":{"source":"fairway_centerline","channelName":"Rockland Harbor Bypass Channel"}},{"type":"Feature","geometry":{"type":"LineString","coordinates":[[-69.101695,44.1078],[-69.103047,44.108031]]},"properties":{"source":"fairway_centerline","channelName":"Rockland Harbor Bypass Channel"}},{"type":"Feature","geometry":{"type":"LineString","coordinates":[[-69.103047,44.108031],[-69.103506,44.1078]]},"properties":{"source":"fairway_centerline","channelName":"Rockland Harbor Bypass Channel"}},{"type":"Feature","geometry":{"type":"LineString","coordinates":[[-70.769265,43.093999],[-70.765376,43.092098]]},"properties":{"source":"fairway_centerline","channelName":"Piscataqua River Channel"}},{"type":"Feature","geometry":{"type":"LineString","coordinates":[[-70.765376,43.092098],[-70.760969,43.086207]]},"properties":{"source":"fairway_centerline","channelName":"Piscataqua River Channel"}},{"type":"Feature","geometry":{"type":"LineString","coordinates":[[-70.760969,43.086207],[-70.758118,43.083926]]},"properties":{"source":"fairway_centerline","channelName":"Piscataqua River Channel"}},{"type":"Feature","geometry":{"type":"LineString","coordinates":[[-70.758118,43.083926],[-70.757859,43.081455]]},"properties":{"source":"fairway_centerline","channelName":"Piscataqua River Channel"}},{"type":"Feature","geometry":{"type":"LineString","coordinates":[[-70.757859,43.081455],[-70.754749,43.079935]]},"properties":{"source":"fairway_centerline","channelName":"Piscataqua River Channel"}},{"type":"Feature","geometry":{"type":"LineString","coordinates":[[-70.728103,43.057516],[-70.728004,43.057516]]},"properties":{"source":"fairway_centerline","channelName":"Portsmouth Harbor Back Channel"}},{"type":"Feature","geometry":{"type":"LineString","coordinates":[[-70.700479,43.041542],[-70.701923,43.05]]},"properties":{"source":"recommended_track","channelName":"RECTRC"}},{"type":"Feature","geometry":{"type":"LineString","coordinates":[[-70.700479,43.041542],[-70.701923,43.05]]},"properties":{"source":"recommended_track","channelName":"NAVLNE"}},{"type":"Feature","geometry":{"type":"LineString","coordinates":[[-70.725,43.074388],[-70.734597,43.073969]]},"properties":{"source":"recommended_track","channelName":"RECTRC"}},{"type":"Feature","geometry":{"type":"LineString","coordinates":[[-70.734597,43.073969],[-70.737781,43.07383]]},"properties":{"source":"recommended_track","channelName":"RECTRC"}},{"type":"Feature","geometry":{"type":"LineString","coordinates":[[-70.737781,43.07383],[-70.738697,43.07379]]},"properties":{"source":"recommended_track","channelName":"RECTRC"}},{"type":"Feature","geometry":{"type":"LineString","coordinates":[[-70.725,43.074388],[-70.734597,43.073969]]},"properties":{"source":"recommended_track","channelName":"NAVLNE"}},{"type":"Feature","geometry":{"type":"LineString","coordinates":[[-70.734597,43.073969],[-70.737781,43.07383]]},"properties":{"source":"recommended_track","channelName":"NAVLNE"}},{"type":"Feature","geometry":{"type":"LineString","coordinates":[[-70.737781,43.07383],[-70.738697,43.07379]]},"properties":{"source":"recommended_track","channelName":"NAVLNE"}},{"type":"Feature","geometry":{"type":"LineString","coordinates":[[-70.738697,43.07379],[-70.739627,43.07375]]},"properties":{"source":"recommended_track","channelName":"NAVLNE"}},{"type":"Feature","geometry":{"type":"LineString","coordinates":[[-70.739627,43.07375],[-70.739829,43.073741]]},"properties":{"source":"recommended_track","channelName":"NAVLNE"}},{"type":"Feature","geometry":{"type":"LineString","coordinates":[[-70.739829,43.073741],[-70.739884,43.073739]]},"properties":{"source":"recommended_track","channelName":"NAVLNE"}},{"type":"Feature","geometry":{"type":"LineString","coordinates":[[-70.739884,43.073739],[-70.739996,43.073734]]},"properties":{"source":"recommended_track","channelName":"NAVLNE"}},{"type":"Feature","geometry":{"type":"LineString","coordinates":[[-70.739996,43.073734],[-70.740146,43.073727]]},"properties":{"source":"recommended_track","channelName":"NAVLNE"}},{"type":"Feature","geometry":{"type":"LineString","coordinates":[[-70.740146,43.073727],[-70.741316,43.073677]]},"properties":{"source":"recommended_track","channelName":"NAVLNE"}},{"type":"Feature","geometry":{"type":"LineString","coordinates":[[-70.706376,43.075201],[-70.723002,43.074475]]},"properties":{"source":"recommended_track","channelName":"RECTRC"}},{"type":"Feature","geometry":{"type":"LineString","coordinates":[[-70.723002,43.074475],[-70.725,43.074388]]},"properties":{"source":"recommended_track","channelName":"RECTRC"}},{"type":"Feature","geometry":{"type":"LineString","coordinates":[[-70.701923,43.05],[-70.703131,43.05708]]},"properties":{"source":"recommended_track","channelName":"RECTRC"}},{"type":"Feature","geometry":{"type":"LineString","coordinates":[[-70.703131,43.05708],[-70.703263,43.057852]]},"properties":{"source":"recommended_track","channelName":"RECTRC"}},{"type":"Feature","geometry":{"type":"LineString","coordinates":[[-70.706376,43.075201],[-70.723002,43.074475]]},"properties":{"source":"recommended_track","channelName":"NAVLNE"}},{"type":"Feature","geometry":{"type":"LineString","coordinates":[[-70.723002,43.074475],[-70.725,43.074388]]},"properties":{"source":"recommended_track","channelName":"NAVLNE"}},{"type":"Feature","geometry":{"type":"LineString","coordinates":[[-70.701923,43.05],[-70.703131,43.05708]]},"properties":{"source":"recommended_track","channelName":"NAVLNE"}},{"type":"Feature","geometry":{"type":"LineString","coordinates":[[-70.703131,43.05708],[-70.703263,43.057852]]},"properties":{"source":"recommended_track","channelName":"NAVLNE"}},{"type":"Feature","geometry":{"type":"LineString","coordinates":[[-70.703263,43.057852],[-70.705283,43.069774]]},"properties":{"source":"recommended_track","channelName":"NAVLNE"}},{"type":"Feature","geometry":{"type":"LineString","coordinates":[[-70.705283,43.069774],[-70.707302,43.081683]]},"properties":{"source":"recommended_track","channelName":"NAVLNE"}},{"type":"Feature","geometry":{"type":"LineString","coordinates":[[-70.707302,43.081683],[-70.70767,43.083857]]},"properties":{"source":"recommended_track","channelName":"NAVLNE"}}]}