{"type":"FeatureCollection","features":[{"type":"Feature","geometry":{"type":"LineString","coordinates":[[-70.700479,43.041542],[-70.701923,43.05]]},"properties":{"objtype":"RECTRC","label":"recommended_track","name":"","name_lower":"","chart":"US5PSMBD"}},{"type":"Feature","geometry":{"type":"LineString","coordinates":[[-70.700479,43.041542],[-70.701923,43.05]]},"properties":{"objtype":"NAVLNE","label":"recommended_track","name":"","name_lower":"","chart":"US5PSMBD"}},{"type":"Feature","geometry":{"type":"LineString","coordinates":[[-70.725,43.074388],[-70.734597,43.073969],[-70.737781,43.07383],[-70.738697,43.07379]]},"properties":{"objtype":"RECTRC","label":"recommended_track","name":"","name_lower":"","chart":"US5PSMCC"}},{"type":"Feature","geometry":{"type":"LineString","coordinates":[[-70.725,43.074388],[-70.734597,43.073969],[-70.737781,43.07383],[-70.738697,43.07379],[-70.739627,43.07375],[-70.739829,43.073741],[-70.739884,43.073739],[-70.739996,43.073734],[-70.740146,43.073727],[-70.741316,43.073677]]},"properties":{"objtype":"NAVLNE","label":"recommended_track","name":"","name_lower":"","chart":"US5PSMCC"}},{"type":"Feature","geometry":{"type":"LineString","coordinates":[[-70.706376,43.075201],[-70.723002,43.074475],[-70.725,43.074388]]},"properties":{"objtype":"RECTRC","label":"recommended_track","name":"","name_lower":"","chart":"US5PSMCD"}},{"type":"Feature","geometry":{"type":"LineString","coordinates":[[-70.701923,43.05],[-70.703131,43.05708],[-70.703263,43.057852]]},"properties":{"objtype":"RECTRC","label":"recommended_track","name":"","name_lower":"","chart":"US5PSMCD"}},{"type":"Feature","geometry":{"type":"LineString","coordinates":[[-70.706376,43.075201],[-70.723002,43.074475],[-70.725,43.074388]]},"properties":{"objtype":"NAVLNE","label":"recommended_track","name":"","name_lower":"","chart":"US5PSMCD"}},{"type":"Feature","geometry":{"type":"LineString","coordinates":[[-70.701923,43.05],[-70.703131,43.05708],[-70.703263,43.057852],[-70.705283,43.069774],[-70.707302,43.081683],[-70.70767,43.083857]]},"properties":{"objtype":"NAVLNE","label":"recommended_track","name":"","name_lower":"","chart":"US5PSMCD"}}]}