{"type":"FeatureCollection","features":[{"type":"Feature","geometry":{"type":"LineString","coordinates":[[-70.274747,43.641492],[-70.274167,43.641239]]},"properties":{"source":"fairway_centerline","channelName":"Portland Harbor Channel"}},{"type":"Feature","geometry":{"type":"LineString","coordinates":[[-70.274167,43.641239],[-70.271964,43.641745]]},"properties":{"source":"fairway_centerline","channelName":"Portland Harbor Channel"}},{"type":"Feature","geometry":{"type":"LineString","coordinates":[[-70.271964,43.641745],[-70.263266,43.642503]]},"properties":{"source":"fairway_centerline","channelName":"Portland Harbor Channel"}},{"type":"Feature","geometry":{"type":"LineString","coordinates":[[-70.263266,43.642503],[-70.261294,43.643009]]},"properties":{"source":"fairway_centerline","channelName":"Portland Harbor Channel"}},{"type":"Feature","geometry":{"type":"LineString","coordinates":[[-70.261294,43.643009],[-70.259902,43.643598]]},"properties":{"source":"fairway_centerline","channelName":"Portland Harbor Channel"}},{"type":"Feature","geometry":{"type":"LineString","coordinates":[[-70.259902,43.643598],[-70.252479,43.648988]]},"properties":{"source":"fairway_centerline","channelName":"Portland Harbor Channel"}},{"type":"Feature","geometry":{"type":"LineString","coordinates":[[-70.252479,43.648988],[-70.252943,43.649746]]},"properties":{"source":"fairway_centerline","channelName":"Portland Harbor Channel"}},{"type":"Feature","geometry":{"type":"LineString","coordinates":[[-70.208282,43.657144],[-70.215195,43.657563]]},"properties":{"source":"fairway_centerline","channelName":"House Island Anchorage"}},{"type":"Feature","geometry":{"type":"LineString","coordinates":[[-70.215195,43.657563],[-70.216155,43.65819]]},"properties":{"source":"fairway_centerline","channelName":"House Island Anchorage"}},{"type":"Feature","geometry":{"type":"LineString","coordinates":[[-70.216155,43.65819],[-70.215483,43.663906]]},"properties":{"source":"fairway_centerline","channelName":"House Island Anchorage"}}]}