{"type":"FeatureCollection","features":[{"type":"Feature","geometry":{"type":"Polygon","coordinates":[[[-70.275,43.6400696],[-70.2728176,43.6410473],[-70.2689532,43.641494],[-70.2622858,43.6418037],[-70.2594211,43.6432169],[-70.2577854,43.6447688],[-70.2556108,43.6456702],[-70.2487226,43.65],[-70.2531084,43.65],[-70.2571754,43.6470258],[-70.2577552,43.6455074],[-70.2582984,43.645192],[-70.2585941,43.6451296],[-70.2600753,43.6442047],[-70.2618242,43.6435403],[-70.2656569,43.6429862],[-70.2739521,43.6420273],[-70.275,43.6415819],[-70.275,43.6400696]]]},"properties":{"objtype":"FAIRWY","label":"channel","name":"Portland Harbor Channel","name_lower":"portland harbor channel","chart":"US5PWMCC"}},{"type":"Feature","geometry":{"type":"Polygon","coordinates":[[[-70.2406432,43.6767013],[-70.2285376,43.6728317],[-70.2219988,43.6691386],[-70.2302325,43.6605851],[-70.239788,43.6605525],[-70.2369793,43.6625885],[-70.2339492,43.6667593],[-70.2339256,43.6707989],[-70.2350894,43.6733527],[-70.2364418,43.6744592],[-70.2397906,43.6755295],[-70.241787,43.6756662],[-70.2496878,43.6743487],[-70.250366,43.6748783],[-70.2532071,43.6743234],[-70.2538218,43.674411],[-70.2547571,43.6747073],[-70.2557387,43.6760236],[-70.2570049,43.6759979],[-70.2584433,43.6740356],[-70.2588313,43.671859],[-70.2599558,43.6719646],[-70.2595867,43.6740355],[-70.2594444,43.6744221],[-70.2581046,43.67625],[-70.2554111,43.6763047],[-70.2549305,43.6756603],[-70.2533682,43.6751653],[-70.2509537,43.6749055],[-70.2499418,43.6751509],[-70.2406432,43.6767013]]]},"properties":{"objtype":"FAIRWY","label":"channel","name":"Portland Harbor Back Cove Channel","name_lower":"portland harbor back cove channel","chart":"US5PWMDC"}},{"type":"Feature","geometry":{"type":"Polygon","coordinates":[[[-70.2259544,43.6605996],[-70.2162312,43.6517273],[-70.2074311,43.657107],[-70.2154252,43.664],[-70.2229649,43.6593905],[-70.2259544,43.6605996]]]},"properties":{"objtype":"FAIRWY","label":"channel","name":"House Island Anchorage","name_lower":"house island anchorage","chart":"US5PWMDC"}}]}