{"type":"FeatureCollection","features":[{"type":"Feature","geometry":{"type":"Polygon","coordinates":[[[-70.19806,43.5686],[-70.19703,43.56946],[-70.2,43.56891],[-70.2,43.5625],[-70.1963,43.56539],[-70.19661,43.56591],[-70.19821,43.56495],[-70.19901,43.56532],[-70.19794,43.56692],[-70.19806,43.5686]]]},"properties":{}},{"type":"Feature","geometry":{"type":"Polygon","coordinates":[[[-70.29929,43.64761],[-70.29334,43.64349],[-70.29727,43.63937],[-70.30121,43.63702],[-70.30376,43.63646],[-70.31051,43.63391],[-70.30903,43.63361],[-70.30807,43.63473],[-70.30603,43.63444],[-70.29811,43.63691],[-70.29656,43.63952],[-70.29254,43.6426],[-70.29144,43.64488],[-70.29083,43.64474],[-70.29181,43.64169],[-70.28641,43.64234],[-70.28172,43.63766],[-70.28207,43.63679],[-70.28128,43.63618],[-70.27657,43.63656],[-70.275,43.6359],[-70.275,43.575],[-70.35,43.575],[-70.35,43.65],[-70.29899,43.65],[-70.29771,43.64936],[-70.29679,43.64751],[-70.29929,43.64761]]]},"properties":{}},{"type":"Feature","geometry":{"type":"Polygon","coordinates":[[[-70.27503,43.64202],[-70.275,43.65],[-70.2857,43.65],[-70.28168,43.64593],[-70.2819,43.6436],[-70.28092,43.64359],[-70.28184,43.64326],[-70.28044,43.64051],[-70.27822,43.64093],[-70.27896,43.64147],[-70.27503,43.64202]]]},"properties":{}},{"type":"Feature","geometry":{"type":"Polygon","coordinates":[[[-70.29112,43.64665],[-70.28979,43.64643],[-70.28811,43.65],[-70.28977,43.65],[-70.29112,43.64665]]]},"properties":{}},{"type":"Feature","geometry":{"type":"Polygon","coordinates":[[[-70.2925,43.65],[-70.29186,43.64897],[-70.29056,43.65],[-70.2925,43.65]]]},"properties":{}},{"type":"Feature","geometry":{"type":"Polygon","coordinates":[[[-70.20235,43.57541],[-70.20213,43.575],[-70.20337,43.575],[-70.20235,43.57541]]]},"properties":{}},{"type":"Feature","geometry":{"type":"Polygon","coordinates":[[[-70.21381,43.64907],[-70.21236,43.64927],[-70.21167,43.65],[-70.21385,43.65],[-70.21381,43.64907]]]},"properties":{}},{"type":"Feature","geometry":{"type":"Polygon","coordinates":[[[-70.27055,43.57607],[-70.26993,43.57592],[-70.2707,43.57539],[-70.27055,43.57607]]]},"properties":{}},{"type":"Feature","geometry":{"type":"Polygon","coordinates":[[[-70.26613,43.57742],[-70.26921,43.57655],[-70.26943,43.57624],[-70.26739,43.57638],[-70.26613,43.57742]]]},"properties":{}},{"type":"Feature","geometry":{"type":"Polygon","coordinates":[[[-70.22533,43.64994],[-70.22952,43.65],[-70.2304,43.64874],[-70.23274,43.6495],[-70.23243,43.65],[-70.24331,43.64971],[-70.24294,43.6493],[-70.24474,43.64886],[-70.24428,43.64755],[-70.24584,43.64558],[-70.24806,43.64644],[-70.24811,43.64574],[-70.24883,43.64605],[-70.24729,43.64444],[-70.24775,43.64115],[-70.246,43.64063],[-70.24533,43.63918],[-70.24938,43.63657],[-70.24945,43.63816],[-70.25258,43.63974],[-70.25268,43.64044],[-70.25104,43.64132],[-70.25201,43.64086],[-70.25171,43.64171],[-70.25236,43.64219],[-70.25413,43.64194],[-70.25251,43.64309],[-70.25441,43.64301],[-70.2523,43.64425],[-70.25277,43.64483],[-70.25363,43.64494],[-70.25313,43.64445],[-70.25546,43.64267],[-70.25686,43.6438],[-70.25615,43.64177],[-70.2565,43.63971],[-70.25898,43.63937],[-70.25865,43.6374],[-70.25939,43.63644],[-70.25729,43.63467],[-70.25851,43.63378],[-70.26562,43.63383],[-70.26552,43.63806],[-70.2668,43.63879],[-70.26529,43.64062],[-70.27004,43.63821],[-70.27147,43.63412],[-70.275,43.6359],[-70.275,43.575],[-70.27219,43.575],[-70.27258,43.57575],[-70.27435,43.57505],[-70.27264,43.57592],[-70.27152,43.575],[-70.27098,43.57637],[-70.26372,43.57848],[-70.26377,43.57969],[-70.26262,43.58054],[-70.26307,43.58115],[-70.25961,43.58033],[-70.25726,43.58348],[-70.2553,43.5836],[-70.25528,43.58456],[-70.25638,43.5846],[-70.25694,43.58496],[-70.25663,43.58675],[-70.25801,43.58614],[-70.25868,43.58633],[-70.25899,43.58707],[-70.25781,43.58804],[-70.25894,43.58823],[-70.25876,43.58769],[-70.2597,43.58686],[-70.26135,43.5881],[-70.26218,43.58763],[-70.26231,43.58784],[-70.26189,43.58823],[-70.26275,43.58824],[-70.26287,43.58865],[-70.26175,43.58841],[-70.26211,43.58775],[-70.26123,43.58821],[-70.25975,43.58713],[-70.2591,43.58831],[-70.25777,43.58816],[-70.25751,43.58761],[-70.25876,43.58707],[-70.25857,43.58642],[-70.25639,43.58704],[-70.25668,43.58495],[-70.25597,43.58475],[-70.25435,43.58487],[-70.25501,43.58518],[-70.25425,43.58636],[-70.25361,43.5864],[-70.25319,43.58578],[-70.25243,43.58594],[-70.25185,43.58578],[-70.25236,43.58614],[-70.25233,43.58644],[-70.25147,43.58644],[-70.25095,43.58598],[-70.25002,43.58727],[-70.24978,43.58737],[-70.24965,43.58723],[-70.25088,43.58586],[-70.25217,43.58641],[-70.2516,43.5858],[-70.25189,43.58567],[-70.25246,43.58585],[-70.25322,43.58567],[-70.25423,43.58629],[-70.25385,43.58572],[-70.25482,43.58533],[-70.25408,43.5847],[-70.25506,43.58347],[-70.25702,43.58293],[-70.25898,43.58034],[-70.26249,43.5801],[-70.26306,43.57695],[-70.26451,43.57749],[-70.26757,43.57583],[-70.26702,43.57523],[-70.26816,43.57568],[-70.26998,43.575],[-70.20619,43.575],[-70.20778,43.57652],[-70.20813,43.57835],[-70.20412,43.5818],[-70.20424,43.58335],[-70.20525,43.58388],[-70.20175,43.58675],[-70.20331,43.58594],[-70.2039,43.58643],[-70.20318,43.58707],[-70.20538,43.58775],[-70.20458,43.58955],[-70.20612,43.58858],[-70.20994,43.58871],[-70.21263,43.59033],[-70.21453,43.59041],[-70.21631,43.59262],[-70.21472,43.59418],[-70.21525,43.59482],[-70.21332,43.59625],[-70.21418,43.59674],[-70.21563,43.59578],[-70.21769,43.59681],[-70.21661,43.59858],[-70.21682,43.59966],[-70.21438,43.60159],[-70.21523,43.60128],[-70.21482,43.60203],[-70.21604,43.60236],[-70.21353,43.60403],[-70.21458,43.6041],[-70.21377,43.60467],[-70.21525,43.60538],[-70.21434,43.60611],[-70.21627,43.6062],[-70.2152,43.6071],[-70.21613,43.60738],[-70.21559,43.60872],[-70.21621,43.60941],[-70.21428,43.60997],[-70.21373,43.60896],[-70.21186,43.61068],[-70.21163,43.6121],[-70.20966,43.61275],[-70.21104,43.61306],[-70.2107,43.61508],[-70.21118,43.61493],[-70.21017,43.6159],[-70.21073,43.61572],[-70.21049,43.61664],[-70.20915,43.61734],[-70.21,43.61952],[-70.2084,43.62025],[-70.20853,43.62161],[-70.20766,43.62191],[-70.20834,43.62257],[-70.20713,43.6231],[-70.20858,43.62336],[-70.20996,43.62561],[-70.21308,43.62541],[-70.2134,43.62598],[-70.21198,43.62732],[-70.21299,43.62787],[-70.21534,43.62896],[-70.21636,43.628],[-70.21841,43.62879],[-70.21981,43.63027],[-70.21917,43.63159],[-70.21967,43.63241],[-70.22207,43.63323],[-70.22271,43.63501],[-70.22211,43.63629],[-70.22307,43.63684],[-70.22244,43.63737],[-70.22253,43.63946],[-70.22356,43.63985],[-70.22409,43.6418],[-70.22576,43.64131],[-70.22736,43.64305],[-70.22745,43.64489],[-70.22512,43.64902],[-70.22533,43.64994]]]},"properties":{}},{"type":"Feature","geometry":{"type":"Polygon","coordinates":[[[-70.26314,43.5788],[-70.26283,43.57955],[-70.26316,43.57982],[-70.26345,43.5793],[-70.26314,43.5788]]]},"properties":{}},{"type":"Feature","geometry":{"type":"Polygon","coordinates":[[[-70.20253,43.64509],[-70.2,43.64586],[-70.2,43.63751],[-70.20688,43.63437],[-70.20666,43.6366],[-70.20534,43.63881],[-70.2095,43.64015],[-70.20971,43.64151],[-70.20688,43.6429],[-70.20685,43.64494],[-70.2035,43.64699],[-70.20253,43.64509]]]},"properties":{}},{"type":"Feature","geometry":{"type":"Polygon","coordinates":[[[-70.25607,43.65],[-70.25502,43.64916],[-70.25677,43.65],[-70.25607,43.65]]]},"properties":{}},{"type":"Feature","geometry":{"type":"Polygon","coordinates":[[[-70.25715,43.64898],[-70.25693,43.64958],[-70.2553,43.64897],[-70.25707,43.65],[-70.275,43.65],[-70.275,43.64202],[-70.26096,43.64413],[-70.25647,43.64793],[-70.25773,43.64871],[-70.25598,43.64837],[-70.25715,43.64898]],[[-70.25696,43.64775],[-70.25694,43.64801],[-70.25708,43.6478],[-70.25696,43.64775]],[[-70.2572,43.64753],[-70.25717,43.64772],[-70.25731,43.64759],[-70.2572,43.64753]]]},"properties":{}},{"type":"Feature","geometry":{"type":"Polygon","coordinates":[[[-70.19192,43.64653],[-70.19066,43.64637],[-70.1903,43.64518],[-70.2,43.63751],[-70.2,43.64586],[-70.19855,43.6455],[-70.19873,43.64464],[-70.1977,43.6443],[-70.19192,43.64653]]]},"properties":{}},{"type":"Feature","geometry":{"type":"Polygon","coordinates":[[[-70.18734,43.63489],[-70.18545,43.63702],[-70.18638,43.63835],[-70.18573,43.63904],[-70.18708,43.63894],[-70.18884,43.63673],[-70.18752,43.63657],[-70.18734,43.63489]]]},"properties":{}},{"type":"Feature","geometry":{"type":"Polygon","coordinates":[[[-70.125,43.64841],[-70.12413,43.64919],[-70.12306,43.65],[-70.12466,43.65],[-70.125,43.64841]]]},"properties":{}},{"type":"Feature","geometry":{"type":"Polygon","coordinates":[[[-70.275,43.65],[-70.275,43.66874],[-70.27723,43.66921],[-70.27732,43.67083],[-70.275,43.67645],[-70.275,43.725],[-70.35,43.725],[-70.35,43.65],[-70.29899,43.65],[-70.30288,43.65126],[-70.30499,43.65517],[-70.31078,43.65633],[-70.30893,43.65663],[-70.31114,43.65792],[-70.31217,43.65956],[-70.31118,43.66108],[-70.30953,43.66172],[-70.31004,43.66202],[-70.30772,43.66158],[-70.311,43.66069],[-70.31089,43.65875],[-70.30983,43.65908],[-70.3028,43.65664],[-70.29989,43.65251],[-70.29706,43.65229],[-70.29357,43.65065],[-70.29304,43.65137],[-70.29377,43.65225],[-70.29313,43.65253],[-70.29501,43.65299],[-70.29326,43.65277],[-70.29269,43.65205],[-70.29241,43.65104],[-70.2925,43.65],[-70.29056,43.65],[-70.28939,43.65199],[-70.28977,43.65],[-70.28811,43.65],[-70.28725,43.65099],[-70.2857,43.65],[-70.275,43.65]]]},"properties":{}},{"type":"Feature","geometry":{"type":"Polygon","coordinates":[[[-70.24251,43.66229],[-70.2416,43.66169],[-70.24224,43.66111],[-70.24087,43.66197],[-70.24241,43.66243],[-70.24134,43.66322],[-70.23991,43.66229],[-70.24075,43.66167],[-70.23921,43.66267],[-70.23984,43.66233],[-70.24044,43.66344],[-70.24136,43.66326],[-70.24229,43.66267],[-70.24251,43.66229]]]},"properties":{}},{"type":"Feature","geometry":{"type":"Polygon","coordinates":[[[-70.2,43.65198],[-70.2,43.65349],[-70.20055,43.65241],[-70.2,43.65198]]]},"properties":{}},{"type":"Feature","geometry":{"type":"Polygon","coordinates":[[[-70.21007,43.65246],[-70.20694,43.65339],[-70.20706,43.65543],[-70.20841,43.65521],[-70.2097,43.65289],[-70.21319,43.65203],[-70.21388,43.65004],[-70.21167,43.65],[-70.21007,43.65246]]]},"properties":{}},{"type":"Feature","geometry":{"type":"Polygon","coordinates":[[[-70.22821,43.65128],[-70.22789,43.65041],[-70.22641,43.65],[-70.22826,43.65],[-70.22821,43.65128]]]},"properties":{}},{"type":"Feature","geometry":{"type":"Polygon","coordinates":[[[-70.20117,43.67315],[-70.2,43.67174],[-70.2,43.68555],[-70.20203,43.68393],[-70.20447,43.68024],[-70.20506,43.67322],[-70.20367,43.67247],[-70.20117,43.67315]]]},"properties":{}},{"type":"Feature","geometry":{"type":"Polygon","coordinates":[[[-70.25577,43.6739],[-70.24944,43.67339],[-70.24287,43.67016],[-70.24145,43.67074],[-70.23851,43.66584],[-70.23946,43.66447],[-70.24596,43.66019],[-70.24484,43.65855],[-70.24659,43.65966],[-70.24846,43.65813],[-70.24598,43.65607],[-70.24666,43.65564],[-70.24969,43.6575],[-70.2482,43.656],[-70.25024,43.65667],[-70.24864,43.65549],[-70.25099,43.65623],[-70.24929,43.6549],[-70.25114,43.65592],[-70.25106,43.65435],[-70.25272,43.65567],[-70.25068,43.65338],[-70.25263,43.65435],[-70.25125,43.65283],[-70.25277,43.65383],[-70.25149,43.65253],[-70.25203,43.6522],[-70.25426,43.65421],[-70.25301,43.65279],[-70.2541,43.6519],[-70.25272,43.65097],[-70.25466,43.65165],[-70.25543,43.6512],[-70.25385,43.65],[-70.25672,43.65055],[-70.25607,43.65],[-70.275,43.65],[-70.275,43.66874],[-70.27062,43.66542],[-70.2689,43.66573],[-70.26605,43.66436],[-70.25983,43.6682],[-70.25682,43.67573],[-70.25568,43.6755],[-70.25577,43.6739]]]},"properties":{}},{"type":"Feature","geometry":{"type":"Polygon","coordinates":[[[-70.21539,43.69995],[-70.21671,43.69901],[-70.21605,43.69843],[-70.21508,43.69917],[-70.21539,43.69995]]]},"properties":{}},{"type":"Feature","geometry":{"type":"Polygon","coordinates":[[[-70.2215,43.66359],[-70.22073,43.6632],[-70.22256,43.66315],[-70.2215,43.66359]]]},"properties":{}},{"type":"Feature","geometry":{"type":"Polygon","coordinates":[[[-70.23436,43.6903],[-70.23082,43.69207],[-70.22786,43.69128],[-70.22643,43.68999],[-70.22852,43.68744],[-70.23266,43.68622],[-70.23628,43.6885],[-70.23517,43.69011],[-70.23696,43.69204],[-70.23436,43.6903]]]},"properties":{}},{"type":"Feature","geometry":{"type":"Polygon","coordinates":[[[-70.23544,43.65547],[-70.23212,43.65272],[-70.2327,43.65093],[-70.2305,43.65316],[-70.23243,43.65],[-70.2431,43.6503],[-70.23972,43.65279],[-70.23794,43.65308],[-70.23544,43.65547]]]},"properties":{}},{"type":"Feature","geometry":{"type":"Polygon","coordinates":[[[-70.21894,43.71995],[-70.21305,43.725],[-70.275,43.725],[-70.275,43.67645],[-70.27159,43.67973],[-70.26841,43.67848],[-70.26406,43.67934],[-70.25737,43.67844],[-70.25677,43.67694],[-70.25587,43.67721],[-70.25587,43.67835],[-70.25476,43.67703],[-70.25283,43.67807],[-70.25198,43.67723],[-70.25299,43.67888],[-70.25086,43.68123],[-70.25096,43.68336],[-70.25173,43.68399],[-70.25125,43.68549],[-70.24889,43.68707],[-70.24601,43.68728],[-70.2446,43.6886],[-70.24603,43.6898],[-70.2489,43.68828],[-70.25311,43.68924],[-70.25394,43.68838],[-70.25577,43.69125],[-70.25427,43.69475],[-70.25485,43.69584],[-70.25572,43.69554],[-70.25584,43.69987],[-70.25494,43.70121],[-70.2557,43.70102],[-70.25287,43.70352],[-70.25127,43.70789],[-70.25215,43.70982],[-70.2513,43.71125],[-70.25326,43.71253],[-70.2519,43.71432],[-70.25294,43.71486],[-70.25553,43.71409],[-70.25583,43.71475],[-70.25915,43.71327],[-70.25968,43.71376],[-70.25873,43.71456],[-70.26018,43.71606],[-70.26271,43.71565],[-70.26595,43.71673],[-70.26628,43.7176],[-70.25957,43.7166],[-70.25695,43.71706],[-70.2547,43.71626],[-70.25255,43.71699],[-70.25244,43.71546],[-70.2517,43.71501],[-70.24996,43.71634],[-70.25089,43.71513],[-70.24747,43.71482],[-70.24664,43.7153],[-70.24635,43.71855],[-70.2469,43.71891],[-70.24595,43.72022],[-70.24485,43.72112],[-70.24364,43.72129],[-70.24295,43.72121],[-70.24467,43.72107],[-70.24629,43.71942],[-70.24413,43.71854],[-70.24508,43.71627],[-70.24371,43.71473],[-70.24181,43.71429],[-70.24091,43.71268],[-70.24224,43.71198],[-70.24172,43.71112],[-70.2431,43.71012],[-70.24343,43.70789],[-70.24472,43.70769],[-70.24583,43.70596],[-70.24237,43.70395],[-70.2433,43.70283],[-70.24292,43.70156],[-70.24411,43.69989],[-70.24587,43.6992],[-70.24591,43.69839],[-70.24335,43.6958],[-70.24437,43.6929],[-70.24323,43.69421],[-70.23935,43.6945],[-70.23712,43.69225],[-70.23923,43.69476],[-70.23571,43.69795],[-70.23553,43.70079],[-70.23399,43.70295],[-70.23068,43.70488],[-70.22897,43.70416],[-70.22964,43.70378],[-70.22909,43.70287],[-70.22387,43.70284],[-70.21969,43.70396],[-70.21727,43.70587],[-70.2177,43.70685],[-70.21458,43.71125],[-70.21439,43.71281],[-70.21776,43.71106],[-70.21851,43.71166],[-70.21621,43.71543],[-70.21761,43.71509],[-70.21707,43.71713],[-70.21962,43.71514],[-70.22251,43.71611],[-70.2216,43.71778],[-70.22263,43.71899],[-70.22159,43.72112],[-70.22341,43.72143],[-70.22274,43.72343],[-70.22328,43.72425],[-70.22204,43.72491],[-70.22257,43.72439],[-70.22141,43.72339],[-70.22141,43.72201],[-70.21894,43.71995]]]},"properties":{}},{"type":"Feature","geometry":{"type":"Polygon","coordinates":[[[-70.22404,43.65213],[-70.22515,43.65016],[-70.22378,43.6522],[-70.22404,43.65213]]]},"properties":{}},{"type":"Feature","geometry":{"type":"Polygon","coordinates":[[[-70.20551,43.67073],[-70.20481,43.66891],[-70.20534,43.66786],[-70.20354,43.66716],[-70.20749,43.66542],[-70.21008,43.66292],[-70.21188,43.66353],[-70.21138,43.66404],[-70.21277,43.66529],[-70.21236,43.66618],[-70.21008,43.66782],[-70.20988,43.66889],[-70.20551,43.67073]]]},"properties":{}},{"type":"Feature","geometry":{"type":"Polygon","coordinates":[[[-70.187,43.67366],[-70.18263,43.67359],[-70.18193,43.67262],[-70.18301,43.67109],[-70.18206,43.67011],[-70.18364,43.66784],[-70.18273,43.66761],[-70.18292,43.66577],[-70.17976,43.66529],[-70.17989,43.66408],[-70.17723,43.66367],[-70.1762,43.66247],[-70.17858,43.65616],[-70.18391,43.65165],[-70.18913,43.65161],[-70.18993,43.65243],[-70.19185,43.65192],[-70.19378,43.65261],[-70.19491,43.65212],[-70.19433,43.65091],[-70.19486,43.65046],[-70.19545,43.65156],[-70.2,43.65198],[-70.2,43.65349],[-70.19891,43.65464],[-70.19908,43.6554],[-70.2,43.65534],[-70.19899,43.65654],[-70.19962,43.65697],[-70.19904,43.6576],[-70.19981,43.66228],[-70.19686,43.66319],[-70.19237,43.6693],[-70.18986,43.67005],[-70.187,43.67366]]]},"properties":{}},{"type":"Feature","geometry":{"type":"Polygon","coordinates":[[[-70.15415,43.67905],[-70.15235,43.67687],[-70.15413,43.67533],[-70.15618,43.67495],[-70.15672,43.67649],[-70.15479,43.6769],[-70.15466,43.67784],[-70.15553,43.67777],[-70.15415,43.67905]]]},"properties":{}},{"type":"Feature","geometry":{"type":"Polygon","coordinates":[[[-70.18266,43.67556],[-70.18171,43.67456],[-70.18318,43.67478],[-70.18266,43.67556]]]},"properties":{}},{"type":"Feature","geometry":{"type":"Polygon","coordinates":[[[-70.18635,43.68725],[-70.18708,43.68622],[-70.18743,43.68682],[-70.18635,43.68725]]]},"properties":{}},{"type":"Feature","geometry":{"type":"Polygon","coordinates":[[[-70.13834,43.7055],[-70.13928,43.70703],[-70.14084,43.70672],[-70.14191,43.70529],[-70.14398,43.70454],[-70.14551,43.70084],[-70.14811,43.69931],[-70.14789,43.69754],[-70.14898,43.69792],[-70.14896,43.69888],[-70.15017,43.69885],[-70.14988,43.69934],[-70.15121,43.69887],[-70.15536,43.69466],[-70.15883,43.69335],[-70.16116,43.69341],[-70.16142,43.69256],[-70.16616,43.69092],[-70.17005,43.68787],[-70.17284,43.6832],[-70.17212,43.68183],[-70.16794,43.67984],[-70.16873,43.67884],[-70.16737,43.67695],[-70.16867,43.67593],[-70.16532,43.6775],[-70.16296,43.67987],[-70.16155,43.67957],[-70.16202,43.6788],[-70.16009,43.67831],[-70.15799,43.68051],[-70.15532,43.68179],[-70.15274,43.68147],[-70.15163,43.68211],[-70.15377,43.68259],[-70.15395,43.68416],[-70.15476,43.68464],[-70.153,43.68513],[-70.15441,43.68644],[-70.15096,43.68828],[-70.15151,43.68938],[-70.15076,43.69058],[-70.1521,43.69094],[-70.15196,43.69181],[-70.14858,43.69089],[-70.14904,43.68925],[-70.14756,43.68981],[-70.14772,43.69057],[-70.14697,43.69042],[-70.14787,43.69104],[-70.14602,43.69105],[-70.14379,43.69454],[-70.14048,43.69645],[-70.14032,43.69814],[-70.13865,43.70037],[-70.13438,43.70196],[-70.13425,43.70256],[-70.13832,43.70395],[-70.13834,43.7055]]]},"properties":{}},{"type":"Feature","geometry":{"type":"Polygon","coordinates":[[[-70.16596,43.67515],[-70.16642,43.67385],[-70.16905,43.67273],[-70.16773,43.67446],[-70.16596,43.67515]]]},"properties":{}},{"type":"Feature","geometry":{"type":"Polygon","coordinates":[[[-70.12822,43.70817],[-70.125,43.70951],[-70.125,43.7125],[-70.12745,43.71152],[-70.12858,43.70933],[-70.12822,43.70817]]]},"properties":{}},{"type":"Feature","geometry":{"type":"Polygon","coordinates":[[[-70.125,43.71299],[-70.125,43.71751],[-70.1266,43.71442],[-70.12552,43.71436],[-70.12546,43.71354],[-70.12644,43.7135],[-70.125,43.71299]]]},"properties":{}},{"type":"Feature","geometry":{"type":"Polygon","coordinates":[[[-70.12801,43.72049],[-70.125,43.71955],[-70.125,43.725],[-70.13854,43.725],[-70.13769,43.72414],[-70.13834,43.72313],[-70.13772,43.72163],[-70.13951,43.72095],[-70.14024,43.72228],[-70.14103,43.72179],[-70.14082,43.7206],[-70.13729,43.72075],[-70.1356,43.71897],[-70.13308,43.71843],[-70.13162,43.71843],[-70.12801,43.72049]]]},"properties":{}},{"type":"Feature","geometry":{"type":"Polygon","coordinates":[[[-70.19226,43.71587],[-70.19065,43.7164],[-70.19115,43.71709],[-70.19016,43.71888],[-70.18621,43.72166],[-70.18614,43.72319],[-70.18921,43.72199],[-70.19031,43.71927],[-70.19257,43.71658],[-70.19411,43.71688],[-70.1951,43.71603],[-70.19543,43.71385],[-70.19383,43.7138],[-70.19226,43.71587]]]},"properties":{}},{"type":"Feature","geometry":{"type":"Polygon","coordinates":[[[-70.1835,43.69162],[-70.18266,43.69335],[-70.18408,43.69406],[-70.18982,43.68997],[-70.1835,43.69162]]]},"properties":{}},{"type":"Feature","geometry":{"type":"Polygon","coordinates":[[[-70.19106,43.68882],[-70.19104,43.68793],[-70.18938,43.68776],[-70.18956,43.68699],[-70.19268,43.68454],[-70.19318,43.68208],[-70.19162,43.68218],[-70.18971,43.68419],[-70.18792,43.68429],[-70.18799,43.6805],[-70.19382,43.67378],[-70.19563,43.67271],[-70.19682,43.67338],[-70.19862,43.67277],[-70.19967,43.6722],[-70.19917,43.67153],[-70.19991,43.67073],[-70.19985,43.68601],[-70.19824,43.68717],[-70.19707,43.68704],[-70.19635,43.68848],[-70.19106,43.68882]]]},"properties":{}},{"type":"Feature","geometry":{"type":"Polygon","coordinates":[[[-70.1481,43.68311],[-70.14677,43.68357],[-70.14637,43.68396],[-70.14771,43.6835],[-70.1481,43.68311]]]},"properties":{}},{"type":"Feature","geometry":{"type":"Polygon","coordinates":[[[-70.14474,43.71257],[-70.1424,43.71557],[-70.14912,43.71459],[-70.15619,43.71077],[-70.15464,43.71031],[-70.15299,43.7112],[-70.15046,43.71025],[-70.14863,43.70839],[-70.1466,43.70858],[-70.14474,43.71257]]]},"properties":{}}]}