{"type":"FeatureCollection","features":[{"type":"Feature","geometry":{"type":"Point","coordinates":[-70.165419053309,43.5277521885499]},"properties":{"objtype":"SEAARE","label":"sea area","name":"West Hue and Cry","name_lower":"west hue and cry","chart":"US5PWMBD"}},{"type":"Feature","geometry":{"type":"Point","coordinates":[-70.14838177162244,43.532253845589885]},"properties":{"objtype":"SEAARE","label":"sea area","name":"East Hue and Cry","name_lower":"east hue and cry","chart":"US5PWMBD"}},{"type":"Feature","geometry":{"type":"Point","coordinates":[-70.16111070474837,43.549203595244784]},"properties":{"objtype":"SEAARE","label":"sea area","name":"Alden Rock","name_lower":"alden rock","chart":"US5PWMBD"}},{"type":"Feature","geometry":{"type":"Point","coordinates":[-70.19871925240322,43.570557158245876]},"properties":{"objtype":"SEAARE","label":"sea area","name":"Staples Cove","name_lower":"staples cove","chart":"US5PWMBD"}},{"type":"Feature","geometry":{"type":"Point","coordinates":[-70.15193688411664,43.53392392071135]},"properties":{"objtype":"SEAARE","label":"sea area","name":"West Cod Ledge","name_lower":"west cod ledge","chart":"US5PWMBD"}},{"type":"Feature","geometry":{"type":"Point","coordinates":[-70.16239419643566,43.547417255201]},"properties":{"objtype":"SEAARE","label":"sea area","name":"Casco Bay","name_lower":"casco bay","chart":"US5PWMBD"}},{"type":"Feature","geometry":{"type":"Point","coordinates":[-70.19711238167497,43.56727058746762]},"properties":{"objtype":"SEAARE","label":"sea area","name":"Dyer Cove","name_lower":"dyer cove","chart":"US5PWMBD"}},{"type":"Feature","geometry":{"type":"Point","coordinates":[-70.19173421941642,43.557186496607216]},"properties":{"objtype":"SEAARE","label":"sea area","name":"Taylor Reef","name_lower":"taylor reef","chart":"US5PWMBD"}},{"type":"Feature","geometry":{"type":"Point","coordinates":[-70.16153867531114,43.52438349066694]},"properties":{"objtype":"SEAARE","label":"sea area","name":"Bigelow Bight","name_lower":"bigelow bight","chart":"US5PWMBD"}},{"type":"Feature","geometry":{"type":"Point","coordinates":[-70.19778591235901,43.569059321211554]},"properties":{"objtype":"LNDRGN","label":"coastal feature","name":"Staples Point","name_lower":"staples point","chart":"US5PWMBD"}},{"type":"Feature","geometry":{"type":"Point","coordinates":[-70.19985113627051,43.57165190152489]},"properties":{"objtype":"LNDRGN","label":"coastal feature","name":"Maxwell Point","name_lower":"maxwell point","chart":"US5PWMBD"}},{"type":"Feature","geometry":{"type":"Point","coordinates":[-70.1971902262578,43.56520926992993]},"properties":{"objtype":"LNDRGN","label":"coastal feature","name":"Dyer Point","name_lower":"dyer point","chart":"US5PWMBD"}},{"type":"Feature","geometry":{"type":"Point","coordinates":[-70.19887722571036,43.566087880805235]},"properties":{"objtype":"BUAARE","label":"town","name":"Cape Elizabeth","name_lower":"cape elizabeth","chart":"US5PWMBD"}},{"type":"Feature","geometry":{"type":"Point","coordinates":[-70.30105734823125,43.637068249297585]},"properties":{"objtype":"SEAARE","label":"sea area","name":"Long Creek","name_lower":"long creek","chart":"US5PWMCB"}},{"type":"Feature","geometry":{"type":"Point","coordinates":[-70.28617992156671,43.64385783595422]},"properties":{"objtype":"SEAARE","label":"sea area","name":"Fore River","name_lower":"fore river","chart":"US5PWMCB"}},{"type":"Feature","geometry":{"type":"Point","coordinates":[-70.29183666821824,43.64944111746542]},"properties":{"objtype":"LNDRGN","label":"coastal feature","name":"Thompson Point","name_lower":"thompson point","chart":"US5PWMCB"}},{"type":"Feature","geometry":{"type":"Point","coordinates":[-70.305857,43.625193]},"properties":{"objtype":"LNDRGN","label":"coastal feature","name":"Sandy Hill","name_lower":"sandy hill","chart":"US5PWMCB"}},{"type":"Feature","geometry":{"type":"Point","coordinates":[-70.2856299,43.6309442]},"properties":{"objtype":"LNDRGN","label":"coastal feature","name":"Browns Hill","name_lower":"browns hill","chart":"US5PWMCB"}},{"type":"Feature","geometry":{"type":"Point","coordinates":[-70.2786949,43.6182903]},"properties":{"objtype":"LNDRGN","label":"coastal feature","name":"Broadview Park","name_lower":"broadview park","chart":"US5PWMCB"}},{"type":"Feature","geometry":{"type":"Point","coordinates":[-70.27902726062676,43.63966993172107]},"properties":{"objtype":"FAIRWY","label":"channel","name":"Portland Harbor Channel","name_lower":"portland harbor channel","chart":"US5PWMCB"}},{"type":"Feature","geometry":{"type":"Point","coordinates":[-70.29283031851041,43.62767402990459]},"properties":{"objtype":"BUAARE","label":"town","name":"Portland","name_lower":"portland","chart":"US5PWMCB"}},{"type":"Feature","geometry":{"type":"Point","coordinates":[-70.3088484,43.6227595]},"properties":{"objtype":"BUAARE","label":"town","name":"Thornton Heights","name_lower":"thornton heights","chart":"US5PWMCB"}},{"type":"Feature","geometry":{"type":"Point","coordinates":[-70.2897924,43.6306845]},"properties":{"objtype":"BUAARE","label":"town","name":"Cash Corner","name_lower":"cash corner","chart":"US5PWMCB"}},{"type":"Feature","geometry":{"type":"Point","coordinates":[-70.2898125,43.6380002]},"properties":{"objtype":"BUAARE","label":"town","name":"Ligonia","name_lower":"ligonia","chart":"US5PWMCB"}},{"type":"Feature","geometry":{"type":"Point","coordinates":[-70.24432586933354,43.64975609748439]},"properties":{"objtype":"SEAARE","label":"sea area","name":"Portland Harbor Portland Maine Anchorage Area","name_lower":"portland harbor portland maine anchorage area","chart":"US5PWMCC"}},{"type":"Feature","geometry":{"type":"Point","coordinates":[-70.21140627454885,43.62633496099869]},"properties":{"objtype":"SEAARE","label":"sea area","name":"Ship Cove","name_lower":"ship cove","chart":"US5PWMCC"}},{"type":"Feature","geometry":{"type":"Point","coordinates":[-70.21372709388031,43.59385162896788]},"properties":{"objtype":"SEAARE","label":"sea area","name":"Spring Cove","name_lower":"spring cove","chart":"US5PWMCC"}},{"type":"Feature","geometry":{"type":"Point","coordinates":[-70.21384195082747,43.60436090715521]},"properties":{"objtype":"SEAARE","label":"sea area","name":"Smugglers Cove","name_lower":"smugglers cove","chart":"US5PWMCC"}},{"type":"Feature","geometry":{"type":"Point","coordinates":[-70.20823277174549,43.6467751409968]},"properties":{"objtype":"SEAARE","label":"sea area","name":"Portland Harbor Maine Anchorage Area C","name_lower":"portland harbor maine anchorage area c","chart":"US5PWMCC"}},{"type":"Feature","geometry":{"type":"Point","coordinates":[-70.21395145787302,43.64966825268184]},"properties":{"objtype":"SEAARE","label":"sea area","name":"Portland Harbor Maine Anchorage Area B","name_lower":"portland harbor maine anchorage area b","chart":"US5PWMCC"}},{"type":"Feature","geometry":{"type":"Point","coordinates":[-70.21587957280711,43.597456445024015]},"properties":{"objtype":"SEAARE","label":"sea area","name":"Zeb Cove","name_lower":"zeb cove","chart":"US5PWMCC"}},{"type":"Feature","geometry":{"type":"Point","coordinates":[-70.21752666413884,43.62994578827609]},"properties":{"objtype":"SEAARE","label":"sea area","name":"Maiden Cove","name_lower":"maiden cove","chart":"US5PWMCC"}},{"type":"Feature","geometry":{"type":"Point","coordinates":[-70.22584152656565,43.64380215618886]},"properties":{"objtype":"SEAARE","label":"sea area","name":"Simonton Cove","name_lower":"simonton cove","chart":"US5PWMCC"}},{"type":"Feature","geometry":{"type":"Point","coordinates":[-70.20146883589759,43.647510926231405]},"properties":{"objtype":"SEAARE","label":"sea area","name":"Whitehead Passage","name_lower":"whitehead passage","chart":"US5PWMCC"}},{"type":"Feature","geometry":{"type":"Point","coordinates":[-70.26218698595684,43.58062160976607]},"properties":{"objtype":"SEAARE","label":"sea area","name":"Spurwink River","name_lower":"spurwink river","chart":"US5PWMCC"}},{"type":"Feature","geometry":{"type":"Point","coordinates":[-70.21496735123227,43.60866533674842]},"properties":{"objtype":"SEAARE","label":"sea area","name":"Pond Cove","name_lower":"pond cove","chart":"US5PWMCC"}},{"type":"Feature","geometry":{"type":"Point","coordinates":[-70.20314782945661,43.579880757940764]},"properties":{"objtype":"SEAARE","label":"sea area","name":"Broad Cove","name_lower":"broad cove","chart":"US5PWMCC"}},{"type":"Feature","geometry":{"type":"Point","coordinates":[-70.22137001106137,43.63325373278717]},"properties":{"objtype":"SEAARE","label":"sea area","name":"Danford Cove","name_lower":"danford cove","chart":"US5PWMCC"}},{"type":"Feature","geometry":{"type":"Point","coordinates":[-70.2020607747538,43.64609408525617]},"properties":{"objtype":"SEAARE","label":"sea area","name":"Spicers Cove","name_lower":"spicers cove","chart":"US5PWMCC"}},{"type":"Feature","geometry":{"type":"Point","coordinates":[-70.21353920167059,43.59130659214261]},"properties":{"objtype":"SEAARE","label":"sea area","name":"Boat Cove","name_lower":"boat cove","chart":"US5PWMCC"}},{"type":"Feature","geometry":{"type":"Point","coordinates":[-70.26785413398694,43.63682137261313]},"properties":{"objtype":"LNDRGN","label":"coastal feature","name":"Turner Island","name_lower":"turner island","chart":"US5PWMCC"}},{"type":"Feature","geometry":{"type":"Point","coordinates":[-70.21095840649976,43.62387994064104]},"properties":{"objtype":"LNDRGN","label":"coastal feature","name":"Portland Head","name_lower":"portland head","chart":"US5PWMCC"}},{"type":"Feature","geometry":{"type":"Point","coordinates":[-70.20263743770487,43.58606188950879]},"properties":{"objtype":"LNDRGN","label":"coastal feature","name":"Trundy Point","name_lower":"trundy point","chart":"US5PWMCC"}},{"type":"Feature","geometry":{"type":"Point","coordinates":[-70.225583475186,43.64959259552199]},"properties":{"objtype":"LNDRGN","label":"coastal feature","name":"Spring Point","name_lower":"spring point","chart":"US5PWMCC"}},{"type":"Feature","geometry":{"type":"Point","coordinates":[-70.20492756374033,43.638918122361765]},"properties":{"objtype":"LNDRGN","label":"coastal feature","name":"Big Beach","name_lower":"big beach","chart":"US5PWMCC"}},{"type":"Feature","geometry":{"type":"Point","coordinates":[-70.20609284654309,43.64370967435483]},"properties":{"objtype":"LNDRGN","label":"coastal feature","name":"Little Beach","name_lower":"little beach","chart":"US5PWMCC"}},{"type":"Feature","geometry":{"type":"Point","coordinates":[-70.20544101835571,43.5886177596025]},"properties":{"objtype":"LNDRGN","label":"coastal feature","name":"Peabbles Point","name_lower":"peabbles point","chart":"US5PWMCC"}},{"type":"Feature","geometry":{"type":"Point","coordinates":[-70.202636209825,43.57514834795501]},"properties":{"objtype":"LNDRGN","label":"coastal feature","name":"Hunts Point","name_lower":"hunts point","chart":"US5PWMCC"}},{"type":"Feature","geometry":{"type":"Point","coordinates":[-70.22816018500973,43.64430354888825]},"properties":{"objtype":"LNDRGN","label":"coastal feature","name":"Willard Beach","name_lower":"willard beach","chart":"US5PWMCC"}},{"type":"Feature","geometry":{"type":"Point","coordinates":[-70.216652,43.5793012]},"properties":{"objtype":"LNDRGN","label":"coastal feature","name":"Shore Acres Hill","name_lower":"shore acres hill","chart":"US5PWMCC"}},{"type":"Feature","geometry":{"type":"Point","coordinates":[-70.210016,43.6219191]},"properties":{"objtype":"LNDRGN","label":"coastal feature","name":"Fort Williams","name_lower":"fort williams","chart":"US5PWMCC"}},{"type":"Feature","geometry":{"type":"Point","coordinates":[-70.2372742,43.5947572]},"properties":{"objtype":"LNDRGN","label":"coastal feature","name":"Elizabeth Park","name_lower":"elizabeth park","chart":"US5PWMCC"}},{"type":"Feature","geometry":{"type":"Point","coordinates":[-70.2721488,43.6207533]},"properties":{"objtype":"LNDRGN","label":"coastal feature","name":"Stanwood Park","name_lower":"stanwood park","chart":"US5PWMCC"}},{"type":"Feature","geometry":{"type":"Point","coordinates":[-70.2172556,43.6184333]},"properties":{"objtype":"LNDRGN","label":"coastal feature","name":"Delano Park","name_lower":"delano park","chart":"US5PWMCC"}},{"type":"Feature","geometry":{"type":"Point","coordinates":[-70.21281780583766,43.64963175157224]},"properties":{"objtype":"LNDARE","label":"island","name":"House Island","name_lower":"house island","chart":"US5PWMCC"}},{"type":"Feature","geometry":{"type":"Point","coordinates":[-70.20813646269366,43.59030125625477]},"properties":{"objtype":"LNDARE","label":"island","name":"Whale Back","name_lower":"whale back","chart":"US5PWMCC"}},{"type":"Feature","geometry":{"type":"Point","coordinates":[-70.20387669008645,43.64093958662848]},"properties":{"objtype":"LNDARE","label":"island","name":"Cushing Island","name_lower":"cushing island","chart":"US5PWMCC"}},{"type":"Feature","geometry":{"type":"Point","coordinates":[-70.21459329304425,43.59172746152862]},"properties":{"objtype":"LNDARE","label":"island","name":"Pulpit Rock","name_lower":"pulpit rock","chart":"US5PWMCC"}},{"type":"Feature","geometry":{"type":"Point","coordinates":[-70.2373629,43.6491558]},"properties":{"objtype":"BUAARE","label":"town","name":"South Portland","name_lower":"south portland","chart":"US5PWMCC"}},{"type":"Feature","geometry":{"type":"Point","coordinates":[-70.2283887,43.6468422]},"properties":{"objtype":"BUAARE","label":"town","name":"Fort Preble","name_lower":"fort preble","chart":"US5PWMCC"}},{"type":"Feature","geometry":{"type":"Point","coordinates":[-70.219067,43.6259661]},"properties":{"objtype":"BUAARE","label":"town","name":"Cape Cottage","name_lower":"cape cottage","chart":"US5PWMCC"}},{"type":"Feature","geometry":{"type":"Point","coordinates":[-70.2639605,43.627868]},"properties":{"objtype":"BUAARE","label":"town","name":"Pleasantdale","name_lower":"pleasantdale","chart":"US5PWMCC"}},{"type":"Feature","geometry":{"type":"Point","coordinates":[-70.2546459,43.6376268]},"properties":{"objtype":"BUAARE","label":"town","name":"Knightville","name_lower":"knightville","chart":"US5PWMCC"}},{"type":"Feature","geometry":{"type":"Point","coordinates":[-70.18650151402079,43.63262836828625]},"properties":{"objtype":"SEAARE","label":"sea area","name":"Ram Island Ledge","name_lower":"ram island ledge","chart":"US5PWMCD"}},{"type":"Feature","geometry":{"type":"Point","coordinates":[-70.19776465291683,43.58899494796011]},"properties":{"objtype":"SEAARE","label":"sea area","name":"Trundy Reef","name_lower":"trundy reef","chart":"US5PWMCD"}},{"type":"Feature","geometry":{"type":"Point","coordinates":[-70.18664528086974,43.61731442739172]},"properties":{"objtype":"SEAARE","label":"sea area","name":"Jordan Reef","name_lower":"jordan reef","chart":"US5PWMCD"}},{"type":"Feature","geometry":{"type":"Point","coordinates":[-70.18000190052844,43.611697891183795]},"properties":{"objtype":"SEAARE","label":"sea area","name":"Pine Tree Ledge","name_lower":"pine tree ledge","chart":"US5PWMCD"}},{"type":"Feature","geometry":{"type":"Point","coordinates":[-70.1916111802256,43.64572179095099]},"properties":{"objtype":"LNDRGN","label":"coastal feature","name":"White Head","name_lower":"white head","chart":"US5PWMCD"}},{"type":"Feature","geometry":{"type":"Point","coordinates":[-70.18695108558413,43.637094409726295]},"properties":{"objtype":"LNDARE","label":"island","name":"Ram Island","name_lower":"ram island","chart":"US5PWMCD"}},{"type":"Feature","geometry":{"type":"Point","coordinates":[-70.19902622637683,43.64991742389992]},"properties":{"objtype":"LNDARE","label":"island","name":"Catnip Island","name_lower":"catnip island","chart":"US5PWMCD"}},{"type":"Feature","geometry":{"type":"Point","coordinates":[-70.12501189999999,43.64841313333333]},"properties":{"objtype":"LNDARE","label":"island","name":"Outer Green Island","name_lower":"outer green island","chart":"US5PWMCD"}},{"type":"Feature","geometry":{"type":"Point","coordinates":[-70.07119289420245,43.60134485411504]},"properties":{"objtype":"SEAARE","label":"sea area","name":"Bulwark Shoal","name_lower":"bulwark shoal","chart":"US5PWMCE"}},{"type":"Feature","geometry":{"type":"Point","coordinates":[-70.11359850127276,43.64926493986769]},"properties":{"objtype":"SEAARE","label":"sea area","name":"Green Island Passage","name_lower":"green island passage","chart":"US5PWMCE"}},{"type":"Feature","geometry":{"type":"Point","coordinates":[-70.12197395098556,43.64750543483684]},"properties":{"objtype":"LNDARE","label":"island","name":"Junk of Pork","name_lower":"junk of pork","chart":"US5PWMCE"}},{"type":"Feature","geometry":{"type":"Point","coordinates":[-70.27580937435361,43.671725003444855]},"properties":{"objtype":"SEAARE","label":"sea area","name":"Back Cove","name_lower":"back cove","chart":"US5PWMDB"}},{"type":"Feature","geometry":{"type":"Point","coordinates":[-70.2856859,43.6871476]},"properties":{"objtype":"LNDRGN","label":"coastal feature","name":"Rocky Hill","name_lower":"rocky hill","chart":"US5PWMDB"}},{"type":"Feature","geometry":{"type":"Point","coordinates":[-70.3100558,43.6555578]},"properties":{"objtype":"BUAARE","label":"town","name":"Stroudwater","name_lower":"stroudwater","chart":"US5PWMDB"}},{"type":"Feature","geometry":{"type":"Point","coordinates":[-70.2800557,43.6641154]},"properties":{"objtype":"BUAARE","label":"town","name":"Oakdale","name_lower":"oakdale","chart":"US5PWMDB"}},{"type":"Feature","geometry":{"type":"Point","coordinates":[-70.2873594,43.6698468]},"properties":{"objtype":"BUAARE","label":"town","name":"Woodfords","name_lower":"woodfords","chart":"US5PWMDB"}},{"type":"Feature","geometry":{"type":"Point","coordinates":[-70.2942253,43.6594335]},"properties":{"objtype":"BUAARE","label":"town","name":"Bradley Corner","name_lower":"bradley corner","chart":"US5PWMDB"}},{"type":"Feature","geometry":{"type":"Point","coordinates":[-70.2860899,43.6572592]},"properties":{"objtype":"BUAARE","label":"town","name":"Libbys Corner","name_lower":"libbys corner","chart":"US5PWMDB"}},{"type":"Feature","geometry":{"type":"Point","coordinates":[-70.2973057,43.6661605]},"properties":{"objtype":"BUAARE","label":"town","name":"Brighton Corner","name_lower":"brighton corner","chart":"US5PWMDB"}},{"type":"Feature","geometry":{"type":"Point","coordinates":[-70.2838558,43.7006396]},"properties":{"objtype":"BUAARE","label":"town","name":"North Deering","name_lower":"north deering","chart":"US5PWMDB"}},{"type":"Feature","geometry":{"type":"Point","coordinates":[-70.24494959187678,43.720610582941]},"properties":{"objtype":"SEAARE","label":"sea area","name":"Scitterygusset Creek","name_lower":"scitterygusset creek","chart":"US5PWMDC"}},{"type":"Feature","geometry":{"type":"Point","coordinates":[-70.24949756836754,43.703087806136004]},"properties":{"objtype":"SEAARE","label":"sea area","name":"Presumpscot River","name_lower":"presumpscot river","chart":"US5PWMDC"}},{"type":"Feature","geometry":{"type":"Point","coordinates":[-70.20363495738277,43.6649885472541]},"properties":{"objtype":"SEAARE","label":"sea area","name":"Diamond Island Pass","name_lower":"diamond island pass","chart":"US5PWMDC"}},{"type":"Feature","geometry":{"type":"Point","coordinates":[-70.20816736072284,43.71928113641428]},"properties":{"objtype":"SEAARE","label":"sea area","name":"Prince Point Ledge","name_lower":"prince point ledge","chart":"US5PWMDC"}},{"type":"Feature","geometry":{"type":"Point","coordinates":[-70.22004783626653,43.71885882124804]},"properties":{"objtype":"SEAARE","label":"sea area","name":"Mussel Cove","name_lower":"mussel cove","chart":"US5PWMDC"}},{"type":"Feature","geometry":{"type":"Point","coordinates":[-70.20041458388299,43.71551080986536]},"properties":{"objtype":"SEAARE","label":"sea area","name":"Jones Ledge","name_lower":"jones ledge","chart":"US5PWMDC"}},{"type":"Feature","geometry":{"type":"Point","coordinates":[-70.20422483905514,43.72497689864553]},"properties":{"objtype":"SEAARE","label":"sea area","name":"York Ledge","name_lower":"york ledge","chart":"US5PWMDC"}},{"type":"Feature","geometry":{"type":"Point","coordinates":[-70.20033749768044,43.71179925352674]},"properties":{"objtype":"SEAARE","label":"sea area","name":"Lower Clapboard Island Ledge","name_lower":"lower clapboard island ledge","chart":"US5PWMDC"}},{"type":"Feature","geometry":{"type":"Point","coordinates":[-70.23087588977654,43.66563015520445]},"properties":{"objtype":"SEAARE","label":"sea area","name":"Portland Harbor Maine Anchorage Area A","name_lower":"portland harbor maine anchorage area a","chart":"US5PWMDC"}},{"type":"Feature","geometry":{"type":"Point","coordinates":[-70.22092650241682,43.664416195013544]},"properties":{"objtype":"SEAARE","label":"sea area","name":"Diamond Island Ledge","name_lower":"diamond island ledge","chart":"US5PWMDC"}},{"type":"Feature","geometry":{"type":"Point","coordinates":[-70.20219474368307,43.671829122090195]},"properties":{"objtype":"SEAARE","label":"sea area","name":"Lamson Cove","name_lower":"lamson cove","chart":"US5PWMDC"}},{"type":"Feature","geometry":{"type":"Point","coordinates":[-70.21569681066714,43.658069148358585]},"properties":{"objtype":"SEAARE","label":"sea area","name":"Diamond Island Roads","name_lower":"diamond island roads","chart":"US5PWMDC"}},{"type":"Feature","geometry":{"type":"Point","coordinates":[-70.21253929231474,43.714184112908654]},"properties":{"objtype":"SEAARE","label":"sea area","name":"Casco Bay Maine Anchorage Area","name_lower":"casco bay maine anchorage area","chart":"US5PWMDC"}},{"type":"Feature","geometry":{"type":"Point","coordinates":[-70.24654036016175,43.68839704788388]},"properties":{"objtype":"LNDRGN","label":"coastal feature","name":"Martin Point","name_lower":"martin point","chart":"US5PWMDC"}},{"type":"Feature","geometry":{"type":"Point","coordinates":[-70.21504389622687,43.71180449109776]},"properties":{"objtype":"LNDRGN","label":"coastal feature","name":"Prince Point","name_lower":"prince point","chart":"US5PWMDC"}},{"type":"Feature","geometry":{"type":"Point","coordinates":[-70.23867066517357,43.666064287447526]},"properties":{"objtype":"LNDRGN","label":"coastal feature","name":"Fish Point","name_lower":"fish point","chart":"US5PWMDC"}},{"type":"Feature","geometry":{"type":"Point","coordinates":[-70.2172426211958,43.716860781347776]},"properties":{"objtype":"LNDRGN","label":"coastal feature","name":"Bartlett Point","name_lower":"bartlett point","chart":"US5PWMDC"}},{"type":"Feature","geometry":{"type":"Point","coordinates":[-70.24325836920552,43.69432356969844]},"properties":{"objtype":"LNDRGN","label":"coastal feature","name":"Mackworth Point","name_lower":"mackworth point","chart":"US5PWMDC"}},{"type":"Feature","geometry":{"type":"Point","coordinates":[-70.20018574795384,43.65257620554102]},"properties":{"objtype":"LNDRGN","label":"coastal feature","name":"Brackett Point","name_lower":"brackett point","chart":"US5PWMDC"}},{"type":"Feature","geometry":{"type":"Point","coordinates":[-70.2650586,43.6966033]},"properties":{"objtype":"LNDRGN","label":"coastal feature","name":"Graves Hill","name_lower":"graves hill","chart":"US5PWMDC"}},{"type":"Feature","geometry":{"type":"Point","coordinates":[-70.2174375,43.7060481]},"properties":{"objtype":"LNDRGN","label":"coastal feature","name":"Waites Landing","name_lower":"waites landing","chart":"US5PWMDC"}},{"type":"Feature","geometry":{"type":"Point","coordinates":[-70.268964,43.7123341]},"properties":{"objtype":"LNDRGN","label":"coastal feature","name":"Pleasant Hill","name_lower":"pleasant hill","chart":"US5PWMDC"}},{"type":"Feature","geometry":{"type":"Point","coordinates":[-70.23326077430936,43.668303193735596]},"properties":{"objtype":"FAIRWY","label":"channel","name":"Portland Harbor Back Cove Channel","name_lower":"portland harbor back cove channel","chart":"US5PWMDC"}},{"type":"Feature","geometry":{"type":"Point","coordinates":[-70.21586727378138,43.657911149982205]},"properties":{"objtype":"FAIRWY","label":"channel","name":"House Island Anchorage","name_lower":"house island anchorage","chart":"US5PWMDC"}},{"type":"Feature","geometry":{"type":"Point","coordinates":[-70.20018574795384,43.65257620554102]},"properties":{"objtype":"LNDARE","label":"island","name":"Peaks Island","name_lower":"peaks island","chart":"US5PWMDC"}},{"type":"Feature","geometry":{"type":"Point","coordinates":[-70.20212294337416,43.67795453017755]},"properties":{"objtype":"LNDARE","label":"island","name":"Great Diamond Island","name_lower":"great diamond island","chart":"US5PWMDC"}},{"type":"Feature","geometry":{"type":"Point","coordinates":[-70.2314612666204,43.689120039572124]},"properties":{"objtype":"LNDARE","label":"island","name":"Mackworth Island","name_lower":"mackworth island","chart":"US5PWMDC"}},{"type":"Feature","geometry":{"type":"Point","coordinates":[-70.20836818213884,43.666893308358546]},"properties":{"objtype":"LNDARE","label":"island","name":"Little Diamond Island","name_lower":"little diamond island","chart":"US5PWMDC"}},{"type":"Feature","geometry":{"type":"Point","coordinates":[-70.2271663734922,43.68116689581311]},"properties":{"objtype":"LNDARE","label":"island","name":"Halfway Rock","name_lower":"halfway rock","chart":"US5PWMDC"}},{"type":"Feature","geometry":{"type":"Point","coordinates":[-70.2362434,43.6699921]},"properties":{"objtype":"LNDARE","label":"island","name":"Pomroy Rock","name_lower":"pomroy rock","chart":"US5PWMDC"}},{"type":"Feature","geometry":{"type":"Point","coordinates":[-70.2570687,43.6813454]},"properties":{"objtype":"BUAARE","label":"town","name":"East Deering","name_lower":"east deering","chart":"US5PWMDC"}},{"type":"Feature","geometry":{"type":"Point","coordinates":[-70.2123571,43.6509317]},"properties":{"objtype":"BUAARE","label":"town","name":"Fort Scammel","name_lower":"fort scammel","chart":"US5PWMDC"}},{"type":"Feature","geometry":{"type":"Point","coordinates":[-70.18771102905849,43.705214848567024]},"properties":{"objtype":"SEAARE","label":"sea area","name":"Cow Island Ledge","name_lower":"cow island ledge","chart":"US5PWMDD"}},{"type":"Feature","geometry":{"type":"Point","coordinates":[-70.15023483500573,43.69006950604341]},"properties":{"objtype":"SEAARE","label":"sea area","name":"Harbor Grace","name_lower":"harbor grace","chart":"US5PWMDD"}},{"type":"Feature","geometry":{"type":"Point","coordinates":[-70.15770772917752,43.695019373996885]},"properties":{"objtype":"SEAARE","label":"sea area","name":"Dorseys Cove","name_lower":"dorseys cove","chart":"US5PWMDD"}},{"type":"Feature","geometry":{"type":"Point","coordinates":[-70.14281334055866,43.694311196051636]},"properties":{"objtype":"SEAARE","label":"sea area","name":"Beach Cove","name_lower":"beach cove","chart":"US5PWMDD"}},{"type":"Feature","geometry":{"type":"Point","coordinates":[-70.15342642212421,43.697686397115845]},"properties":{"objtype":"SEAARE","label":"sea area","name":"Great Ledge Cove","name_lower":"great ledge cove","chart":"US5PWMDD"}},{"type":"Feature","geometry":{"type":"Point","coordinates":[-70.14862908532676,43.69878901659142]},"properties":{"objtype":"SEAARE","label":"sea area","name":"Long Cove","name_lower":"long cove","chart":"US5PWMDD"}},{"type":"Feature","geometry":{"type":"Point","coordinates":[-70.16104042894048,43.6964339010144]},"properties":{"objtype":"SEAARE","label":"sea area","name":"Mariner Ledge","name_lower":"mariner ledge","chart":"US5PWMDD"}},{"type":"Feature","geometry":{"type":"Point","coordinates":[-70.17885733454875,43.664673517653064]},"properties":{"objtype":"SEAARE","label":"sea area","name":"Wharf Cove","name_lower":"wharf cove","chart":"US5PWMDD"}},{"type":"Feature","geometry":{"type":"Point","coordinates":[-70.18136138988953,43.66608189677574]},"properties":{"objtype":"SEAARE","label":"sea area","name":"Spar Cove","name_lower":"spar cove","chart":"US5PWMDD"}},{"type":"Feature","geometry":{"type":"Point","coordinates":[-70.19021125951525,43.68484821743005]},"properties":{"objtype":"SEAARE","label":"sea area","name":"Diamond Cove","name_lower":"diamond cove","chart":"US5PWMDD"}},{"type":"Feature","geometry":{"type":"Point","coordinates":[-70.1823298792043,43.671332863153175]},"properties":{"objtype":"SEAARE","label":"sea area","name":"Josiahs Cove","name_lower":"josiahs cove","chart":"US5PWMDD"}},{"type":"Feature","geometry":{"type":"Point","coordinates":[-70.16427573473648,43.676987612442794]},"properties":{"objtype":"SEAARE","label":"sea area","name":"Wreck Cove","name_lower":"wreck cove","chart":"US5PWMDD"}},{"type":"Feature","geometry":{"type":"Point","coordinates":[-70.14648481476975,43.65844893622986]},"properties":{"objtype":"SEAARE","label":"sea area","name":"The Hussey","name_lower":"the hussey","chart":"US5PWMDD"}},{"type":"Feature","geometry":{"type":"Point","coordinates":[-70.15273003332645,43.683593482092895]},"properties":{"objtype":"SEAARE","label":"sea area","name":"Shark Cove","name_lower":"shark cove","chart":"US5PWMDD"}},{"type":"Feature","geometry":{"type":"Point","coordinates":[-70.1399576459811,43.676768333273905]},"properties":{"objtype":"SEAARE","label":"sea area","name":"Luckse Sound","name_lower":"luckse sound","chart":"US5PWMDD"}},{"type":"Feature","geometry":{"type":"Point","coordinates":[-70.12626882336279,43.71308259164962]},"properties":{"objtype":"SEAARE","label":"sea area","name":"Bennett Cove","name_lower":"bennett cove","chart":"US5PWMDD"}},{"type":"Feature","geometry":{"type":"Point","coordinates":[-70.1348860650438,43.71205938881801]},"properties":{"objtype":"SEAARE","label":"sea area","name":"Chandler Cove","name_lower":"chandler cove","chart":"US5PWMDD"}},{"type":"Feature","geometry":{"type":"Point","coordinates":[-70.16970862343508,43.69045092466836]},"properties":{"objtype":"SEAARE","label":"sea area","name":"Ponce Ledge","name_lower":"ponce ledge","chart":"US5PWMDD"}},{"type":"Feature","geometry":{"type":"Point","coordinates":[-70.18320529938596,43.66779334282805]},"properties":{"objtype":"SEAARE","label":"sea area","name":"Elm Tree Cove","name_lower":"elm tree cove","chart":"US5PWMDD"}},{"type":"Feature","geometry":{"type":"Point","coordinates":[-70.17500424415637,43.67676259414513]},"properties":{"objtype":"SEAARE","label":"sea area","name":"Hussey Sound","name_lower":"hussey sound","chart":"US5PWMDD"}},{"type":"Feature","geometry":{"type":"Point","coordinates":[-70.17520396538576,43.67333069944459]},"properties":{"objtype":"SEAARE","label":"sea area","name":"Soldier Ledge","name_lower":"soldier ledge","chart":"US5PWMDD"}},{"type":"Feature","geometry":{"type":"Point","coordinates":[-70.12738348450378,43.70897714977402]},"properties":{"objtype":"LNDRGN","label":"coastal feature","name":"Deer Point","name_lower":"deer point","chart":"US5PWMDD"}},{"type":"Feature","geometry":{"type":"Point","coordinates":[-70.13963029481498,43.7065546568245]},"properties":{"objtype":"LNDRGN","label":"coastal feature","name":"Cushing Point","name_lower":"cushing point","chart":"US5PWMDD"}},{"type":"Feature","geometry":{"type":"Point","coordinates":[-70.13231503129515,43.72083881345891]},"properties":{"objtype":"LNDRGN","label":"coastal feature","name":"Ricker Head","name_lower":"ricker head","chart":"US5PWMDD"}},{"type":"Feature","geometry":{"type":"Point","coordinates":[-70.16766676111445,43.67648216690743]},"properties":{"objtype":"LNDRGN","label":"coastal feature","name":"Jerry Point","name_lower":"jerry point","chart":"US5PWMDD"}},{"type":"Feature","geometry":{"type":"Point","coordinates":[-70.19940081953806,43.6619770199983]},"properties":{"objtype":"LNDRGN","label":"coastal feature","name":"City Point","name_lower":"city point","chart":"US5PWMDD"}},{"type":"Feature","geometry":{"type":"Point","coordinates":[-70.15678066523961,43.681524703788355]},"properties":{"objtype":"LNDRGN","label":"coastal feature","name":"Andrews Beach","name_lower":"andrews beach","chart":"US5PWMDD"}},{"type":"Feature","geometry":{"type":"Point","coordinates":[-70.1526717845301,43.68198347075748]},"properties":{"objtype":"LNDRGN","label":"coastal feature","name":"Andrews Nubble","name_lower":"andrews nubble","chart":"US5PWMDD"}},{"type":"Feature","geometry":{"type":"Point","coordinates":[-70.13883376632118,43.7039688027077]},"properties":{"objtype":"LNDRGN","label":"coastal feature","name":"East End Beach","name_lower":"east end beach","chart":"US5PWMDD"}},{"type":"Feature","geometry":{"type":"Point","coordinates":[-70.14039997992299,43.72131197752152]},"properties":{"objtype":"LNDRGN","label":"coastal feature","name":"Indian Point","name_lower":"indian point","chart":"US5PWMDD"}},{"type":"Feature","geometry":{"type":"Point","coordinates":[-70.168505,43.6896933]},"properties":{"objtype":"LNDRGN","label":"coastal feature","name":"Ponce Landing","name_lower":"ponce landing","chart":"US5PWMDD"}},{"type":"Feature","geometry":{"type":"Point","coordinates":[-70.1415137,43.7059955]},"properties":{"objtype":"LNDRGN","label":"coastal feature","name":"Cleaves Landing","name_lower":"cleaves landing","chart":"US5PWMDD"}},{"type":"Feature","geometry":{"type":"Point","coordinates":[-70.1517317,43.6982841]},"properties":{"objtype":"LNDRGN","label":"coastal feature","name":"Doughty Landing","name_lower":"doughty landing","chart":"US5PWMDD"}},{"type":"Feature","geometry":{"type":"Point","coordinates":[-70.1991258,43.6558689]},"properties":{"objtype":"LNDRGN","label":"coastal feature","name":"Forest City Landing","name_lower":"forest city landing","chart":"US5PWMDD"}},{"type":"Feature","geometry":{"type":"Point","coordinates":[-70.1859161,43.6737314]},"properties":{"objtype":"LNDRGN","label":"coastal feature","name":"Evergreen Landing","name_lower":"evergreen landing","chart":"US5PWMDD"}},{"type":"Feature","geometry":{"type":"Point","coordinates":[-70.17021639793305,43.680167806673154]},"properties":{"objtype":"LNDARE","label":"island","name":"Long Island","name_lower":"long island","chart":"US5PWMDD"}},{"type":"Feature","geometry":{"type":"Point","coordinates":[-70.15443168799331,43.67683788022231]},"properties":{"objtype":"LNDARE","label":"island","name":"Vaill Island","name_lower":"vaill island","chart":"US5PWMDD"}},{"type":"Feature","geometry":{"type":"Point","coordinates":[-70.18245298204782,43.674919198688244]},"properties":{"objtype":"LNDARE","label":"island","name":"Pumpkin Nob","name_lower":"pumpkin nob","chart":"US5PWMDD"}},{"type":"Feature","geometry":{"type":"Point","coordinates":[-70.18683220009048,43.68673814236459]},"properties":{"objtype":"LNDARE","label":"island","name":"Crow Island","name_lower":"crow island","chart":"US5PWMDD"}},{"type":"Feature","geometry":{"type":"Point","coordinates":[-70.17350364008551,43.680609807416886]},"properties":{"objtype":"LNDARE","label":"island","name":"College Island","name_lower":"college island","chart":"US5PWMDD"}},{"type":"Feature","geometry":{"type":"Point","coordinates":[-70.16730228842098,43.67392596203841]},"properties":{"objtype":"LNDARE","label":"island","name":"Overset Island","name_lower":"overset island","chart":"US5PWMDD"}},{"type":"Feature","geometry":{"type":"Point","coordinates":[-70.126625233634,43.71018143142319]},"properties":{"objtype":"LNDARE","label":"island","name":"Great Chebeague Island","name_lower":"great chebeague island","chart":"US5PWMDD"}},{"type":"Feature","geometry":{"type":"Point","coordinates":[-70.19093161833534,43.71827978937711]},"properties":{"objtype":"LNDARE","label":"island","name":"Clapboard Island","name_lower":"clapboard island","chart":"US5PWMDD"}},{"type":"Feature","geometry":{"type":"Point","coordinates":[-70.18580096361912,43.69175611844175]},"properties":{"objtype":"LNDARE","label":"island","name":"Cow Island","name_lower":"cow island","chart":"US5PWMDD"}},{"type":"Feature","geometry":{"type":"Point","coordinates":[-70.14719086324989,43.68358241175032]},"properties":{"objtype":"LNDARE","label":"island","name":"Obeds Rock","name_lower":"obeds rock","chart":"US5PWMDD"}},{"type":"Feature","geometry":{"type":"Point","coordinates":[-70.14852557741065,43.712069766550606]},"properties":{"objtype":"LNDARE","label":"island","name":"Little Chebeague Island","name_lower":"little chebeague island","chart":"US5PWMDD"}},{"type":"Feature","geometry":{"type":"Point","coordinates":[-70.1497268,43.6968295]},"properties":{"objtype":"BUAARE","label":"town","name":"Mariner","name_lower":"mariner","chart":"US5PWMDD"}},{"type":"Feature","geometry":{"type":"Point","coordinates":[-70.189869,43.6692208]},"properties":{"objtype":"BUAARE","label":"town","name":"Trefethen","name_lower":"trefethen","chart":"US5PWMDD"}},{"type":"Feature","geometry":{"type":"Point","coordinates":[-70.2138155,43.6490406]},"properties":{"objtype":"LIGHTS","label":"light","name":"Fort Scammel Light","name_lower":"fort scammel light"}},{"type":"Feature","geometry":{"type":"Point","coordinates":[-70.1873791,43.6314694]},"properties":{"objtype":"LIGHTS","label":"light","name":"Ram Island Ledge Light","name_lower":"ram island ledge light"}},{"type":"Feature","geometry":{"type":"Point","coordinates":[-70.2239054,43.6521131]},"properties":{"objtype":"LIGHTS","label":"light","name":"Spring Point Ledge Lighthouse","name_lower":"spring point ledge lighthouse"}}]}