{"type":"FeatureCollection","features":[{"type":"Feature","geometry":{"type":"Point","coordinates":[-70.159675,43.5512194]},"properties":{"objtype":"BOYLAT","label":"buoy","name":"Alden Rock Buoy 4","colour":"red","characteristic":null,"height_m":null,"range_nm":null,"chart":"US5PWMBD"}},{"type":"Feature","geometry":{"type":"Point","coordinates":[-70.1421972,43.5589111]},"properties":{"objtype":"BOYLAT","label":"buoy","name":"Corwin Rock Lighted Bell Buoy 3","colour":"green","characteristic":null,"height_m":null,"range_nm":null,"chart":"US5PWMBD"}},{"type":"Feature","geometry":{"type":"Point","coordinates":[-70.1879047,43.5562009]},"properties":{"objtype":"BOYLAT","label":"buoy","name":"Taylor Reef Buoy 3","colour":"green","characteristic":null,"height_m":null,"range_nm":null,"chart":"US5PWMBD"}},{"type":"Feature","geometry":{"type":"Point","coordinates":[-70.1798952,43.537288]},"properties":{"objtype":"BOYLAT","label":"buoy","name":"Old Anthony Lighted Whistle Buoy 2","colour":"red","characteristic":null,"height_m":null,"range_nm":null,"chart":"US5PWMBD"}},{"type":"Feature","geometry":{"type":"Point","coordinates":[-70.134665,43.5654442]},"properties":{"objtype":"BOYLAT","label":"buoy","name":"Portland Harbor Main Approach Lighted Whistle Buoy 4","colour":"red","characteristic":null,"height_m":null,"range_nm":null,"chart":"US5PWMBD"}},{"type":"Feature","geometry":{"type":"Point","coordinates":[-70.1298522,43.5718917]},"properties":{"objtype":"BOYLAT","label":"buoy","name":"West Cod Ledge Rock Buoy 4WC","colour":"red","characteristic":null,"height_m":null,"range_nm":null,"chart":"US5PWMBD"}},{"type":"Feature","geometry":{"type":"Point","coordinates":[-70.1404347,43.5251006]},"properties":{"objtype":"BOYLAT","label":"buoy","name":"East Hue and Cry Rock Lighted Buoy 1","colour":"green","characteristic":null,"height_m":null,"range_nm":null,"chart":"US5PWMBD"}},{"type":"Feature","geometry":{"type":"Point","coordinates":[-70.2816625,43.6402144]},"properties":{"objtype":"BOYLAT","label":"buoy","name":"Fore River Lighted Buoy 6","colour":"red","characteristic":null,"height_m":null,"range_nm":null,"chart":"US5PWMCB"}},{"type":"Feature","geometry":{"type":"Point","coordinates":[-70.2796186,43.637605]},"properties":{"objtype":"BCNLAT","label":"beacon","name":"Fore River Daybeacon 5A","colour":"green","characteristic":null,"height_m":null,"range_nm":null,"chart":"US5PWMCB"}},{"type":"Feature","geometry":{"type":"Point","coordinates":[-70.3028569,43.6384795]},"properties":{"objtype":"LIGHTS","label":"light","name":null,"colour":"white/green","characteristic":null,"height_m":null,"range_nm":null,"chart":"US5PWMCB"}},{"type":"Feature","geometry":{"type":"Point","coordinates":[-70.2690258,43.6413794]},"properties":{"objtype":"BOYLAT","label":"buoy","name":"Fore River Buoy 3","colour":"green","characteristic":null,"height_m":null,"range_nm":null,"chart":"US5PWMCC"}},{"type":"Feature","geometry":{"type":"Point","coordinates":[-70.2493869,43.6459006]},"properties":{"objtype":"BOYLAT","label":"buoy","name":"Lighthouse Channel Buoy 6","colour":"red","characteristic":null,"height_m":null,"range_nm":null,"chart":"US5PWMCC"}},{"type":"Feature","geometry":{"type":"Point","coordinates":[-70.2521611,43.6450111]},"properties":{"objtype":"BOYLAT","label":"buoy","name":"Mill Cove Buoy 5","colour":"green","characteristic":null,"height_m":null,"range_nm":null,"chart":"US5PWMCC"}},{"type":"Feature","geometry":{"type":"Point","coordinates":[-70.252525,43.6458278]},"properties":{"objtype":"BOYLAT","label":"buoy","name":"Mill Cove Buoy 3","colour":"green","characteristic":null,"height_m":null,"range_nm":null,"chart":"US5PWMCC"}},{"type":"Feature","geometry":{"type":"Point","coordinates":[-70.2085211,43.6477567]},"properties":{"objtype":"BOYLAT","label":"buoy","name":"Whitehead Passage Buoy 9","colour":"green","characteristic":null,"height_m":null,"range_nm":null,"chart":"US5PWMCC"}},{"type":"Feature","geometry":{"type":"Point","coordinates":[-70.212085,43.6364889]},"properties":{"objtype":"BOYLAT","label":"buoy","name":"Portland Harbor  Main Approach Lighted Buoy 14","colour":"red","characteristic":null,"height_m":null,"range_nm":null,"chart":"US5PWMCC"}},{"type":"Feature","geometry":{"type":"Point","coordinates":[-70.2149886,43.6447178]},"properties":{"objtype":"BOYLAT","label":"buoy","name":"Portland  Harbor  Main Approach Lighted Buoy 16","colour":"red","characteristic":null,"height_m":null,"range_nm":null,"chart":"US5PWMCC"}},{"type":"Feature","geometry":{"type":"Point","coordinates":[-70.2163803,43.634995]},"properties":{"objtype":"BOYLAT","label":"buoy","name":"Portland Harbor Main Approach Buoy 13","colour":"green","characteristic":null,"height_m":null,"range_nm":null,"chart":"US5PWMCC"}},{"type":"Feature","geometry":{"type":"Point","coordinates":[-70.2508292,43.6487125]},"properties":{"objtype":"BOYLAT","label":"buoy","name":"Lighthouse Channel Lighted Buoy 1","colour":"green","characteristic":null,"height_m":null,"range_nm":null,"chart":"US5PWMCC"}},{"type":"Feature","geometry":{"type":"Point","coordinates":[-70.2019975,43.6484942]},"properties":{"objtype":"BOYLAT","label":"buoy","name":"Whitehead Passage Lighted Bell Buoy 8","colour":"red","characteristic":null,"height_m":null,"range_nm":null,"chart":"US5PWMCC"}},{"type":"Feature","geometry":{"type":"Point","coordinates":[-70.21972,43.6465069]},"properties":{"objtype":"BOYLAT","label":"buoy","name":"Portland Harbor Main  Approach Lighted Buoy 17","colour":"green","characteristic":null,"height_m":null,"range_nm":null,"chart":"US5PWMCC"}},{"type":"Feature","geometry":{"type":"Point","coordinates":[-70.2655869,43.6416628]},"properties":{"objtype":"BOYLAT","label":"buoy","name":"Fore River Lighted Buoy 1","colour":"green","characteristic":null,"height_m":null,"range_nm":null,"chart":"US5PWMCC"}},{"type":"Feature","geometry":{"type":"Point","coordinates":[-70.2087433,43.6319494]},"properties":{"objtype":"BOYLAT","label":"buoy","name":"Portland Harbor Main Approach Lighted Bell Buoy 12","colour":"red","characteristic":null,"height_m":null,"range_nm":null,"chart":"US5PWMCC"}},{"type":"Feature","geometry":{"type":"Point","coordinates":[-70.2496489,43.6469167]},"properties":{"objtype":"BOYLAT","label":"buoy","name":"Lighthouse Channel Lighted Buoy 4","colour":"red","characteristic":null,"height_m":null,"range_nm":null,"chart":"US5PWMCC"}},{"type":"Feature","geometry":{"type":"Point","coordinates":[-70.2512561,43.64836]},"properties":{"objtype":"BOYLAT","label":"buoy","name":"Lighthouse Channel Lighted Buoy 2","colour":"red","characteristic":null,"height_m":null,"range_nm":null,"chart":"US5PWMCC"}},{"type":"Feature","geometry":{"type":"Point","coordinates":[-70.2729064,43.6410544]},"properties":{"objtype":"BOYLAT","label":"buoy","name":"Fore River Lighted Buoy 5","colour":"green","characteristic":null,"height_m":null,"range_nm":null,"chart":"US5PWMCC"}},{"type":"Feature","geometry":{"type":"Point","coordinates":[-70.2104611,43.6289578]},"properties":{"objtype":"BOYLAT","label":"buoy","name":"Portland Harbor Main Approach Buoy 11","colour":"green","characteristic":null,"height_m":null,"range_nm":null,"chart":"US5PWMCC"}},{"type":"Feature","geometry":{"type":"Point","coordinates":[-70.25185,43.6443944]},"properties":{"objtype":"BOYLAT","label":"buoy","name":"Mill Cove Buoy 7","colour":"green","characteristic":null,"height_m":null,"range_nm":null,"chart":"US5PWMCC"}},{"type":"Feature","geometry":{"type":"Point","coordinates":[-70.2523575,43.6448911]},"properties":{"objtype":"BCNLAT","label":"beacon","name":"Mill Cove Daybeacon 6","colour":"red","characteristic":null,"height_m":null,"range_nm":null,"chart":"US5PWMCC"}},{"type":"Feature","geometry":{"type":"Point","coordinates":[-70.2484175,43.6469154]},"properties":{"objtype":"BCNLAT","label":"beacon","name":"Lighthouse Channel Daybeacon 5","colour":"green","characteristic":null,"height_m":null,"range_nm":null,"chart":"US5PWMCC"}},{"type":"Feature","geometry":{"type":"Point","coordinates":[-70.2532553,43.6467944]},"properties":{"objtype":"BCNLAT","label":"beacon","name":"Mill Cove Daybeacon 1","colour":"green","characteristic":null,"height_m":null,"range_nm":null,"chart":"US5PWMCC"}},{"type":"Feature","geometry":{"type":"Point","coordinates":[-70.2489722,43.6472086]},"properties":{"objtype":"LIGHTS","label":"light","name":null,"colour":"green","characteristic":"Fl(1) G 4s","height_m":null,"range_nm":3.0,"chart":"US5PWMCC"}},{"type":"Feature","geometry":{"type":"Point","coordinates":[-70.2517133,43.6435256]},"properties":{"objtype":"BCNLAT","label":"beacon","name":"Mill Cove Daybeacon 9","colour":"green","characteristic":null,"height_m":null,"range_nm":null,"chart":"US5PWMCC"}},{"type":"Feature","geometry":{"type":"Point","coordinates":[-70.2519817,43.6442656]},"properties":{"objtype":"BCNLAT","label":"beacon","name":"Mill Cove Daybeacon 8","colour":"red","characteristic":null,"height_m":null,"range_nm":null,"chart":"US5PWMCC"}},{"type":"Feature","geometry":{"type":"Point","coordinates":[-70.2534692,43.6466964]},"properties":{"objtype":"BCNLAT","label":"beacon","name":"Mill Cove Daybeacon 2","colour":"red","characteristic":null,"height_m":null,"range_nm":null,"chart":"US5PWMCC"}},{"type":"Feature","geometry":{"type":"Point","coordinates":[-70.2528369,43.6456739]},"properties":{"objtype":"BCNLAT","label":"beacon","name":"Mill Cove Daybeacon 4","colour":"red","characteristic":null,"height_m":null,"range_nm":null,"chart":"US5PWMCC"}},{"type":"Feature","geometry":{"type":"Point","coordinates":[-70.2138155,43.6490406]},"properties":{"objtype":"LIGHTS","label":"light","name":"Fort Scammel Light","colour":"red","characteristic":"Fl(1) R 4s","height_m":10.6,"range_nm":5.0,"chart":"US5PWMCC","name_lower":"fort scammel light"}},{"type":"Feature","geometry":{"type":"Point","coordinates":[-70.2508,43.6424703]},"properties":{"objtype":"BCNLAT","label":"beacon","name":"Mill Cove Daybeacon 11","colour":"green","characteristic":null,"height_m":null,"range_nm":null,"chart":"US5PWMCC"}},{"type":"Feature","geometry":{"type":"Point","coordinates":[-70.2535756,43.6499711]},"properties":{"objtype":"LIGHTS","label":"light","name":null,"colour":"yellow","characteristic":"Fl(1) Y 4s","height_m":5.4,"range_nm":4.0,"chart":"US5PWMCC"}},{"type":"Feature","geometry":{"type":"Point","coordinates":[-70.2078644,43.6231039]},"properties":{"objtype":"LIGHTS","label":"light","name":null,"colour":"white","characteristic":"F W","height_m":10.3,"range_nm":15.0,"chart":"US5PWMCC"}},{"type":"Feature","geometry":{"type":"Point","coordinates":[-70.1868039,43.5838889]},"properties":{"objtype":"BOYLAT","label":"buoy","name":"Broad Cove Rock Buoy 5","colour":"green","characteristic":null,"height_m":null,"range_nm":null,"chart":"US5PWMCD"}},{"type":"Feature","geometry":{"type":"Point","coordinates":[-70.1755814,43.6223324]},"properties":{"objtype":"BOYLAT","label":"buoy","name":"Witch Rock Lighted Bell Buoy 2","colour":"red","characteristic":null,"height_m":null,"range_nm":null,"chart":"US5PWMCD"}},{"type":"Feature","geometry":{"type":"Point","coordinates":[-70.179503,43.6399209]},"properties":{"objtype":"BOYLAT","label":"buoy","name":"Ram Island Shoal Buoy 1","colour":"green","characteristic":null,"height_m":null,"range_nm":null,"chart":"US5PWMCD"}},{"type":"Feature","geometry":{"type":"Point","coordinates":[-70.1884823,43.6168539]},"properties":{"objtype":"BOYLAT","label":"buoy","name":"Jordan Reef Buoy 10","colour":"red","characteristic":null,"height_m":null,"range_nm":null,"chart":"US5PWMCD"}},{"type":"Feature","geometry":{"type":"Point","coordinates":[-70.1827346,43.6015081]},"properties":{"objtype":"BOYLAT","label":"buoy","name":"Willard Rock Lighted Gong Buoy 7","colour":"green","characteristic":null,"height_m":null,"range_nm":null,"chart":"US5PWMCD"}},{"type":"Feature","geometry":{"type":"Point","coordinates":[-70.1628022,43.6181061]},"properties":{"objtype":"BOYLAT","label":"buoy","name":"Portland Harbor Eastern Approach Lighted Gong Buoy 1","colour":"green","characteristic":null,"height_m":null,"range_nm":null,"chart":"US5PWMCD"}},{"type":"Feature","geometry":{"type":"Point","coordinates":[-70.1809394,43.6100778]},"properties":{"objtype":"BOYLAT","label":"buoy","name":"Pine Tree Ledge Lighted Whistle Buoy 8","colour":"red","characteristic":null,"height_m":null,"range_nm":null,"chart":"US5PWMCD"}},{"type":"Feature","geometry":{"type":"Point","coordinates":[-70.184213,43.6213333]},"properties":{"objtype":"BOYLAT","label":"buoy","name":"Portland Harbor Eastern Approach Lighted Buoy 3","colour":"green","characteristic":null,"height_m":null,"range_nm":null,"chart":"US5PWMCD"}},{"type":"Feature","geometry":{"type":"Point","coordinates":[-70.1937363,43.6481133]},"properties":{"objtype":"BOYLAT","label":"buoy","name":"Whitehead Passage Buoy 6","colour":"red","characteristic":null,"height_m":null,"range_nm":null,"chart":"US5PWMCD"}},{"type":"Feature","geometry":{"type":"Point","coordinates":[-70.1927565,43.6474951]},"properties":{"objtype":"BCNLAT","label":"beacon","name":"Whitehead Ledge Daybeacon 3","colour":"green","characteristic":null,"height_m":null,"range_nm":null,"chart":"US5PWMCD"}},{"type":"Feature","geometry":{"type":"Point","coordinates":[-70.1986478,43.6202098]},"properties":{"objtype":"LIGHTS","label":"light","name":null,"colour":"white","characteristic":"Fl(2) W 5s","height_m":null,"range_nm":null,"chart":"US5PWMCD"}},{"type":"Feature","geometry":{"type":"Point","coordinates":[-70.1873791,43.6314694]},"properties":{"objtype":"LIGHTS","label":"light","name":"Ram Island Ledge Light","colour":"white","characteristic":"Fl(2) W 6s","height_m":23.4,"range_nm":9.0,"chart":"US5PWMCD","name_lower":"ram island ledge light"}},{"type":"Feature","geometry":{"type":"Point","coordinates":[-70.0669986,43.6004908]},"properties":{"objtype":"BOYLAT","label":"buoy","name":"Bulwark Shoal Buoy BS","colour":"red/green/red","characteristic":null,"height_m":null,"range_nm":null,"chart":"US5PWMCE"}},{"type":"Feature","geometry":{"type":"Point","coordinates":[-70.2372333,43.6557833]},"properties":{"objtype":"BOYLAT","label":"buoy","name":"South Portland Boat Ramp Buoy \"1\"","colour":"green","characteristic":null,"height_m":null,"range_nm":null,"chart":"US5PWMDC"}},{"type":"Feature","geometry":{"type":"Point","coordinates":[-70.2101658,43.6847305]},"properties":{"objtype":"BOYLAT","label":"buoy","name":"Casco Bay Channel Buoy 8","colour":"red","characteristic":null,"height_m":null,"range_nm":null,"chart":"US5PWMDC"}},{"type":"Feature","geometry":{"type":"Point","coordinates":[-70.2347258,43.6713493]},"properties":{"objtype":"BOYLAT","label":"buoy","name":"Back Cove Approach Buoy 3","colour":"green","characteristic":null,"height_m":null,"range_nm":null,"chart":"US5PWMDC"}},{"type":"Feature","geometry":{"type":"Point","coordinates":[-70.2056145,43.6562022]},"properties":{"objtype":"BOYLAT","label":"buoy","name":"House Island Buoy 1","colour":"green","characteristic":null,"height_m":null,"range_nm":null,"chart":"US5PWMDC"}},{"type":"Feature","geometry":{"type":"Point","coordinates":[-70.2109492,43.7009046]},"properties":{"objtype":"BOYLAT","label":"buoy","name":"The Brothers Buoy 11","colour":"green","characteristic":null,"height_m":null,"range_nm":null,"chart":"US5PWMDC"}},{"type":"Feature","geometry":{"type":"Point","coordinates":[-70.2124579,43.6612822]},"properties":{"objtype":"BOYLAT","label":"buoy","name":"Diamond Island Pass Buoy 6","colour":"red","characteristic":null,"height_m":null,"range_nm":null,"chart":"US5PWMDC"}},{"type":"Feature","geometry":{"type":"Point","coordinates":[-70.2144602,43.6636446]},"properties":{"objtype":"BOYLAT","label":"buoy","name":"Casco Bay Channel Buoy 2","colour":"red","characteristic":null,"height_m":null,"range_nm":null,"chart":"US5PWMDC"}},{"type":"Feature","geometry":{"type":"Point","coordinates":[-70.2284114,43.6724225]},"properties":{"objtype":"BOYLAT","label":"buoy","name":"Back Cove Approach Buoy 4","colour":"red","characteristic":null,"height_m":null,"range_nm":null,"chart":"US5PWMDC"}},{"type":"Feature","geometry":{"type":"Point","coordinates":[-70.2357912,43.6649044]},"properties":{"objtype":"BOYLAT","label":"buoy","name":"Fish Point Lighted Buoy 1","colour":"green","characteristic":null,"height_m":null,"range_nm":null,"chart":"US5PWMDC"}},{"type":"Feature","geometry":{"type":"Point","coordinates":[-70.240743,43.6752506]},"properties":{"objtype":"BOYLAT","label":"buoy","name":"Back Cove Approach Lighted Buoy 5","colour":"green","characteristic":null,"height_m":null,"range_nm":null,"chart":"US5PWMDC"}},{"type":"Feature","geometry":{"type":"Point","coordinates":[-70.2413601,43.6770038]},"properties":{"objtype":"BOYLAT","label":"buoy","name":"Back Cove Approach Buoy 6","colour":"red","characteristic":null,"height_m":null,"range_nm":null,"chart":"US5PWMDC"}},{"type":"Feature","geometry":{"type":"Point","coordinates":[-70.2483206,43.6755181]},"properties":{"objtype":"BOYLAT","label":"buoy","name":"Back Cove Approach Lighted Buoy 8","colour":"red","characteristic":null,"height_m":null,"range_nm":null,"chart":"US5PWMDC"}},{"type":"Feature","geometry":{"type":"Point","coordinates":[-70.2010456,43.7157626]},"properties":{"objtype":"BOYLAT","label":"buoy","name":"Jones Ledge Buoy 14","colour":"red","characteristic":null,"height_m":null,"range_nm":null,"chart":"US5PWMDC"}},{"type":"Feature","geometry":{"type":"Point","coordinates":[-70.2013881,43.6666652]},"properties":{"objtype":"BOYLAT","label":"buoy","name":"Diamond Island Pass Lighted Buoy 5","colour":"green","characteristic":null,"height_m":null,"range_nm":null,"chart":"US5PWMDC"}},{"type":"Feature","geometry":{"type":"Point","coordinates":[-70.2112313,43.6796562]},"properties":{"objtype":"BOYLAT","label":"buoy","name":"Casco Bay Channel Buoy 6","colour":"red","characteristic":null,"height_m":null,"range_nm":null,"chart":"US5PWMDC"}},{"type":"Feature","geometry":{"type":"Point","coordinates":[-70.2358811,43.6576683]},"properties":{"objtype":"BOYLAT","label":"buoy","name":"Dredged Channel Lighted Buoy 5","colour":"green","characteristic":null,"height_m":null,"range_nm":null,"chart":"US5PWMDC"}},{"type":"Feature","geometry":{"type":"Point","coordinates":[-70.2124528,43.6722707]},"properties":{"objtype":"BOYLAT","label":"buoy","name":"Casco Bay Channel Buoy 4","colour":"red","characteristic":null,"height_m":null,"range_nm":null,"chart":"US5PWMDC"}},{"type":"Feature","geometry":{"type":"Point","coordinates":[-70.2151944,43.6687778]},"properties":{"objtype":"BOYLAT","label":"buoy","name":"Casco Bay Channel Buoy 3","colour":"green","characteristic":null,"height_m":null,"range_nm":null,"chart":"US5PWMDC"}},{"type":"Feature","geometry":{"type":"Point","coordinates":[-70.216319,43.6636848]},"properties":{"objtype":"BOYLAT","label":"buoy","name":"Casco Bay Channel Buoy 1","colour":"green","characteristic":null,"height_m":null,"range_nm":null,"chart":"US5PWMDC"}},{"type":"Feature","geometry":{"type":"Point","coordinates":[-70.2254141,43.6547886]},"properties":{"objtype":"BOYLAT","label":"buoy","name":"Portland Harbor Channel Lighted Buoy 1","colour":"green","characteristic":null,"height_m":null,"range_nm":null,"chart":"US5PWMDC"}},{"type":"Feature","geometry":{"type":"Point","coordinates":[-70.2289882,43.6575226]},"properties":{"objtype":"BOYLAT","label":"buoy","name":"Seventeen-Foot Shoal Lighted Buoy 3","colour":"green","characteristic":null,"height_m":null,"range_nm":null,"chart":"US5PWMDC"}},{"type":"Feature","geometry":{"type":"Point","coordinates":[-70.2004411,43.7114474]},"properties":{"objtype":"BOYLAT","label":"buoy","name":"Lower Clapboard Island Ledge Buoy 12","colour":"red","characteristic":null,"height_m":null,"range_nm":null,"chart":"US5PWMDC"}},{"type":"Feature","geometry":{"type":"Point","coordinates":[-70.2062215,43.7199168]},"properties":{"objtype":"BOYLAT","label":"buoy","name":"Prince Point Ledge Buoy 15","colour":"green","characteristic":null,"height_m":null,"range_nm":null,"chart":"US5PWMDC"}},{"type":"Feature","geometry":{"type":"Point","coordinates":[-70.21173,43.6848786]},"properties":{"objtype":"BOYLAT","label":"buoy","name":"Casco Bay Channel Buoy 9","colour":"green","characteristic":null,"height_m":null,"range_nm":null,"chart":"US5PWMDC"}},{"type":"Feature","geometry":{"type":"Point","coordinates":[-70.2233889,43.6592778]},"properties":{"objtype":"BOYLAT","label":"buoy","name":"Fort Georges Island Ledge Lighted Buoy 4","colour":"red","characteristic":null,"height_m":null,"range_nm":null,"chart":"US5PWMDC"}},{"type":"Feature","geometry":{"type":"Point","coordinates":[-70.2076397,43.6558644]},"properties":{"objtype":"LIGHTS","label":"light","name":null,"colour":"green","characteristic":"Fl(1) G 4s","height_m":6.0,"range_nm":4.0,"chart":"US5PWMDC"}},{"type":"Feature","geometry":{"type":"Point","coordinates":[-70.2239054,43.6521131]},"properties":{"objtype":"LIGHTS","label":"light","name":"Spring Point Ledge Lighthouse","colour":"white","characteristic":"Fl(1) W 6s","height_m":16.4,"range_nm":12.0,"chart":"US5PWMDC","name_lower":"spring point ledge lighthouse"}},{"type":"Feature","geometry":{"type":"Point","coordinates":[-70.234846,43.655524]},"properties":{"objtype":"LIGHTS","label":"light","name":null,"colour":"white","characteristic":"Fl(1) W 4s","height_m":9.1,"range_nm":null,"chart":"US5PWMDC"}},{"type":"Feature","geometry":{"type":"Point","coordinates":[-70.2281614,43.6553183]},"properties":{"objtype":"LIGHTS","label":"light","name":null,"colour":"white","characteristic":"F W","height_m":null,"range_nm":null,"chart":"US5PWMDC"}},{"type":"Feature","geometry":{"type":"Point","coordinates":[-70.2166661,43.6511388]},"properties":{"objtype":"LIGHTS","label":"light","name":null,"colour":"yellow","characteristic":"Fl(1) Y 4s","height_m":null,"range_nm":null,"chart":"US5PWMDC"}},{"type":"Feature","geometry":{"type":"Point","coordinates":[-70.2431175,43.6531053]},"properties":{"objtype":"LIGHTS","label":"light","name":null,"colour":"white","characteristic":"F W","height_m":null,"range_nm":null,"chart":"US5PWMDC"}},{"type":"Feature","geometry":{"type":"Point","coordinates":[-70.209647,43.6596822]},"properties":{"objtype":"LIGHTS","label":"light","name":null,"colour":"yellow","characteristic":"Fl(1) Y 4s","height_m":null,"range_nm":null,"chart":"US5PWMDC"}},{"type":"Feature","geometry":{"type":"Point","coordinates":[-70.2249708,43.6630833]},"properties":{"objtype":"LIGHTS","label":"light","name":null,"colour":"white","characteristic":"Fl(1) W 2s","height_m":7.3,"range_nm":5.0,"chart":"US5PWMDC"}},{"type":"Feature","geometry":{"type":"Point","coordinates":[-70.1966333,43.7244667]},"properties":{"objtype":"BOYLAT","label":"buoy","name":"Portland Yacht Club Lighted Buoy 1","colour":"green","characteristic":null,"height_m":null,"range_nm":null,"chart":"US5PWMDD"}},{"type":"Feature","geometry":{"type":"Point","coordinates":[-70.153112,43.7222513]},"properties":{"objtype":"BOYLAT","label":"buoy","name":"Hussey Sound Lighted Buoy 14","colour":"red","characteristic":null,"height_m":null,"range_nm":null,"chart":"US5PWMDD"}},{"type":"Feature","geometry":{"type":"Point","coordinates":[-70.1411006,43.7082294]},"properties":{"objtype":"BOYLAT","label":"buoy","name":"Chandler Cove Lighted Buoy 5","colour":"green","characteristic":null,"height_m":null,"range_nm":null,"chart":"US5PWMDD"}},{"type":"Feature","geometry":{"type":"Point","coordinates":[-70.1311101,43.7064145]},"properties":{"objtype":"BOYLAT","label":"buoy","name":"Chandler Cove Lighted Buoy 2","colour":"red","characteristic":null,"height_m":null,"range_nm":null,"chart":"US5PWMDD"}},{"type":"Feature","geometry":{"type":"Point","coordinates":[-70.1738783,43.7029486]},"properties":{"objtype":"BOYLAT","label":"buoy","name":"Hussey Sound Lighted Buoy 11","colour":"green","characteristic":null,"height_m":null,"range_nm":null,"chart":"US5PWMDD"}},{"type":"Feature","geometry":{"type":"Point","coordinates":[-70.1704306,43.692204]},"properties":{"objtype":"BOYLAT","label":"buoy","name":"Hussey Sound Lighted Bell Buoy 10","colour":"red","characteristic":null,"height_m":null,"range_nm":null,"chart":"US5PWMDD"}},{"type":"Feature","geometry":{"type":"Point","coordinates":[-70.1609704,43.6969757]},"properties":{"objtype":"BOYLAT","label":"buoy","name":"Chandler Cove Buoy 9","colour":"green","characteristic":null,"height_m":null,"range_nm":null,"chart":"US5PWMDD"}},{"type":"Feature","geometry":{"type":"Point","coordinates":[-70.1619073,43.7028141]},"properties":{"objtype":"BOYLAT","label":"buoy","name":"Hussey Sound Buoy 12","colour":"red","characteristic":null,"height_m":null,"range_nm":null,"chart":"US5PWMDD"}},{"type":"Feature","geometry":{"type":"Point","coordinates":[-70.149742,43.7036254]},"properties":{"objtype":"BOYLAT","label":"buoy","name":"Chandler Cove Buoy 8","colour":"red","characteristic":null,"height_m":null,"range_nm":null,"chart":"US5PWMDD"}},{"type":"Feature","geometry":{"type":"Point","coordinates":[-70.14511,43.7077366]},"properties":{"objtype":"BOYLAT","label":"buoy","name":"Chandler Cove Buoy 6","colour":"red","characteristic":null,"height_m":null,"range_nm":null,"chart":"US5PWMDD"}},{"type":"Feature","geometry":{"type":"Point","coordinates":[-70.1346977,43.7103932]},"properties":{"objtype":"BOYLAT","label":"buoy","name":"Chandler Cove Buoy 3","colour":"green","characteristic":null,"height_m":null,"range_nm":null,"chart":"US5PWMDD"}},{"type":"Feature","geometry":{"type":"Point","coordinates":[-70.1867821,43.6844271]},"properties":{"objtype":"BOYLAT","label":"buoy","name":"Diamond Cove Buoy 1","colour":"green","characteristic":null,"height_m":null,"range_nm":null,"chart":"US5PWMDD"}},{"type":"Feature","geometry":{"type":"Point","coordinates":[-70.1966152,43.7047967]},"properties":{"objtype":"BOYLAT","label":"buoy","name":"Clapboard Island South Ledge Buoy CI","colour":"red/green/red","characteristic":null,"height_m":null,"range_nm":null,"chart":"US5PWMDD"}},{"type":"Feature","geometry":{"type":"Point","coordinates":[-70.1852029,43.7064923]},"properties":{"objtype":"BOYLAT","label":"buoy","name":"Cow Island Ledge Buoy CIL","colour":"green/red/green","characteristic":null,"height_m":null,"range_nm":null,"chart":"US5PWMDD"}},{"type":"Feature","geometry":{"type":"Point","coordinates":[-70.1874471,43.6960473]},"properties":{"objtype":"BOYLAT","label":"buoy","name":"Cow Island Shoal Buoy 4","colour":"red","characteristic":null,"height_m":null,"range_nm":null,"chart":"US5PWMDD"}},{"type":"Feature","geometry":{"type":"Point","coordinates":[-70.1980333,43.7238]},"properties":{"objtype":"BOYLAT","label":"buoy","name":"HBS Lighted Buoy 2","colour":"red","characteristic":null,"height_m":null,"range_nm":null,"chart":"US5PWMDD"}},{"type":"Feature","geometry":{"type":"Point","coordinates":[-70.1993175,43.6919819]},"properties":{"objtype":"BOYLAT","label":"buoy","name":"Brimstone Point Ledge Buoy 10","colour":"red","characteristic":null,"height_m":null,"range_nm":null,"chart":"US5PWMDD"}},{"type":"Feature","geometry":{"type":"Point","coordinates":[-70.1522355,43.6514712]},"properties":{"objtype":"BOYLAT","label":"buoy","name":"Hussey Sound Approach Lighted Buoy 2","colour":"red","characteristic":null,"height_m":null,"range_nm":null,"chart":"US5PWMDD"}},{"type":"Feature","geometry":{"type":"Point","coordinates":[-70.19855,43.7233167]},"properties":{"objtype":"BOYLAT","label":"buoy","name":"HBS Lighted Buoy 1","colour":"green","characteristic":null,"height_m":null,"range_nm":null,"chart":"US5PWMDD"}},{"type":"Feature","geometry":{"type":"Point","coordinates":[-70.1740324,43.6654822]},"properties":{"objtype":"BOYLAT","label":"buoy","name":"Hussey Sound Buoy 5","colour":"green","characteristic":null,"height_m":null,"range_nm":null,"chart":"US5PWMDD"}},{"type":"Feature","geometry":{"type":"Point","coordinates":[-70.176128,43.6722268]},"properties":{"objtype":"BOYLAT","label":"buoy","name":"Hussey Sound Lighted Buoy 6","colour":"red","characteristic":null,"height_m":null,"range_nm":null,"chart":"US5PWMDD"}},{"type":"Feature","geometry":{"type":"Point","coordinates":[-70.1802108,43.674768]},"properties":{"objtype":"BOYLAT","label":"buoy","name":"Hussey Sound Lighted Bell Buoy 7","colour":"green","characteristic":null,"height_m":null,"range_nm":null,"chart":"US5PWMDD"}},{"type":"Feature","geometry":{"type":"Point","coordinates":[-70.1864867,43.6760381]},"properties":{"objtype":"BOYLAT","label":"buoy","name":"Diamond Island Pass Lighted Buoy 1","colour":"green","characteristic":null,"height_m":null,"range_nm":null,"chart":"US5PWMDD"}},{"type":"Feature","geometry":{"type":"Point","coordinates":[-70.19256,43.6906524]},"properties":{"objtype":"BOYLAT","label":"buoy","name":"Diamond Cove Ledge Buoy 2","colour":"red","characteristic":null,"height_m":null,"range_nm":null,"chart":"US5PWMDD"}},{"type":"Feature","geometry":{"type":"Point","coordinates":[-70.1640835,43.6675282]},"properties":{"objtype":"BOYLAT","label":"buoy","name":"Hussey Sound Lighted Buoy 4","colour":"red","characteristic":null,"height_m":null,"range_nm":null,"chart":"US5PWMDD"}},{"type":"Feature","geometry":{"type":"Point","coordinates":[-70.1461028,43.6584639]},"properties":{"objtype":"BOYLAT","label":"buoy","name":"Luckse Sound East Buoy 4","colour":"red","characteristic":null,"height_m":null,"range_nm":null,"chart":"US5PWMDD"}},{"type":"Feature","geometry":{"type":"Point","coordinates":[-70.1676928,43.6637543]},"properties":{"objtype":"BOYLAT","label":"buoy","name":"Hussey Sound Lighted Buoy 3","colour":"green","characteristic":null,"height_m":null,"range_nm":null,"chart":"US5PWMDD"}},{"type":"Feature","geometry":{"type":"Point","coordinates":[-70.1911672,43.6723493]},"properties":{"objtype":"BOYLAT","label":"buoy","name":"Diamond Island Pass Buoy 3","colour":"green","characteristic":null,"height_m":null,"range_nm":null,"chart":"US5PWMDD"}},{"type":"Feature","geometry":{"type":"Point","coordinates":[-70.1866209,43.6863408]},"properties":{"objtype":"LIGHTS","label":"light","name":null,"colour":"green","characteristic":"Fl(1) G 2s","height_m":12.4,"range_nm":5.0,"chart":"US5PWMDD"}},{"type":"Feature","geometry":{"type":"Point","coordinates":[-70.1905476,43.724109]},"properties":{"objtype":"BCNLAT","label":"beacon","name":"Clapboard Island North Ledge Daybeacon 18","colour":"red","characteristic":null,"height_m":null,"range_nm":null,"chart":"US5PWMDD"}},{"type":"Feature","geometry":{"type":"Point","coordinates":[-70.1885226,43.703017]},"properties":{"objtype":"LIGHTS","label":"light","name":null,"colour":"white","characteristic":"Fl(1) W 6s","height_m":7.0,"range_nm":8.0,"chart":"US5PWMDD"}}]}